[{"osmid":522177292,"name":"Ayten","amenity":"fast_food","cuisine":"kebab","addr:street":"Rue du Général Mangin","addr:housenumber":"75","geometry":[2.8230698,49.4050008],"closest_node":443178424,"distance_noeud":23.2916519354},{"osmid":558089983,"name":"Le Best","amenity":"fast_food","cuisine":"kebab","addr:street":"Rue du Port à Bateaux","addr:housenumber":"29","geometry":[2.8202717,49.4150559],"closest_node":266981029,"distance_noeud":26.2051868276},{"osmid":1422537295,"name":"Antalya Kebab","amenity":"fast_food","cuisine":"turkish","addr:street":"Quai de la République","addr:housenumber":"6","geometry":[2.8237302,49.4212228],"closest_node":443178359,"distance_noeud":48.1715304981},{"osmid":1422537298,"name":"Resto Kebab","amenity":"fast_food","cuisine":"kebab","addr:street":"Rue d'Amiens","addr:housenumber":"1","geometry":[2.8223863,49.4205818],"closest_node":474807680,"distance_noeud":29.3302976163},{"osmid":1422537300,"name":"Sushi Shake Le Délice","amenity":"restaurant","cuisine":"japanese","addr:street":"Rue Solférino","addr:housenumber":"9","geometry":[2.8242301,49.4193147],"closest_node":266981035,"distance_noeud":54.4941040191},{"osmid":1455303065,"name":"Le Soft","amenity":"fast_food","cuisine":"burger","addr:street":null,"addr:housenumber":null,"geometry":[2.8183994,49.4065351],"closest_node":443813851,"distance_noeud":18.3983265962},{"osmid":1455702976,"name":"Regal Pizza","amenity":"fast_food","cuisine":"pizza","addr:street":"Rue Alexandre Dumas","addr:housenumber":"8","geometry":[2.8030061,49.4070276],"closest_node":2565333581,"distance_noeud":41.3704901447},{"osmid":1468029225,"name":"Au Dally's","amenity":"restaurant","cuisine":"oriental","addr:street":"Rue de la 8e Division","addr:housenumber":"8","geometry":[2.827651,49.4208054],"closest_node":442715121,"distance_noeud":55.771429081},{"osmid":1514119807,"name":"Bistrot de Flandre","amenity":"restaurant","cuisine":"french","addr:street":"Rue d'Amiens","addr:housenumber":"2","geometry":[2.8228704,49.4208372],"closest_node":2266329732,"distance_noeud":34.7715554382},{"osmid":1519315592,"name":"Lanterne","amenity":"restaurant","cuisine":"pizza","addr:street":"Rue de Paris","addr:housenumber":"106","geometry":[2.8150965,49.4090739],"closest_node":443178427,"distance_noeud":20.5185984372},{"osmid":1541452904,"name":"Aux Mille Délices","amenity":"fast_food","cuisine":"kebab","addr:street":null,"addr:housenumber":null,"geometry":[2.8228465,49.4163312],"closest_node":442373455,"distance_noeud":10.4766688121},{"osmid":1541452909,"name":"Soprano","amenity":"restaurant","cuisine":"italian","addr:street":"Rue Jean Legendre","addr:housenumber":"22","geometry":[2.8261314,49.4170889],"closest_node":376053938,"distance_noeud":26.4815279859},{"osmid":1541452912,"name":"Le Pacifique","amenity":"restaurant","cuisine":"asian","addr:street":"Rue Jeanne d'Arc","addr:housenumber":"33","geometry":[2.8234656,49.41731],"closest_node":376054080,"distance_noeud":19.6440583033},{"osmid":1541452915,"name":"Red Bear N’ Burger","amenity":"restaurant","cuisine":"burger","addr:street":"Rue d'Austerlitz","addr:housenumber":"28 bis","geometry":[2.8224514,49.4165799],"closest_node":342376596,"distance_noeud":12.4409828445},{"osmid":1541452925,"name":"Nouvelle Étoile","amenity":"restaurant","cuisine":"asian","addr:street":"Rue du Change","addr:housenumber":"17","geometry":[2.8238612,49.4166093],"closest_node":420195076,"distance_noeud":35.7025528605},{"osmid":1541453852,"name":"Sushi Thaï","amenity":"fast_food","cuisine":"sushi","addr:street":"Rue Saint-Corneille","addr:housenumber":"49","geometry":[2.822718,49.416481],"closest_node":266981032,"distance_noeud":14.561424621},{"osmid":1541453854,"name":"Pock'n'Roll","amenity":"restaurant","cuisine":"poke","addr:street":"Rue Solférino","addr:housenumber":"7","geometry":[2.8241978,49.4193481],"closest_node":266981035,"distance_noeud":49.590817731},{"osmid":1541453862,"name":"Istanbul Grill Pizzeria","amenity":"restaurant","cuisine":"turkish","addr:street":"Rue de Pierrefonds","addr:housenumber":"4 ter","geometry":[2.8276449,49.4156306],"closest_node":266981481,"distance_noeud":57.8674906942},{"osmid":1541453866,"name":"Chez Poupette","amenity":"fast_food","cuisine":"coffee_shop;sandwich","addr:street":"Rue Saint-Corneille","addr:housenumber":"39","geometry":[2.8230642,49.4166483],"closest_node":266981032,"distance_noeud":53.957266139},{"osmid":1541453870,"name":"Le Wood Compiègne","amenity":"fast_food","cuisine":"pizza","addr:street":null,"addr:housenumber":"27","geometry":[2.8250809,49.4165603],"closest_node":442715113,"distance_noeud":21.5721231731},{"osmid":1723832593,"name":"Urban Food","amenity":"fast_food","cuisine":"burger","addr:street":"Rue du Port à Bateaux","addr:housenumber":"9","geometry":[2.8190102,49.4161314],"closest_node":557256638,"distance_noeud":51.3852398366},{"osmid":2165038728,"name":"Gourmets d'Asie","amenity":"restaurant","cuisine":"asian","addr:street":"Rue Gaspard Monge","addr:housenumber":null,"geometry":[2.7885523,49.3959994],"closest_node":446839057,"distance_noeud":55.8723649803},{"osmid":2302791115,"name":"Bakin Donuts","amenity":"fast_food","cuisine":"donut","addr:street":"Rue des Cordeliers","addr:housenumber":"2","geometry":[2.826596,49.4166284],"closest_node":420194971,"distance_noeud":23.3830792979},{"osmid":2447243148,"name":"Bistrot du Terroir","amenity":"restaurant","cuisine":"french","addr:street":null,"addr:housenumber":null,"geometry":[2.8257194,49.4183838],"closest_node":443178357,"distance_noeud":24.0795621029},{"osmid":2549406321,"name":"Domino's","amenity":"fast_food","cuisine":"pizza","addr:street":"Rue de Beauvais","addr:housenumber":"5","geometry":[2.8196781,49.4191098],"closest_node":443178364,"distance_noeud":45.2883351653},{"osmid":2580578116,"name":"L'Entre Mets","amenity":"restaurant","cuisine":"traditional","addr:street":"Rue d'Amiens","addr:housenumber":"23 ter","geometry":[2.8211001,49.4221313],"closest_node":3499753981,"distance_noeud":39.331360654},{"osmid":2623421423,"name":"La Calabraise","amenity":"restaurant","cuisine":"italian","addr:street":"Rue des Lombards","addr:housenumber":"22","geometry":[2.8265635,49.4163352],"closest_node":420194971,"distance_noeud":48.7203488058},{"osmid":2629076122,"name":"Le Bouchon","amenity":"restaurant","cuisine":"french","addr:street":"Rue d'Austerlitz","addr:housenumber":"4","geometry":[2.8215817,49.4173175],"closest_node":266981033,"distance_noeud":30.6642261474},{"osmid":2667602322,"name":"Istanbul Grill","amenity":"fast_food","cuisine":"kebab","addr:street":"Place de la Gare","addr:housenumber":"10","geometry":[2.8227043,49.4213427],"closest_node":443178367,"distance_noeud":46.6409882042},{"osmid":3172253561,"name":"Ristorante Del Arte","amenity":"restaurant","cuisine":"italian","addr:street":"Rue Ferdinand de Lesseps","addr:housenumber":"4 bis","geometry":[2.7855708,49.3881867],"closest_node":446838935,"distance_noeud":60.0914145698},{"osmid":3190162670,"name":"Zen Sushi","amenity":"restaurant","cuisine":"japanese","addr:street":"Rue du Port à Bateaux","addr:housenumber":"8","geometry":[2.8186562,49.4164498],"closest_node":557256638,"distance_noeud":13.6932688576},{"osmid":3398575648,"name":"Le Mood","amenity":"restaurant","cuisine":"pizza","addr:street":"Place du 54e Régiment d'Infanterie","addr:housenumber":"5","geometry":[2.8220053,49.4204043],"closest_node":458749156,"distance_noeud":22.1933102734},{"osmid":3407247576,"name":"Taj Mahal","amenity":"restaurant","cuisine":"indian","addr:street":"Rue de Noyon","addr:housenumber":"4","geometry":[2.8220941,49.4222427],"closest_node":448033114,"distance_noeud":33.2312340803},{"osmid":3465574936,"name":"Léon","amenity":"restaurant","cuisine":"friture","addr:street":"Rue Ferdinand de Lesseps","addr:housenumber":"6","geometry":[2.7853904,49.3879324],"closest_node":446838935,"distance_noeud":92.6459287532},{"osmid":3542020908,"name":"Le Vesuvio","amenity":"restaurant","cuisine":"pizza","addr:street":"Rue du Harlay","addr:housenumber":"5","geometry":[2.8233899,49.4192343],"closest_node":266981035,"distance_noeud":57.4910961595},{"osmid":3781008379,"name":"Délice Kebab","amenity":"fast_food","cuisine":"kebab","addr:street":"Rue d'Amiens","addr:housenumber":"38","geometry":[2.8206091,49.4232012],"closest_node":448033118,"distance_noeud":14.9252693421},{"osmid":3781008385,"name":"Pizza Time's","amenity":"restaurant","cuisine":"pizza","addr:street":"Rue d'Amiens","addr:housenumber":"36","geometry":[2.8207197,49.4230922],"closest_node":448033118,"distance_noeud":18.0239683745},{"osmid":4089407955,"name":"Les Ferlempins","amenity":"restaurant","cuisine":"french","addr:street":"Cours Guynemer","addr:housenumber":"13","geometry":[2.8266075,49.4207162],"closest_node":266981318,"distance_noeud":33.8830011497},{"osmid":4377491229,"name":"Flash Kebab","amenity":"restaurant","cuisine":"kebab","addr:street":"Rue de Senlis","addr:housenumber":"34","geometry":[2.8034371,49.3949167],"closest_node":443178462,"distance_noeud":30.3238187998},{"osmid":4396596592,"name":"Daisuki","amenity":"restaurant","cuisine":"asian","addr:street":"Cours Guynemer","addr:housenumber":null,"geometry":[2.8282871,49.4222118],"closest_node":2087259356,"distance_noeud":69.6306063607},{"osmid":5172963599,"name":"Pizza Nova","amenity":"fast_food","cuisine":"pizza","addr:street":"Rue du Port à Bateaux","addr:housenumber":"9B","geometry":[2.8190576,49.4161057],"closest_node":557256638,"distance_noeud":57.3530628096},{"osmid":5366835070,"name":"Sun Burger","amenity":"fast_food","cuisine":"tacos;burger;chicken","addr:street":"Rue Notre-Dame-de-Bon-Secours","addr:housenumber":"37","geometry":[2.816567,49.4129635],"closest_node":1016221852,"distance_noeud":15.2337702966},{"osmid":5399469955,"name":"Peppole","amenity":"restaurant","cuisine":"italian","addr:street":"Rue Saint-Corneille","addr:housenumber":"33","geometry":[2.8233203,49.4167483],"closest_node":376054022,"distance_noeud":41.6396759235},{"osmid":5399473602,"name":"Quatrième Etoile","amenity":"restaurant","cuisine":"asian","addr:street":"Rue Vivenel","addr:housenumber":"34","geometry":[2.8252158,49.4194895],"closest_node":10945869621,"distance_noeud":28.1688418466},{"osmid":5431958446,"name":"Istanbul Kebab","amenity":"fast_food","cuisine":"kebab","addr:street":"Square du Puy du Roy","addr:housenumber":null,"geometry":[2.8094048,49.406647],"closest_node":443178584,"distance_noeud":40.6061451304},{"osmid":5489556819,"name":"O'delys","amenity":"fast_food","cuisine":"kebab;burger","addr:street":"Rue Saint-Corneille","addr:housenumber":"22","geometry":[2.8240403,49.4172526],"closest_node":10945866795,"distance_noeud":12.0465992489},{"osmid":6036739729,"name":"Chez Lim","amenity":"restaurant","cuisine":"vietnamese","addr:street":"Passage du Marché aux Herbes","addr:housenumber":"25","geometry":[2.8234414,49.4174766],"closest_node":376054080,"distance_noeud":15.4739985795},{"osmid":6036766917,"name":"Orient Express Kebab","amenity":"restaurant","cuisine":"kebab","addr:street":null,"addr:housenumber":null,"geometry":[2.8275474,49.415757],"closest_node":266981481,"distance_noeud":40.1655073762},{"osmid":6109070322,"name":"Le P'ti Bougnat","amenity":"restaurant","cuisine":"french","addr:street":"Passage du Marché aux Herbes","addr:housenumber":"8","geometry":[2.8236946,49.417487],"closest_node":376054080,"distance_noeud":42.4388234798},{"osmid":7679579111,"name":"Hippopotamus","amenity":"restaurant","cuisine":"steak_house","addr:street":"Esplanade Marguerite Perey","addr:housenumber":"29","geometry":[2.7928987,49.3944361],"closest_node":2695129359,"distance_noeud":62.5362167951},{"osmid":7679579112,"name":"Memphis","amenity":"restaurant","cuisine":"american","addr:street":"Esplanade Marguerite Perey","addr:housenumber":"25","geometry":[2.7933817,49.393505],"closest_node":7679140859,"distance_noeud":63.0119728239},{"osmid":8367184802,"name":"Tacos School","amenity":"fast_food","cuisine":"tacos","addr:street":"Rue de Normandie","addr:housenumber":"2","geometry":[2.8179174,49.4037764],"closest_node":443178490,"distance_noeud":39.422936582},{"osmid":8498261443,"name":"Hostellerie du Royallieu","amenity":"restaurant","cuisine":"french","addr:street":"Rue de Senlis","addr:housenumber":"9","geometry":[2.8044038,49.3969648],"closest_node":443813856,"distance_noeud":31.2231176058},{"osmid":8632738762,"name":"Cesar Pizza","amenity":"fast_food","cuisine":"pizza","addr:street":null,"addr:housenumber":null,"geometry":[2.841197,49.424455],"closest_node":2242835350,"distance_noeud":41.5450397567},{"osmid":9273219017,"name":"Wokys","amenity":"restaurant","cuisine":"asian","addr:street":"Rue du Port à Bateaux","addr:housenumber":"17","geometry":[2.8193665,49.4158208],"closest_node":1439448218,"distance_noeud":14.4992610122},{"osmid":10819776234,"name":"Le First","amenity":"fast_food","cuisine":"sandwich;burger;tex-mex","addr:street":"Rue Saint-Corneille","addr:housenumber":"45","geometry":[2.822855,49.4165434],"closest_node":266981032,"distance_noeud":29.0668970396},{"osmid":10839034951,"name":"Bbollywood","amenity":"restaurant","cuisine":"indian","addr:street":"Rue des Boucheries","addr:housenumber":"10","geometry":[2.8242988,49.4161481],"closest_node":442373443,"distance_noeud":31.1419581351},{"osmid":11037055902,"name":"La cuisine de Dina","amenity":"restaurant","cuisine":"african","addr:street":"Rue Vivenel","addr:housenumber":"35","geometry":[2.8251331,49.4192593],"closest_node":1422537303,"distance_noeud":51.5691469707},{"osmid":11094177409,"name":"Bistrot des Arts","amenity":"restaurant","cuisine":"bistro","addr:street":"Cours Guynemer","addr:housenumber":"35","geometry":[2.8247752,49.419877],"closest_node":419853131,"distance_noeud":24.5597356551},{"osmid":11159134077,"name":"Pizza Time's","amenity":"fast_food","cuisine":"pizza","addr:street":"Rue de Paris","addr:housenumber":"13","geometry":[2.8225703,49.415573],"closest_node":442373457,"distance_noeud":11.7910375829},{"osmid":11181474099,"name":"Izmir Kebab","amenity":"fast_food","cuisine":"kebab","addr:street":"Rue du Lieutenant René Ducloux","addr:housenumber":"2","geometry":[2.8325289,49.4230338],"closest_node":3160999670,"distance_noeud":23.8287790035},{"osmid":12078904836,"name":"La Cantina","amenity":"restaurant","cuisine":"italian","addr:street":null,"addr:housenumber":null,"geometry":[2.8241951,49.4163226],"closest_node":420195076,"distance_noeud":24.9455844845},{"osmid":134239781,"name":"Brasserie Parisienne","amenity":"restaurant","cuisine":"french","addr:street":"Rue Jean Legendre","addr:housenumber":"17","geometry":[2.8264503,49.4172113],"closest_node":376053938,"distance_noeud":14.982271472},{"osmid":139118938,"name":"McDonald's","amenity":"fast_food","cuisine":"burger","addr:street":"Avenue Marcelin Berthelot","addr:housenumber":null,"geometry":[2.789235,49.38995],"closest_node":8565237105,"distance_noeud":130.272341332},{"osmid":139119315,"name":"Buffalo Grill","amenity":"restaurant","cuisine":"steak_house","addr:street":"Avenue Marcelin Berthelot","addr:housenumber":null,"geometry":[2.788402,49.39044],"closest_node":3451866956,"distance_noeud":23.053193882},{"osmid":139119488,"name":"Burger King","amenity":"fast_food","cuisine":"burger","addr:street":"Avenue Henri Adnot","addr:housenumber":"2","geometry":[2.787018,49.3878994],"closest_node":446838874,"distance_noeud":67.0365444074}]