[{"osmid":470544816,"name":"Byzance","amenity":"fast_food","cuisine":"kebab","addr:street":null,"addr:housenumber":null,"geometry":[3.0253976,50.6365552],"closest_node":342788401,"distance_noeud":41.7032335987},{"osmid":470936900,"name":"Hollyfood","amenity":"fast_food","cuisine":"burger","addr:street":"Place du Broquelet","addr:housenumber":"7","geometry":[3.0243391,50.6371473],"closest_node":342788401,"distance_noeud":96.2557970449},{"osmid":527186674,"name":"L'escale","amenity":"restaurant","cuisine":"regional;french","addr:street":null,"addr:housenumber":null,"geometry":[3.0402339,50.6346408],"closest_node":149375029,"distance_noeud":53.2200132822},{"osmid":583242447,"name":"Asie Snack","amenity":"fast_food","cuisine":"asian","addr:street":null,"addr:housenumber":null,"geometry":[3.0659892,50.6362914],"closest_node":290265473,"distance_noeud":13.558733165},{"osmid":585221173,"name":"Crêperie La Vieille Bourse","amenity":"restaurant","cuisine":"crepe","addr:street":"Rue des Sept Agaches","addr:housenumber":"6","geometry":[3.0641154,50.6371325],"closest_node":6360571385,"distance_noeud":95.1999101401},{"osmid":585221184,"name":"Panda Sushi","amenity":"fast_food","cuisine":"sushi;chinese","addr:street":null,"addr:housenumber":null,"geometry":[3.062131,50.6369837],"closest_node":260459828,"distance_noeud":32.3024089714},{"osmid":617240499,"name":"Pinocchio","amenity":"restaurant","cuisine":"italian","addr:street":null,"addr:housenumber":null,"geometry":[3.0684087,50.6383299],"closest_node":320950921,"distance_noeud":33.2019725584},{"osmid":617240501,"name":"L'Opera Corner","amenity":"restaurant","cuisine":"french","addr:street":null,"addr:housenumber":null,"geometry":[3.0675295,50.6375664],"closest_node":262088681,"distance_noeud":25.0302196647},{"osmid":617240503,"name":"Le Royal","amenity":"restaurant","cuisine":"kebab","addr:street":null,"addr:housenumber":null,"geometry":[3.0664352,50.6381356],"closest_node":320950907,"distance_noeud":32.3267739188},{"osmid":617639561,"name":"Restaurant In Bocca Lupo","amenity":"restaurant","cuisine":"italian","addr:street":null,"addr:housenumber":null,"geometry":[3.0613787,50.6407517],"closest_node":438673377,"distance_noeud":132.7901924683},{"osmid":617639563,"name":"Au Vieux de la Vieille","amenity":"restaurant","cuisine":"regional","addr:street":null,"addr:housenumber":null,"geometry":[3.061407,50.6408939],"closest_node":610539015,"distance_noeud":103.502249697},{"osmid":665892696,"name":"Brasserie de la Cité","amenity":"restaurant","cuisine":"brasserie","addr:street":"Rue Sylvère Verhulst","addr:housenumber":"51","geometry":[3.0403067,50.6101982],"closest_node":534354349,"distance_noeud":22.5947399105},{"osmid":674884875,"name":"Crêperie Saint-Georges,","amenity":"restaurant","cuisine":"crepe","addr:street":null,"addr:housenumber":null,"geometry":[3.0612698,50.6395356],"closest_node":438673369,"distance_noeud":51.5639479207},{"osmid":706335503,"name":"La bottega","amenity":"restaurant","cuisine":"italian","addr:street":"Rue au Péterinck","addr:housenumber":"7 bis","geometry":[3.0618224,50.6411433],"closest_node":610539015,"distance_noeud":49.8741466745},{"osmid":981107113,"name":"La Mamounia","amenity":"restaurant","cuisine":"moroccan","addr:street":null,"addr:housenumber":null,"geometry":[3.0536026,50.6220277],"closest_node":198873263,"distance_noeud":69.9258908469},{"osmid":1244038134,"name":"Frites 2000","amenity":"fast_food","cuisine":"friture","addr:street":null,"addr:housenumber":null,"geometry":[3.005089,50.6333986],"closest_node":765283583,"distance_noeud":26.4305990897},{"osmid":1288034974,"name":"L'Orange Bleue","amenity":"restaurant","cuisine":"regional","addr:street":null,"addr:housenumber":null,"geometry":[3.0627174,50.6385886],"closest_node":320950923,"distance_noeud":11.5428064977},{"osmid":1402607822,"name":"Le Barbier qui fume","amenity":"restaurant","cuisine":null,"addr:street":null,"addr:housenumber":null,"geometry":[3.0620852,50.6413784],"closest_node":610539015,"distance_noeud":12.5785380513},{"osmid":1443456334,"name":"La famille Lille","amenity":"fast_food","cuisine":null,"addr:street":null,"addr:housenumber":null,"geometry":[3.0791657,50.638203],"closest_node":250896553,"distance_noeud":39.4386766024},{"osmid":1443464669,"name":"Subway","amenity":"fast_food","cuisine":"sandwich","addr:street":null,"addr:housenumber":null,"geometry":[3.0748266,50.6369853],"closest_node":3077077638,"distance_noeud":177.6964455727},{"osmid":1491223520,"name":"Le Palais de Seoul","amenity":"fast_food","cuisine":"korean","addr:street":null,"addr:housenumber":null,"geometry":[3.0523616,50.6284486],"closest_node":198873229,"distance_noeud":13.6211599598},{"osmid":1502852082,"name":"La Réserve, bar à manger","amenity":"restaurant","cuisine":null,"addr:street":null,"addr:housenumber":null,"geometry":[3.051623,50.6258148],"closest_node":469141720,"distance_noeud":14.2793819201},{"osmid":1502852091,"name":"La Braise du Gambetta","amenity":"restaurant","cuisine":"algerian","addr:street":null,"addr:housenumber":null,"geometry":[3.0517462,50.625715],"closest_node":469141720,"distance_noeud":20.9853847324},{"osmid":1505154069,"name":"Aspendos","amenity":"fast_food","cuisine":"kebab","addr:street":null,"addr:housenumber":null,"geometry":[3.0507834,50.6256835],"closest_node":8186689483,"distance_noeud":25.9746955825},{"osmid":1538514309,"name":"Le Must","amenity":"fast_food","cuisine":"kebab","addr:street":null,"addr:housenumber":null,"geometry":[3.0644414,50.6333134],"closest_node":294326330,"distance_noeud":43.2914975328},{"osmid":1538514324,"name":"Mezzo Di Pasta","amenity":"fast_food","cuisine":"pasta","addr:street":null,"addr:housenumber":null,"geometry":[3.0639553,50.63395],"closest_node":294326325,"distance_noeud":75.0604393364},{"osmid":1632684049,"name":"Les Petits Poissons","amenity":"restaurant","cuisine":"fish","addr:street":null,"addr:housenumber":null,"geometry":[3.0682571,50.624995],"closest_node":1590800122,"distance_noeud":44.1737345185},{"osmid":1632827857,"name":"Le chat qui fume","amenity":"restaurant","cuisine":"regional","addr:street":null,"addr:housenumber":null,"geometry":[3.055281,50.6294217],"closest_node":469309921,"distance_noeud":36.1335143394},{"osmid":1667692964,"name":"Jojo Grill","amenity":"restaurant","cuisine":"korean","addr:street":null,"addr:housenumber":null,"geometry":[3.0596256,50.6313541],"closest_node":288393949,"distance_noeud":23.6945681884},{"osmid":1678109429,"name":"La Chaumine","amenity":"restaurant","cuisine":"french","addr:street":"Avenue de Dunkerque","addr:housenumber":"439","geometry":[3.0136199,50.6443917],"closest_node":6985170045,"distance_noeud":16.7700942574},{"osmid":1772707029,"name":"Tout chaud","amenity":"fast_food","cuisine":null,"addr:street":null,"addr:housenumber":null,"geometry":[3.0627799,50.6329195],"closest_node":7301806336,"distance_noeud":89.4015094396},{"osmid":1780238366,"name":"Rituel","amenity":"restaurant","cuisine":null,"addr:street":null,"addr:housenumber":null,"geometry":[3.0538914,50.639772],"closest_node":1302567574,"distance_noeud":15.8873324975},{"osmid":1893476285,"name":"Le Casablanca","amenity":"fast_food","cuisine":"kebab","addr:street":null,"addr:housenumber":null,"geometry":[3.0579424,50.6230176],"closest_node":530710751,"distance_noeud":13.8393667821},{"osmid":1988585061,"name":"Le Melting Pot","amenity":"restaurant","cuisine":"international","addr:street":null,"addr:housenumber":null,"geometry":[3.066259,50.6375676],"closest_node":320963937,"distance_noeud":55.2356053621},{"osmid":1998722265,"name":"Pancook Zénith","amenity":"restaurant","cuisine":null,"addr:street":null,"addr:housenumber":null,"geometry":[3.0766388,50.6309247],"closest_node":250894314,"distance_noeud":51.0386096533},{"osmid":1998722266,"name":"Le Bistronome","amenity":"restaurant","cuisine":"regional","addr:street":null,"addr:housenumber":null,"geometry":[3.0789427,50.6282999],"closest_node":527160473,"distance_noeud":53.2612554446},{"osmid":2035946826,"name":"Subway","amenity":"fast_food","cuisine":"sandwich","addr:street":null,"addr:housenumber":null,"geometry":[3.0793748,50.6272886],"closest_node":977764099,"distance_noeud":32.6904395935},{"osmid":2036292626,"name":"Hoover Garden","amenity":"restaurant","cuisine":null,"addr:street":null,"addr:housenumber":null,"geometry":[3.0794471,50.6271513],"closest_node":977764099,"distance_noeud":21.7980619649},{"osmid":2036292628,"name":"mamma divina","amenity":"fast_food","cuisine":null,"addr:street":null,"addr:housenumber":null,"geometry":[3.0792945,50.6274602],"closest_node":977764099,"distance_noeud":51.3512392244},{"osmid":2036292629,"name":"Sushi Boutik","amenity":"restaurant","cuisine":"sushi","addr:street":null,"addr:housenumber":null,"geometry":[3.0797795,50.6265153],"closest_node":426634816,"distance_noeud":29.4256560145},{"osmid":2096288520,"name":"Le Mother","amenity":"restaurant","cuisine":"burger","addr:street":null,"addr:housenumber":null,"geometry":[3.0698595,50.6248761],"closest_node":1713983096,"distance_noeud":58.5038310371},{"osmid":2096356682,"name":"Britney","amenity":"restaurant","cuisine":null,"addr:street":null,"addr:housenumber":null,"geometry":[3.0698077,50.6270933],"closest_node":4086442922,"distance_noeud":41.7538316388},{"osmid":2101201538,"name":"Le Bon Snack","amenity":"fast_food","cuisine":"burger","addr:street":null,"addr:housenumber":null,"geometry":[3.0618167,50.6282904],"closest_node":506774233,"distance_noeud":34.5592577174},{"osmid":2106822659,"name":"La P'tite Place","amenity":"restaurant","cuisine":null,"addr:street":null,"addr:housenumber":null,"geometry":[3.0457961,50.6243816],"closest_node":530710679,"distance_noeud":20.9034767805},{"osmid":2194045043,"name":"Suzanne","amenity":"restaurant","cuisine":null,"addr:street":null,"addr:housenumber":"4","geometry":[3.0609779,50.6282892],"closest_node":506774232,"distance_noeud":35.265562024},{"osmid":2209116650,"name":"La Ducasse","amenity":"restaurant","cuisine":"regional","addr:street":"Rue de Solférino","addr:housenumber":"95","geometry":[3.0531931,50.6322445],"closest_node":506774197,"distance_noeud":17.7365828382},{"osmid":2212533769,"name":"Pepita","amenity":"fast_food","cuisine":"pita;sandwich","addr:street":null,"addr:housenumber":null,"geometry":[3.0684225,50.636379],"closest_node":320950880,"distance_noeud":52.0956165151},{"osmid":2212550424,"name":"Les Compagnons de la Grappe","amenity":"restaurant","cuisine":"regional","addr:street":null,"addr:housenumber":null,"geometry":[3.0631737,50.6386495],"closest_node":320950923,"distance_noeud":52.1878594376},{"osmid":2213793320,"name":"La Petite Table","amenity":"restaurant","cuisine":"french","addr:street":null,"addr:housenumber":null,"geometry":[3.0623798,50.6411917],"closest_node":610539015,"distance_noeud":29.9338500364},{"osmid":2242632066,"name":"Istanbul Concept","amenity":"fast_food","cuisine":"kebab","addr:street":null,"addr:housenumber":null,"geometry":[3.0376423,50.6284616],"closest_node":478487595,"distance_noeud":38.1797805625},{"osmid":2242643745,"name":"Point B","amenity":"fast_food","cuisine":"burger","addr:street":null,"addr:housenumber":null,"geometry":[3.0637273,50.619437],"closest_node":530710736,"distance_noeud":13.5074152297},{"osmid":2242643747,"name":"Chamas Tacos","amenity":"fast_food","cuisine":"tacos","addr:street":null,"addr:housenumber":null,"geometry":[3.0669432,50.6194591],"closest_node":489576845,"distance_noeud":16.904332204},{"osmid":2276047224,"name":"Saray","amenity":"fast_food","cuisine":"turkish","addr:street":null,"addr:housenumber":null,"geometry":[3.1077762,50.6275132],"closest_node":8607697535,"distance_noeud":24.7874174911},{"osmid":2295023445,"name":"Pronto pizza","amenity":"fast_food","cuisine":"pizza","addr:street":null,"addr:housenumber":null,"geometry":[3.0675078,50.6341136],"closest_node":1628579789,"distance_noeud":37.6125080803},{"osmid":2303894710,"name":"Jomon Negishi","amenity":"restaurant","cuisine":"japanese","addr:street":null,"addr:housenumber":null,"geometry":[3.0655455,50.6411276],"closest_node":978036759,"distance_noeud":31.276075275},{"osmid":2335382474,"name":"Pickles","amenity":"restaurant","cuisine":null,"addr:street":null,"addr:housenumber":null,"geometry":[3.0641593,50.6264299],"closest_node":1592218501,"distance_noeud":17.7604296654},{"osmid":2387702294,"name":"La Crinière - Bistrot","amenity":"restaurant","cuisine":null,"addr:street":null,"addr:housenumber":null,"geometry":[3.046585,50.6294967],"closest_node":506451010,"distance_noeud":25.7053475057},{"osmid":2480383074,"name":"L'Inca","amenity":"restaurant","cuisine":"peruvian","addr:street":null,"addr:housenumber":null,"geometry":[3.0600394,50.6407576],"closest_node":438673377,"distance_noeud":23.381158106},{"osmid":2514383772,"name":"L'Île de Crête","amenity":"restaurant","cuisine":"greek","addr:street":null,"addr:housenumber":null,"geometry":[3.0678416,50.6435137],"closest_node":1634463179,"distance_noeud":78.6129938914},{"osmid":2530847662,"name":"Le Barbue d'Anvers","amenity":"restaurant","cuisine":"regional","addr:street":null,"addr:housenumber":null,"geometry":[3.0620151,50.6373783],"closest_node":260579127,"distance_noeud":44.4493503897},{"osmid":2567893852,"name":"O'labo","amenity":"restaurant","cuisine":null,"addr:street":null,"addr:housenumber":null,"geometry":[3.0794838,50.6274687],"closest_node":977764050,"distance_noeud":70.8182639417},{"osmid":2580523463,"name":"Les Fils à Maman","amenity":"restaurant","cuisine":null,"addr:street":null,"addr:housenumber":null,"geometry":[3.0664119,50.6425951],"closest_node":613547840,"distance_noeud":35.2713516464},{"osmid":2580536778,"name":"Sweet Africa","amenity":"restaurant","cuisine":"african","addr:street":null,"addr:housenumber":null,"geometry":[3.0577936,50.6281366],"closest_node":656596417,"distance_noeud":60.0813137934},{"osmid":2642036230,"name":"Daikanyama","amenity":"restaurant","cuisine":"japanese","addr:street":null,"addr:housenumber":null,"geometry":[3.0665156,50.6424418],"closest_node":613547840,"distance_noeud":33.4409603467},{"osmid":2642036231,"name":"Le bistrot Lillois","amenity":"restaurant","cuisine":"regional","addr:street":null,"addr:housenumber":null,"geometry":[3.0661265,50.6421205],"closest_node":362339913,"distance_noeud":10.9522635592},{"osmid":2647919771,"name":"White Wood Food","amenity":"fast_food","cuisine":null,"addr:street":null,"addr:housenumber":null,"geometry":[3.0264918,50.6309954],"closest_node":475366936,"distance_noeud":18.8634575465},{"osmid":2659704516,"name":"Sympa","amenity":"restaurant","cuisine":null,"addr:street":null,"addr:housenumber":null,"geometry":[3.0651858,50.6365999],"closest_node":320950909,"distance_noeud":41.2229510371},{"osmid":2684780752,"name":"Bloempot","amenity":"restaurant","cuisine":"regional","addr:street":"Rue des Bouchers","addr:housenumber":"22","geometry":[3.0583136,50.6381492],"closest_node":251053675,"distance_noeud":76.9888306027},{"osmid":2684794084,"name":"À Taaable !!","amenity":"restaurant","cuisine":"french","addr:street":null,"addr:housenumber":null,"geometry":[3.0669498,50.6427879],"closest_node":362339918,"distance_noeud":10.2295946184},{"osmid":2694370811,"name":"Mamma Cucina","amenity":"fast_food","cuisine":"pizza","addr:street":"Rue Pierre Legrand","addr:housenumber":"33","geometry":[3.086106,50.6322555],"closest_node":251996894,"distance_noeud":33.5803956253},{"osmid":2694662620,"name":"Taj Mahal","amenity":"restaurant","cuisine":"indian","addr:street":"Rue Pierre Legrand","addr:housenumber":"100","geometry":[3.0883265,50.6321938],"closest_node":4894431354,"distance_noeud":7.1031377379},{"osmid":2701926610,"name":"MakiWaō","amenity":"restaurant","cuisine":"sushi","addr:street":null,"addr:housenumber":null,"geometry":[3.0626774,50.6135028],"closest_node":534354611,"distance_noeud":46.5123552716},{"osmid":2717259558,"name":"Snack Center","amenity":"restaurant","cuisine":"kebab","addr:street":"Rue Pierre Legrand","addr:housenumber":"162","geometry":[3.0906413,50.6328969],"closest_node":403099221,"distance_noeud":57.5378752675},{"osmid":2717259642,"name":"Pitta Fives","amenity":"restaurant","cuisine":"kebab","addr:street":"Rue Pierre Legrand","addr:housenumber":"180","geometry":[3.0913024,50.6326367],"closest_node":403114909,"distance_noeud":49.4527423475},{"osmid":2717259648,"name":"Thai Wok","amenity":"restaurant","cuisine":"thai","addr:street":null,"addr:housenumber":null,"geometry":[3.0931931,50.6321941],"closest_node":403807760,"distance_noeud":35.1414482634},{"osmid":2717259662,"name":"Grillados","amenity":"restaurant","cuisine":"chicken","addr:street":"Rue Pierre Legrand","addr:housenumber":"190","geometry":[3.0917502,50.6324757],"closest_node":403114909,"distance_noeud":14.3962585141},{"osmid":2717259669,"name":"Fives Original Burger Grill","amenity":"fast_food","cuisine":"burger","addr:street":null,"addr:housenumber":null,"geometry":[3.0936013,50.632037],"closest_node":403807761,"distance_noeud":24.7008872425},{"osmid":2717260093,"name":"Tajine","amenity":"restaurant","cuisine":"couscous","addr:street":"Rue Pierre Legrand","addr:housenumber":"250","geometry":[3.0939443,50.631661],"closest_node":403807761,"distance_noeud":31.8770219865},{"osmid":2717260147,"name":"Urban Burger","amenity":"restaurant","cuisine":"burger","addr:street":"Rue Pierre Legrand","addr:housenumber":"260","geometry":[3.0942676,50.6315415],"closest_node":401255891,"distance_noeud":19.5485407008},{"osmid":2835256530,"name":"Crêperie Beaurepaire","amenity":"restaurant","cuisine":"crepe","addr:street":null,"addr:housenumber":null,"geometry":[3.0619763,50.6374364],"closest_node":260579127,"distance_noeud":38.3215271346},{"osmid":2876177894,"name":"Eat Sushi","amenity":"fast_food","cuisine":"sushi","addr:street":null,"addr:housenumber":null,"geometry":[3.0614968,50.6364351],"closest_node":260459828,"distance_noeud":61.1254528941},{"osmid":2876189641,"name":"Subway","amenity":"fast_food","cuisine":"sandwich","addr:street":null,"addr:housenumber":null,"geometry":[3.0601691,50.6358646],"closest_node":251053667,"distance_noeud":69.8830261532},{"osmid":2876189642,"name":"EatSalad","amenity":"fast_food","cuisine":"salad","addr:street":null,"addr:housenumber":null,"geometry":[3.0604779,50.6359925],"closest_node":251053667,"distance_noeud":106.336224237},{"osmid":2899737799,"name":"Cœur Grenadine","amenity":"restaurant","cuisine":null,"addr:street":"Rue au Péterinck","addr:housenumber":"12","geometry":[3.0616704,50.6411458],"closest_node":610539015,"distance_noeud":64.4327112549},{"osmid":2911845115,"name":"Pulcinella","amenity":"restaurant","cuisine":"italian;pizza","addr:street":null,"addr:housenumber":null,"geometry":[3.0384794,50.6218735],"closest_node":492204196,"distance_noeud":19.1481561575},{"osmid":2914940549,"name":"Het Hol","amenity":"restaurant","cuisine":null,"addr:street":"Avenue de Mont à Camp","addr:housenumber":"47","geometry":[3.0143978,50.6416736],"closest_node":3645055022,"distance_noeud":12.8100694041},{"osmid":2914965162,"name":"Best Mama","amenity":"restaurant","cuisine":"pizza","addr:street":"Avenue de Dunkerque","addr:housenumber":"405","geometry":[3.0165717,50.6424229],"closest_node":3645055022,"distance_noeud":263.2115434776},{"osmid":2936010210,"name":"Lile aux Burgers","amenity":"fast_food","cuisine":"burger","addr:street":null,"addr:housenumber":null,"geometry":[3.0613578,50.63318],"closest_node":506774253,"distance_noeud":57.899246174},{"osmid":2952111187,"name":"Pad Thai","amenity":"fast_food","cuisine":"thai","addr:street":null,"addr:housenumber":null,"geometry":[3.0613468,50.6331206],"closest_node":251054512,"distance_noeud":35.5367502756},{"osmid":2990459133,"name":"Chez Malay","amenity":"restaurant","cuisine":"thai","addr:street":null,"addr:housenumber":null,"geometry":[3.0798447,50.6399277],"closest_node":1181219907,"distance_noeud":45.4338025998},{"osmid":2990467933,"name":"L'Ultimo","amenity":"restaurant","cuisine":"italian","addr:street":null,"addr:housenumber":null,"geometry":[3.080315,50.640005],"closest_node":6001490902,"distance_noeud":27.7955293377},{"osmid":2995433301,"name":"Aux Éphérites","amenity":"restaurant","cuisine":null,"addr:street":null,"addr:housenumber":null,"geometry":[3.0614902,50.6296978],"closest_node":506774251,"distance_noeud":106.1324953201},{"osmid":2995433302,"name":"Cố đô Huế","amenity":"restaurant","cuisine":"vietnamese","addr:street":null,"addr:housenumber":null,"geometry":[3.0611845,50.629691],"closest_node":506774251,"distance_noeud":106.9507585094},{"osmid":3002299473,"name":"Phoenicia Pizzeria","amenity":"fast_food","cuisine":"pizza","addr:street":null,"addr:housenumber":null,"geometry":[3.060618,50.6283009],"closest_node":506774232,"distance_noeud":72.9270629887},{"osmid":3009957235,"name":"Patrimoine Kabyle","amenity":"restaurant","cuisine":"mediterranean;couscous;tajine","addr:street":null,"addr:housenumber":null,"geometry":[3.0611855,50.6292468],"closest_node":506774232,"distance_noeud":124.0321275787},{"osmid":3009957237,"name":"Le Chantecler","amenity":"restaurant","cuisine":"french","addr:street":null,"addr:housenumber":null,"geometry":[3.0611866,50.6295794],"closest_node":506774251,"distance_noeud":119.179689687},{"osmid":3018146147,"name":"Habesa Snack-Bar","amenity":"restaurant","cuisine":"african","addr:street":null,"addr:housenumber":null,"geometry":[3.0730562,50.6202563],"closest_node":517340659,"distance_noeud":18.1492010846},{"osmid":3021793001,"name":"Maharani","amenity":"restaurant","cuisine":"indian","addr:street":null,"addr:housenumber":null,"geometry":[3.0614249,50.6336693],"closest_node":251054506,"distance_noeud":19.2979297995},{"osmid":3021793010,"name":"Le Court Debout","amenity":"restaurant","cuisine":null,"addr:street":null,"addr:housenumber":null,"geometry":[3.0635147,50.6330314],"closest_node":294326325,"distance_noeud":42.791977966},{"osmid":3071641295,"name":"Fast'Hoch","amenity":"restaurant","cuisine":null,"addr:street":null,"addr:housenumber":null,"geometry":[3.0748964,50.6291592],"closest_node":3305892794,"distance_noeud":62.1158753497},{"osmid":3071641297,"name":"Fast'Hoch","amenity":"fast_food","cuisine":"sandwich","addr:street":null,"addr:housenumber":null,"geometry":[3.074795,50.6291495],"closest_node":497394920,"distance_noeud":56.7291908301},{"osmid":3073011327,"name":"Friterie Sensas","amenity":"fast_food","cuisine":"friture","addr:street":null,"addr:housenumber":null,"geometry":[3.0687953,50.6243223],"closest_node":1590800081,"distance_noeud":21.7724095373},{"osmid":3097341967,"name":"L'Italiano Vero","amenity":"fast_food","cuisine":"italian","addr:street":null,"addr:housenumber":null,"geometry":[3.0649562,50.6257267],"closest_node":1592222453,"distance_noeud":25.8052752808},{"osmid":3097464312,"name":"Pizza Ino","amenity":"fast_food","cuisine":"pizza","addr:street":null,"addr:housenumber":null,"geometry":[3.0914435,50.6226708],"closest_node":1643007799,"distance_noeud":28.7636194419},{"osmid":3145554688,"name":"L'Indigo","amenity":"restaurant","cuisine":"african","addr:street":null,"addr:housenumber":null,"geometry":[3.0560657,50.6255775],"closest_node":198873257,"distance_noeud":44.3845220283},{"osmid":3149810813,"name":"Pub Goudale Restaurant Lomme","amenity":"restaurant","cuisine":"potato","addr:street":null,"addr:housenumber":null,"geometry":[2.986979,50.6522552],"closest_node":206184762,"distance_noeud":106.7203555507},{"osmid":3196830430,"name":"Speed'Za","amenity":"fast_food","cuisine":"pizza","addr:street":null,"addr:housenumber":null,"geometry":[3.0722656,50.621303],"closest_node":267375333,"distance_noeud":50.6904857073},{"osmid":3197173135,"name":"Little Time Coffee","amenity":"fast_food","cuisine":"sandwich","addr:street":null,"addr:housenumber":null,"geometry":[3.0693377,50.6201311],"closest_node":489576862,"distance_noeud":16.0636858201},{"osmid":3197253859,"name":"Indian Bakers","amenity":"fast_food","cuisine":null,"addr:street":null,"addr:housenumber":null,"geometry":[3.0705911,50.6187962],"closest_node":489576858,"distance_noeud":49.380282574},{"osmid":3197256361,"name":"Tacos & Co","amenity":"fast_food","cuisine":"tacos","addr:street":null,"addr:housenumber":null,"geometry":[3.0712635,50.6184747],"closest_node":362401590,"distance_noeud":38.9660978011},{"osmid":3201800182,"name":"Mon Petit Thaï","amenity":"restaurant","cuisine":"thai","addr:street":null,"addr:housenumber":null,"geometry":[3.0525338,50.6287187],"closest_node":198873229,"distance_noeud":22.6820453016},{"osmid":3319409334,"name":"Burger King","amenity":"fast_food","cuisine":"burger","addr:street":"Centre Commercial Euralille","addr:housenumber":null,"geometry":[3.0741849,50.6383443],"closest_node":406386503,"distance_noeud":250.7041089989},{"osmid":3351412652,"name":"L'adresse","amenity":"restaurant","cuisine":"burger","addr:street":null,"addr:housenumber":null,"geometry":[3.0582614,50.6378546],"closest_node":1796170325,"distance_noeud":54.188431298},{"osmid":3355647626,"name":"Friterie la Patate qui Fume","amenity":"fast_food","cuisine":null,"addr:street":null,"addr:housenumber":null,"geometry":[3.0760979,50.6322916],"closest_node":1811163772,"distance_noeud":49.0201080167},{"osmid":3423952656,"name":"DjurDjura","amenity":"restaurant","cuisine":"moroccan","addr:street":"Boulevard Jean-Baptiste Lebas","addr:housenumber":"28","geometry":[3.0682055,50.6268569],"closest_node":251049556,"distance_noeud":29.4787974835},{"osmid":3426407892,"name":"La Trinacria","amenity":"restaurant","cuisine":"italian","addr:street":null,"addr:housenumber":null,"geometry":[3.0374524,50.6258418],"closest_node":1674605528,"distance_noeud":56.8592381209},{"osmid":3430470069,"name":"Tumi","amenity":"restaurant","cuisine":"peruvian","addr:street":null,"addr:housenumber":null,"geometry":[3.060279,50.6309846],"closest_node":439806870,"distance_noeud":36.2987289357},{"osmid":3457891779,"name":"Aza Kebab","amenity":"fast_food","cuisine":"kebab","addr:street":"Avenue de Dunkerque","addr:housenumber":null,"geometry":[3.0032873,50.6473481],"closest_node":8660494312,"distance_noeud":30.9336431185},{"osmid":3473359375,"name":"Envies de saison","amenity":"fast_food","cuisine":"sandwich","addr:street":null,"addr:housenumber":null,"geometry":[3.0209538,50.6327635],"closest_node":1161480697,"distance_noeud":228.0213669003},{"osmid":3602058136,"name":"Mangez-Moi","amenity":"fast_food","cuisine":"kebab;indian;tacos;burger","addr:street":null,"addr:housenumber":null,"geometry":[3.0475531,50.6263977],"closest_node":439772974,"distance_noeud":19.2636217815},{"osmid":3629249199,"name":"All Pommodoro","amenity":"restaurant","cuisine":"pizza","addr:street":null,"addr:housenumber":null,"geometry":[3.0533082,50.6329563],"closest_node":506774194,"distance_noeud":15.6868318919},{"osmid":3663816791,"name":"Friterie Chti'mi","amenity":"fast_food","cuisine":"friture","addr:street":null,"addr:housenumber":null,"geometry":[3.0131063,50.6449147],"closest_node":6985170046,"distance_noeud":26.0043133487},{"osmid":3713723394,"name":"M'Eating","amenity":"restaurant","cuisine":"french","addr:street":null,"addr:housenumber":null,"geometry":[3.0269868,50.6359414],"closest_node":341713080,"distance_noeud":23.0210339691},{"osmid":3732139962,"name":"L'authentique - frites à l'Ancienne","amenity":"fast_food","cuisine":"friture","addr:street":"Avenue de Dunkerque","addr:housenumber":"379","geometry":[3.0175553,50.6416708],"closest_node":391074933,"distance_noeud":101.1628865022},{"osmid":3750397994,"name":"Chiquita Bacana Brasil","amenity":"restaurant","cuisine":"brazilian","addr:street":null,"addr:housenumber":null,"geometry":[3.0677395,50.6434066],"closest_node":1634463179,"distance_noeud":62.8427694429},{"osmid":3772617554,"name":"L'Estaminet Lillois","amenity":"restaurant","cuisine":"regional","addr:street":null,"addr:housenumber":null,"geometry":[3.0575403,50.6386425],"closest_node":262088464,"distance_noeud":8.353615536},{"osmid":3874592729,"name":"Friterie du Marais","amenity":"fast_food","cuisine":"friture","addr:street":null,"addr:housenumber":null,"geometry":[3.0090738,50.6353267],"closest_node":3292378071,"distance_noeud":19.0536582189},{"osmid":3927601710,"name":"Sweet Flamingo","amenity":"fast_food","cuisine":"bagel","addr:street":null,"addr:housenumber":null,"geometry":[3.0611889,50.6295261],"closest_node":506774251,"distance_noeud":125.0134741256},{"osmid":4024966415,"name":"Soho Urban Food","amenity":"restaurant","cuisine":"pizza;pasta;salad","addr:street":null,"addr:housenumber":null,"geometry":[3.0661968,50.6379587],"closest_node":320963937,"distance_noeud":36.2855774306},{"osmid":4085063646,"name":"Donuts & Donuts","amenity":"fast_food","cuisine":"donut","addr:street":null,"addr:housenumber":null,"geometry":[3.0502067,50.6276911],"closest_node":468704354,"distance_noeud":36.2143274521},{"osmid":4151403290,"name":"Comptoir 44","amenity":"restaurant","cuisine":null,"addr:street":null,"addr:housenumber":null,"geometry":[3.0662314,50.6422166],"closest_node":613547840,"distance_noeud":12.7872853955},{"osmid":4183809472,"name":"La Table de Siam","amenity":"restaurant","cuisine":"thai","addr:street":null,"addr:housenumber":null,"geometry":[3.0616777,50.6416181],"closest_node":618213795,"distance_noeud":38.0665821649},{"osmid":4238109591,"name":"Izumi","amenity":"restaurant","cuisine":"japanese","addr:street":null,"addr:housenumber":null,"geometry":[3.0610747,50.6340989],"closest_node":8983324940,"distance_noeud":24.4528371347},{"osmid":4248768550,"name":"O'Tacos","amenity":"fast_food","cuisine":"mexican","addr:street":null,"addr:housenumber":null,"geometry":[3.0920855,50.6325887],"closest_node":403114909,"distance_noeud":37.3097286733},{"osmid":4260079415,"name":"La Crêperie de Lille","amenity":"restaurant","cuisine":"crepe","addr:street":null,"addr:housenumber":null,"geometry":[3.067009,50.6428342],"closest_node":362339918,"distance_noeud":13.0683574156},{"osmid":4381067406,"name":"Yaya","amenity":"restaurant","cuisine":"greek","addr:street":null,"addr:housenumber":null,"geometry":[3.0679238,50.6437993],"closest_node":1634463179,"distance_noeud":105.557131724},{"osmid":4404474873,"name":"Taco Memo","amenity":"fast_food","cuisine":"mexican","addr:street":null,"addr:housenumber":null,"geometry":[3.0535541,50.6289209],"closest_node":469309939,"distance_noeud":17.7556747547},{"osmid":4416740147,"name":"Alexens","amenity":"restaurant","cuisine":"regional","addr:street":"Avenue de Bretagne","addr:housenumber":"175","geometry":[3.0207151,50.6338901],"closest_node":2750950751,"distance_noeud":88.938065371},{"osmid":4416740148,"name":"Bagelcorner","amenity":"restaurant","cuisine":"sandwich","addr:street":null,"addr:housenumber":null,"geometry":[3.0202757,50.6342051],"closest_node":2750950751,"distance_noeud":119.1863535083},{"osmid":4416740150,"name":"La Famille","amenity":"restaurant","cuisine":null,"addr:street":null,"addr:housenumber":null,"geometry":[3.0200495,50.634146],"closest_node":2750950751,"distance_noeud":144.9874836446},{"osmid":4416740151,"name":"Pickit Up","amenity":"restaurant","cuisine":"pizza","addr:street":null,"addr:housenumber":null,"geometry":[3.0214259,50.6345407],"closest_node":2750950751,"distance_noeud":18.6478860059},{"osmid":4416740152,"name":"Sogood Euratechnologies","amenity":"fast_food","cuisine":"burger","addr:street":null,"addr:housenumber":null,"geometry":[3.0213502,50.6342062],"closest_node":2750950751,"distance_noeud":21.4807455976},{"osmid":4416740153,"name":"Kok Piraat Péniche-Restaurant","amenity":"restaurant","cuisine":"regional","addr:street":"Quai Hegel","addr:housenumber":null,"geometry":[3.0205609,50.6303364],"closest_node":343115325,"distance_noeud":66.7850306618},{"osmid":4421739671,"name":"Ali Baba","amenity":"fast_food","cuisine":"kebab","addr:street":null,"addr:housenumber":null,"geometry":[3.0548049,50.6323706],"closest_node":506774240,"distance_noeud":25.2231988866},{"osmid":4421749744,"name":"L'Gaïette","amenity":"restaurant","cuisine":"regional","addr:street":null,"addr:housenumber":null,"geometry":[3.0548617,50.6327957],"closest_node":506774239,"distance_noeud":35.2871442545},{"osmid":4421806112,"name":"TIGO","amenity":"fast_food","cuisine":"kebab;burger;sandwich","addr:street":null,"addr:housenumber":null,"geometry":[3.0494793,50.6316344],"closest_node":492204162,"distance_noeud":17.2779013389},{"osmid":4421806114,"name":"Mian Dian","amenity":"restaurant","cuisine":"chinese","addr:street":null,"addr:housenumber":null,"geometry":[3.0485812,50.6323778],"closest_node":492204162,"distance_noeud":141.106525672},{"osmid":4421814907,"name":"O'27","amenity":"fast_food","cuisine":"burger;tacos;kebab","addr:street":null,"addr:housenumber":null,"geometry":[3.0551455,50.6328985],"closest_node":506774239,"distance_noeud":22.1408290706},{"osmid":4421814911,"name":"Lezzet","amenity":"fast_food","cuisine":"kebab","addr:street":null,"addr:housenumber":null,"geometry":[3.0551005,50.6325841],"closest_node":506774244,"distance_noeud":38.4609400897},{"osmid":4421814912,"name":"Bosphore Kebab","amenity":"fast_food","cuisine":"kebab","addr:street":null,"addr:housenumber":null,"geometry":[3.05508,50.6324329],"closest_node":506774244,"distance_noeud":23.4523892984},{"osmid":4424239711,"name":"Petit Bouillon Alcide","amenity":"restaurant","cuisine":"regional","addr:street":null,"addr:housenumber":null,"geometry":[3.0630167,50.6376964],"closest_node":260579130,"distance_noeud":59.5764573476},{"osmid":4424286721,"name":"L'arrière pays","amenity":"restaurant","cuisine":"french","addr:street":null,"addr:housenumber":null,"geometry":[3.0612028,50.6387189],"closest_node":529791726,"distance_noeud":65.7211893871},{"osmid":4431625188,"name":"Chef","amenity":"fast_food","cuisine":"kebab","addr:street":null,"addr:housenumber":null,"geometry":[3.0540255,50.6315015],"closest_node":1845505945,"distance_noeud":25.7329888233},{"osmid":4431626089,"name":"Pizza Hut","amenity":"restaurant","cuisine":"pizza","addr:street":null,"addr:housenumber":null,"geometry":[3.0540794,50.6314726],"closest_node":1845505945,"distance_noeud":31.7525101019},{"osmid":4432667906,"name":"B-Routh","amenity":"restaurant","cuisine":null,"addr:street":null,"addr:housenumber":null,"geometry":[3.0427022,50.6323407],"closest_node":485133383,"distance_noeud":15.0151248318},{"osmid":4438230892,"name":"Le Chti Charivari","amenity":"restaurant","cuisine":null,"addr:street":null,"addr:housenumber":null,"geometry":[2.9819243,50.6513596],"closest_node":663310485,"distance_noeud":116.2269709359},{"osmid":4438235089,"name":"Memphis","amenity":"restaurant","cuisine":"american","addr:street":null,"addr:housenumber":null,"geometry":[2.9824343,50.6513985],"closest_node":8660494761,"distance_noeud":114.6460942244},{"osmid":4442146051,"name":"3 Brasseurs","amenity":"restaurant","cuisine":"burger;pizza;seafood","addr:street":null,"addr:housenumber":null,"geometry":[3.0692959,50.6361629],"closest_node":4358710668,"distance_noeud":52.1695091491},{"osmid":4442146055,"name":"Chez Simone","amenity":"restaurant","cuisine":"french","addr:street":null,"addr:housenumber":null,"geometry":[3.0698488,50.6354964],"closest_node":290265438,"distance_noeud":26.9378095144},{"osmid":4442146057,"name":"Le Flandre","amenity":"restaurant","cuisine":null,"addr:street":null,"addr:housenumber":null,"geometry":[3.0704141,50.6354812],"closest_node":198873099,"distance_noeud":24.6164178207},{"osmid":4442174795,"name":"Le Meunier","amenity":"restaurant","cuisine":"french;regional","addr:street":null,"addr:housenumber":null,"geometry":[3.0706247,50.6356996],"closest_node":198873099,"distance_noeud":33.9660375793},{"osmid":4445182609,"name":"Jaldi Jaldi","amenity":"restaurant","cuisine":"indian","addr:street":"Rue Masséna","addr:housenumber":"65","geometry":[3.0550035,50.6318581],"closest_node":506774238,"distance_noeud":30.0175905219},{"osmid":4496383796,"name":"Las Tapas","amenity":"restaurant","cuisine":"spanish","addr:street":null,"addr:housenumber":null,"geometry":[3.0553769,50.6463646],"closest_node":639787669,"distance_noeud":22.2171281962},{"osmid":4500229012,"name":"Tasty","amenity":"restaurant","cuisine":"indian","addr:street":null,"addr:housenumber":null,"geometry":[3.0430369,50.632033],"closest_node":485133383,"distance_noeud":60.5625920352},{"osmid":4500242564,"name":"Pizza Factory","amenity":"restaurant","cuisine":"pizza","addr:street":null,"addr:housenumber":null,"geometry":[3.0466247,50.6321519],"closest_node":485133452,"distance_noeud":56.3551153455},{"osmid":4509013420,"name":"Octopus","amenity":"restaurant","cuisine":"fish;seafood","addr:street":null,"addr:housenumber":null,"geometry":[3.0588902,50.6287756],"closest_node":235809784,"distance_noeud":29.8126854297},{"osmid":4558295945,"name":"Efes Kebab","amenity":"fast_food","cuisine":"kebab","addr:street":null,"addr:housenumber":null,"geometry":[3.0488335,50.6263045],"closest_node":984864783,"distance_noeud":9.7891517798},{"osmid":4575796889,"name":"Dio Ristorante - Lille","amenity":"restaurant","cuisine":"italian","addr:street":null,"addr:housenumber":null,"geometry":[3.0554875,50.6324799],"closest_node":506774244,"distance_noeud":42.5734405731},{"osmid":4691245654,"name":"Dunya","amenity":"restaurant","cuisine":null,"addr:street":null,"addr:housenumber":null,"geometry":[3.0909028,50.6334297],"closest_node":403800276,"distance_noeud":12.5498498996},{"osmid":4713330926,"name":"Coup de Coeur","amenity":"fast_food","cuisine":"friture","addr:street":null,"addr:housenumber":null,"geometry":[3.0493485,50.6191972],"closest_node":11419382547,"distance_noeud":70.9874710724},{"osmid":4732669422,"name":"La cour de la ch’tite brigitte","amenity":"restaurant","cuisine":"regional","addr:street":null,"addr:housenumber":null,"geometry":[3.0618926,50.6410405],"closest_node":610539015,"distance_noeud":51.6085904231},{"osmid":4857672767,"name":"Toyotomi","amenity":"restaurant","cuisine":"japanese","addr:street":null,"addr:housenumber":null,"geometry":[3.0577964,50.6297943],"closest_node":494563683,"distance_noeud":21.5073115198},{"osmid":4857672768,"name":"Yiso Ramen","amenity":"restaurant","cuisine":"japanese;ramen","addr:street":null,"addr:housenumber":null,"geometry":[3.0578675,50.6297515],"closest_node":494563683,"distance_noeud":28.5446019258},{"osmid":4857672771,"name":"Le Passe-Porc","amenity":"restaurant","cuisine":"pork","addr:street":null,"addr:housenumber":null,"geometry":[3.0581158,50.6296195],"closest_node":439806886,"distance_noeud":33.4233293587},{"osmid":4857672772,"name":"Safran","amenity":"restaurant","cuisine":"indian","addr:street":null,"addr:housenumber":null,"geometry":[3.0582022,50.6295857],"closest_node":439806886,"distance_noeud":25.3985940882},{"osmid":4893934324,"name":"The Queen's Head","amenity":"restaurant","cuisine":null,"addr:street":null,"addr:housenumber":null,"geometry":[3.0648144,50.6416223],"closest_node":7440999229,"distance_noeud":30.8088194192},{"osmid":4893943621,"name":"Le Général","amenity":"restaurant","cuisine":null,"addr:street":"Rue du Cirque","addr:housenumber":"21","geometry":[3.0618163,50.6395745],"closest_node":438673369,"distance_noeud":27.7856040149},{"osmid":4910931003,"name":"Big Fernand","amenity":"fast_food","cuisine":"burger","addr:street":null,"addr:housenumber":null,"geometry":[3.0627617,50.6329551],"closest_node":7301806336,"distance_noeud":92.9694845928},{"osmid":4960540123,"name":"Chtite Brigitte","amenity":"restaurant","cuisine":"regional","addr:street":null,"addr:housenumber":null,"geometry":[3.0582751,50.638486],"closest_node":262088470,"distance_noeud":40.8850208031},{"osmid":4960540124,"name":"Jour de Pêche","amenity":"restaurant","cuisine":"fish","addr:street":null,"addr:housenumber":null,"geometry":[3.0617863,50.6369924],"closest_node":260459828,"distance_noeud":30.5404951586},{"osmid":4969313621,"name":"Bistrot Tao","amenity":"restaurant","cuisine":"asian","addr:street":null,"addr:housenumber":null,"geometry":[3.0648291,50.6332367],"closest_node":294326330,"distance_noeud":21.0662346451},{"osmid":4974260622,"name":"Le Lion Bossu","amenity":"restaurant","cuisine":"french","addr:street":null,"addr:housenumber":null,"geometry":[3.0650938,50.6403296],"closest_node":6278931711,"distance_noeud":63.8020674872},{"osmid":4995215663,"name":"Holy Moly Gourmet Burger","amenity":"fast_food","cuisine":"burger","addr:street":null,"addr:housenumber":null,"geometry":[3.0705726,50.635745],"closest_node":198873099,"distance_noeud":29.0272842508},{"osmid":5057981672,"name":"Miam's","amenity":"fast_food","cuisine":"sandwich;burger","addr:street":null,"addr:housenumber":null,"geometry":[3.0522602,50.6262687],"closest_node":1102402350,"distance_noeud":17.721004657},{"osmid":5058092886,"name":"Unik Kebab Vieux Lille","amenity":"fast_food","cuisine":"kebab","addr:street":null,"addr:housenumber":null,"geometry":[3.0583247,50.6392944],"closest_node":438673393,"distance_noeud":13.5250169861},{"osmid":5072895821,"name":"Maison L","amenity":"restaurant","cuisine":"lebanese","addr:street":null,"addr:housenumber":null,"geometry":[3.0494434,50.62737],"closest_node":984839505,"distance_noeud":9.714795776},{"osmid":5075121573,"name":"Le 54","amenity":"restaurant","cuisine":"regional","addr:street":"Rue Faidherbe","addr:housenumber":"54","geometry":[3.1115537,50.6279917],"closest_node":4760787197,"distance_noeud":39.8168831271},{"osmid":5101058480,"name":"Bubble.Ice Lille","amenity":"fast_food","cuisine":"bubble_tea;waffle","addr:street":null,"addr:housenumber":null,"geometry":[3.0554411,50.6307475],"closest_node":494986738,"distance_noeud":26.3606484831},{"osmid":5109825553,"name":"Papà Raffaele","amenity":"restaurant","cuisine":"pizza;italian","addr:street":null,"addr:housenumber":null,"geometry":[3.0652027,50.6403853],"closest_node":6278931711,"distance_noeud":76.7304277422},{"osmid":5110566422,"name":"Le Club Sandwich","amenity":"fast_food","cuisine":"sandwich","addr:street":null,"addr:housenumber":null,"geometry":[3.0388931,50.6078626],"closest_node":6303849659,"distance_noeud":19.8390099574},{"osmid":5133702662,"name":"Le Bouchon du Quai du Wault","amenity":"restaurant","cuisine":"french;lyonnaise","addr:street":null,"addr:housenumber":null,"geometry":[3.0538519,50.6372718],"closest_node":305930058,"distance_noeud":60.7703803783},{"osmid":5158700364,"name":"Baan Boon","amenity":"restaurant","cuisine":"asian;thai","addr:street":null,"addr:housenumber":null,"geometry":[3.0682398,50.6248942],"closest_node":1590800122,"distance_noeud":37.8269322676},{"osmid":5158700365,"name":"Le Verlaine","amenity":"restaurant","cuisine":"regional","addr:street":null,"addr:housenumber":null,"geometry":[3.0681975,50.6263124],"closest_node":133278923,"distance_noeud":29.1281580087},{"osmid":5158700366,"name":"Beatriz","amenity":"restaurant","cuisine":"latin_american","addr:street":null,"addr:housenumber":null,"geometry":[3.0681993,50.6263697],"closest_node":133278923,"distance_noeud":32.4077951204},{"osmid":5162686333,"name":"Aokamo","amenity":"restaurant","cuisine":null,"addr:street":null,"addr:housenumber":null,"geometry":[3.0658927,50.6363601],"closest_node":290265473,"distance_noeud":22.2945717303},{"osmid":5162686334,"name":"Dumplings & Co","amenity":"restaurant","cuisine":"asian","addr:street":null,"addr:housenumber":null,"geometry":[3.0640064,50.6370894],"closest_node":6360571385,"distance_noeud":106.9868977368},{"osmid":5162686337,"name":"De Rode Koe","amenity":"restaurant","cuisine":"regional;french;european","addr:street":null,"addr:housenumber":null,"geometry":[3.0599395,50.6407084],"closest_node":438673377,"distance_noeud":29.5803104949},{"osmid":5163090898,"name":"La Vieille Assiette","amenity":"restaurant","cuisine":"regional","addr:street":null,"addr:housenumber":null,"geometry":[3.0402718,50.6346052],"closest_node":149375029,"distance_noeud":58.0436109868},{"osmid":5163090900,"name":"Ali Baba","amenity":"fast_food","cuisine":"kebab","addr:street":null,"addr:housenumber":null,"geometry":[3.0557185,50.6306095],"closest_node":494986738,"distance_noeud":18.0311600428},{"osmid":5163090903,"name":"Les Casseroles Lilloises","amenity":"restaurant","cuisine":"french","addr:street":null,"addr:housenumber":null,"geometry":[3.0542287,50.6313897],"closest_node":469309961,"distance_noeud":61.5060880092},{"osmid":5163090914,"name":"Mezzé Royal","amenity":"restaurant","cuisine":null,"addr:street":null,"addr:housenumber":null,"geometry":[3.0547313,50.6293765],"closest_node":1677449449,"distance_noeud":11.9335802792},{"osmid":5163093722,"name":"4U restaurant","amenity":"restaurant","cuisine":null,"addr:street":null,"addr:housenumber":null,"geometry":[3.0552828,50.6295952],"closest_node":469309921,"distance_noeud":30.6634618396},{"osmid":5163093726,"name":"Nigiri Thai","amenity":"restaurant","cuisine":"thai;sushi","addr:street":null,"addr:housenumber":null,"geometry":[3.0560707,50.6299202],"closest_node":439772980,"distance_noeud":73.0367482266},{"osmid":5163093733,"name":"Pho 117","amenity":"restaurant","cuisine":"vietnamese","addr:street":null,"addr:housenumber":null,"geometry":[3.0562324,50.6299788],"closest_node":439772980,"distance_noeud":54.4726347136},{"osmid":5163093746,"name":"Chiba","amenity":"restaurant","cuisine":"japanese","addr:street":null,"addr:housenumber":null,"geometry":[3.0590319,50.6311184],"closest_node":198873215,"distance_noeud":15.3115864602},{"osmid":5163093747,"name":"Royal Burger","amenity":"fast_food","cuisine":"burger","addr:street":null,"addr:housenumber":null,"geometry":[3.0594181,50.631277],"closest_node":288393949,"distance_noeud":46.2628459923},{"osmid":5163093748,"name":"Beef Art","amenity":"restaurant","cuisine":"steak_house","addr:street":null,"addr:housenumber":null,"geometry":[3.0594852,50.6313034],"closest_node":288393949,"distance_noeud":38.6056769422},{"osmid":5163093753,"name":"Flash Burger","amenity":"fast_food","cuisine":"burger","addr:street":null,"addr:housenumber":null,"geometry":[3.0660481,50.633715],"closest_node":260469525,"distance_noeud":34.3339122591},{"osmid":5163093755,"name":"Sushi Est","amenity":"restaurant","cuisine":"sushi","addr:street":null,"addr:housenumber":null,"geometry":[3.0662826,50.6339242],"closest_node":260469525,"distance_noeud":23.9197357568},{"osmid":5163093761,"name":"Homa","amenity":"restaurant","cuisine":null,"addr:street":null,"addr:housenumber":null,"geometry":[3.0652995,50.6344223],"closest_node":1102467072,"distance_noeud":22.2576493644},{"osmid":5198639330,"name":"Le Bar à Pizzas","amenity":"restaurant","cuisine":"pizza","addr:street":null,"addr:housenumber":null,"geometry":[3.0548476,50.6305825],"closest_node":534075207,"distance_noeud":19.1400870002},{"osmid":5202232461,"name":"L'assiette Thai","amenity":"restaurant","cuisine":"thai","addr:street":null,"addr:housenumber":null,"geometry":[3.0571231,50.6305564],"closest_node":439772980,"distance_noeud":63.1417626661},{"osmid":5202358160,"name":"Panini & Co","amenity":"fast_food","cuisine":null,"addr:street":null,"addr:housenumber":null,"geometry":[3.0545466,50.6323507],"closest_node":506774240,"distance_noeud":44.6707902416},{"osmid":5202358161,"name":"Pinup","amenity":"fast_food","cuisine":null,"addr:street":null,"addr:housenumber":null,"geometry":[3.0539867,50.6326633],"closest_node":506774196,"distance_noeud":15.0338144282},{"osmid":5202358163,"name":"Fost","amenity":"restaurant","cuisine":"caribbean","addr:street":null,"addr:housenumber":null,"geometry":[3.0534428,50.632403],"closest_node":506774196,"distance_noeud":51.7127300197},{"osmid":5202358164,"name":"Le Dahu","amenity":"restaurant","cuisine":"french;regional","addr:street":"Rue des Primeurs","addr:housenumber":"5","geometry":[3.0533878,50.6323511],"closest_node":506774197,"distance_noeud":37.2677801853},{"osmid":5204529047,"name":"Chopsticks&Co","amenity":"restaurant","cuisine":"chinese;japanese;asian","addr:street":null,"addr:housenumber":null,"geometry":[3.0495216,50.6274],"closest_node":984839505,"distance_noeud":13.9032104683},{"osmid":5236766121,"name":"Waffle Factory","amenity":"fast_food","cuisine":"crepe","addr:street":null,"addr:housenumber":null,"geometry":[3.0637813,50.6361752],"closest_node":9417521537,"distance_noeud":91.1673513781},{"osmid":5241464926,"name":"Layalina","amenity":"restaurant","cuisine":"lebanese","addr:street":null,"addr:housenumber":null,"geometry":[3.0678459,50.6237458],"closest_node":1700891645,"distance_noeud":59.3432823618},{"osmid":5242426940,"name":"La Clairière","amenity":"restaurant","cuisine":null,"addr:street":"Boulevard de la Liberté","addr:housenumber":"75","geometry":[3.0573017,50.6344546],"closest_node":1589659457,"distance_noeud":59.4068660345},{"osmid":5245088851,"name":"Happy F'eat","amenity":"restaurant","cuisine":"brunch;international","addr:street":null,"addr:housenumber":null,"geometry":[3.0591069,50.6364055],"closest_node":386665351,"distance_noeud":32.9608995811},{"osmid":5246976006,"name":"Restaurant Sébastopol","amenity":"restaurant","cuisine":"french","addr:street":null,"addr:housenumber":null,"geometry":[3.0589887,50.6288511],"closest_node":235809784,"distance_noeud":19.4548594657},{"osmid":5249047265,"name":"Tika Lika","amenity":"restaurant","cuisine":"poke","addr:street":null,"addr:housenumber":null,"geometry":[3.0622933,50.6388011],"closest_node":320950924,"distance_noeud":25.9303613811},{"osmid":5249086516,"name":"Pizza Hut","amenity":"restaurant","cuisine":"pizza","addr:street":null,"addr:housenumber":null,"geometry":[3.0920099,50.6326208],"closest_node":403114909,"distance_noeud":28.9569288407},{"osmid":5256283222,"name":"turkmen","amenity":"fast_food","cuisine":"kebab","addr:street":null,"addr:housenumber":null,"geometry":[3.0477723,50.6138518],"closest_node":384893063,"distance_noeud":21.4580720475},{"osmid":5263998312,"name":"Le Cirque","amenity":"restaurant","cuisine":null,"addr:street":null,"addr:housenumber":null,"geometry":[3.0543368,50.6234238],"closest_node":1679967915,"distance_noeud":20.9259591325},{"osmid":5267690933,"name":"Chez Max","amenity":"restaurant","cuisine":null,"addr:street":null,"addr:housenumber":null,"geometry":[3.0551495,50.6309129],"closest_node":506774235,"distance_noeud":24.5795010086},{"osmid":5267690935,"name":"Five Guys","amenity":"fast_food","cuisine":"burger","addr:street":null,"addr:housenumber":null,"geometry":[3.0627719,50.6333487],"closest_node":294326325,"distance_noeud":113.6985806022},{"osmid":5267690936,"name":"Canard Street","amenity":"fast_food","cuisine":null,"addr:street":null,"addr:housenumber":null,"geometry":[3.0626174,50.633167],"closest_node":294326325,"distance_noeud":131.3629158849},{"osmid":5267690937,"name":"My Fluffy","amenity":"restaurant","cuisine":"pancakes","addr:street":null,"addr:housenumber":null,"geometry":[3.062733,50.6332909],"closest_node":294326325,"distance_noeud":117.8315584148},{"osmid":5267867990,"name":"Aux Filles du Cambodge","amenity":"fast_food","cuisine":"thai","addr:street":null,"addr:housenumber":null,"geometry":[3.0550048,50.6319178],"closest_node":506774238,"distance_noeud":24.147251404},{"osmid":5273384154,"name":"Bagel Corner","amenity":"fast_food","cuisine":"bagel","addr:street":null,"addr:housenumber":null,"geometry":[3.0628396,50.6328823],"closest_node":7301806336,"distance_noeud":81.6645878967},{"osmid":5274237680,"name":"O'Tacos","amenity":"fast_food","cuisine":"french_tacos","addr:street":null,"addr:housenumber":null,"geometry":[3.0682406,50.6363485],"closest_node":290265456,"distance_noeud":50.783420997},{"osmid":5274237682,"name":"Pékin","amenity":"restaurant","cuisine":"chinese","addr:street":null,"addr:housenumber":null,"geometry":[3.068678,50.6362053],"closest_node":290265456,"distance_noeud":58.5776568798},{"osmid":5274237683,"name":"KAF - Kiosque à Fraîcheurs","amenity":"fast_food","cuisine":"sandwich","addr:street":null,"addr:housenumber":null,"geometry":[3.0689206,50.6364304],"closest_node":3076442891,"distance_noeud":31.1283449546},{"osmid":5274237698,"name":"Donuts & Donuts","amenity":"fast_food","cuisine":"donut","addr:street":null,"addr:housenumber":null,"geometry":[3.0655438,50.6354023],"closest_node":290265473,"distance_noeud":97.3406718909},{"osmid":5274962182,"name":"Le Comptoir des Bistronomes","amenity":"restaurant","cuisine":"french","addr:street":null,"addr:housenumber":null,"geometry":[3.0681938,50.633197],"closest_node":8666073721,"distance_noeud":29.9028789865},{"osmid":5287380791,"name":"Casper","amenity":"fast_food","cuisine":null,"addr:street":null,"addr:housenumber":null,"geometry":[3.0543302,50.629428],"closest_node":1677449449,"distance_noeud":39.2540845461},{"osmid":5298878521,"name":"Au Soyeux","amenity":"restaurant","cuisine":"regional","addr:street":null,"addr:housenumber":null,"geometry":[3.0663684,50.6423263],"closest_node":613547840,"distance_noeud":14.8511848166},{"osmid":5299445563,"name":"Le Frigidaire","amenity":"restaurant","cuisine":null,"addr:street":null,"addr:housenumber":null,"geometry":[3.0684019,50.6242541],"closest_node":1700891645,"distance_noeud":25.0248519334},{"osmid":5313702821,"name":"Escale Thaï","amenity":"restaurant","cuisine":"thai","addr:street":null,"addr:housenumber":null,"geometry":[3.0671278,50.6429246],"closest_node":362339918,"distance_noeud":26.7934762781},{"osmid":5316414389,"name":"Dayliss","amenity":"fast_food","cuisine":"vietnamese;japanese","addr:street":null,"addr:housenumber":null,"geometry":[3.0453699,50.62959],"closest_node":485133394,"distance_noeud":29.3100868097},{"osmid":5316414391,"name":"Tortillas","amenity":"fast_food","cuisine":"mexican","addr:street":null,"addr:housenumber":null,"geometry":[3.0458958,50.6298166],"closest_node":485133394,"distance_noeud":40.9944100206},{"osmid":5316414392,"name":"Celine Kebab","amenity":"fast_food","cuisine":"kebab","addr:street":null,"addr:housenumber":null,"geometry":[3.0459596,50.6298445],"closest_node":492204157,"distance_noeud":32.8608863967},{"osmid":5316414395,"name":"P’tite poutine","amenity":"fast_food","cuisine":"poutine","addr:street":null,"addr:housenumber":null,"geometry":[3.0457504,50.6300246],"closest_node":492204157,"distance_noeud":44.5720627969},{"osmid":5316414405,"name":"Yaya Happy Tea","amenity":"fast_food","cuisine":"vietnamese;bubble_tea","addr:street":null,"addr:housenumber":null,"geometry":[3.0463392,50.6302789],"closest_node":492204157,"distance_noeud":31.131075736},{"osmid":5316414406,"name":"Au Ch'ti Panini","amenity":"fast_food","cuisine":null,"addr:street":null,"addr:housenumber":null,"geometry":[3.0462778,50.6302515],"closest_node":492204157,"distance_noeud":24.5094003127},{"osmid":5317159575,"name":"Domino's","amenity":"fast_food","cuisine":"pizza","addr:street":null,"addr:housenumber":null,"geometry":[3.0518322,50.6284148],"closest_node":439772964,"distance_noeud":27.3923195454},{"osmid":5320698621,"name":"Snack du Sud","amenity":"fast_food","cuisine":"sandwich;kebab","addr:street":null,"addr:housenumber":null,"geometry":[3.0477648,50.6143127],"closest_node":384893063,"distance_noeud":59.2391086768},{"osmid":5324577310,"name":"Le jardin du bonheur","amenity":"restaurant","cuisine":"chinese","addr:street":null,"addr:housenumber":null,"geometry":[3.0573223,50.6297638],"closest_node":494563683,"distance_noeud":31.8752101228},{"osmid":5324577311,"name":"Au dragon d'or","amenity":"restaurant","cuisine":"chinese","addr:street":null,"addr:housenumber":null,"geometry":[3.0568227,50.6300275],"closest_node":439772980,"distance_noeud":32.8461920262},{"osmid":5324577316,"name":"Maison Ramen","amenity":"restaurant","cuisine":"ramen","addr:street":null,"addr:housenumber":null,"geometry":[3.0571995,50.6301033],"closest_node":439772980,"distance_noeud":64.5285594777},{"osmid":5324577318,"name":"Shuriken","amenity":"restaurant","cuisine":"japanese","addr:street":null,"addr:housenumber":null,"geometry":[3.0570501,50.6301743],"closest_node":439772980,"distance_noeud":46.6110904892},{"osmid":5324577320,"name":"Restaurant Hajveri","amenity":"restaurant","cuisine":"pakistani","addr:street":null,"addr:housenumber":null,"geometry":[3.0569607,50.6299539],"closest_node":439772980,"distance_noeud":49.2407839244},{"osmid":5325752878,"name":"Saveurs des Iles","amenity":"restaurant","cuisine":null,"addr:street":null,"addr:housenumber":null,"geometry":[3.0513614,50.6282141],"closest_node":439772964,"distance_noeud":82.8217568679},{"osmid":5325752892,"name":"Falafel Syriana","amenity":"fast_food","cuisine":null,"addr:street":null,"addr:housenumber":null,"geometry":[3.0501799,50.6274925],"closest_node":439772968,"distance_noeud":21.7927079985},{"osmid":5325752916,"name":"Pizza du Marché","amenity":"restaurant","cuisine":null,"addr:street":null,"addr:housenumber":null,"geometry":[3.05054,50.6268027],"closest_node":984864750,"distance_noeud":13.6357186137},{"osmid":5325754227,"name":"Snack de Waz","amenity":"fast_food","cuisine":"kebab","addr:street":null,"addr:housenumber":null,"geometry":[3.049911,50.6267882],"closest_node":984839468,"distance_noeud":19.5715385655},{"osmid":5325754268,"name":"Aux Bretons","amenity":"restaurant","cuisine":"french;regional","addr:street":null,"addr:housenumber":null,"geometry":[3.0488644,50.6262455],"closest_node":984864783,"distance_noeud":12.2846667141},{"osmid":5325754275,"name":"Pizzeria Del Vera","amenity":"restaurant","cuisine":"pizza","addr:street":null,"addr:housenumber":null,"geometry":[3.0487396,50.6264318],"closest_node":984864783,"distance_noeud":21.3364335503},{"osmid":5325754278,"name":"Tiparo Thai","amenity":"restaurant","cuisine":"thai","addr:street":null,"addr:housenumber":null,"geometry":[3.0486658,50.6265296],"closest_node":984864783,"distance_noeud":34.0562560721},{"osmid":5325754284,"name":"La petite fourchette","amenity":"restaurant","cuisine":null,"addr:street":null,"addr:housenumber":null,"geometry":[3.0486001,50.6266338],"closest_node":439772972,"distance_noeud":31.143814163},{"osmid":5325754306,"name":"Al Fassia","amenity":"restaurant","cuisine":"moroccan","addr:street":null,"addr:housenumber":null,"geometry":[3.0473569,50.6263258],"closest_node":469141734,"distance_noeud":16.4900233866},{"osmid":5325754312,"name":"Le Syrah Luna","amenity":"restaurant","cuisine":null,"addr:street":null,"addr:housenumber":null,"geometry":[3.0482678,50.625252],"closest_node":469141732,"distance_noeud":17.527012753},{"osmid":5325754313,"name":"La Popote","amenity":"restaurant","cuisine":null,"addr:street":null,"addr:housenumber":null,"geometry":[3.0488959,50.6253449],"closest_node":469141740,"distance_noeud":14.1100742696},{"osmid":5325868605,"name":"Restaurant universitaire Châtelet","amenity":"restaurant","cuisine":null,"addr:street":null,"addr:housenumber":null,"geometry":[3.0349786,50.6143703],"closest_node":6279121457,"distance_noeud":150.9793708698},{"osmid":5325868608,"name":"Brasserie La Basoche","amenity":"restaurant","cuisine":null,"addr:street":null,"addr:housenumber":null,"geometry":[3.0700019,50.6191601],"closest_node":489576858,"distance_noeud":28.1199144473},{"osmid":5333316104,"name":"Soleil d'Agadir","amenity":"restaurant","cuisine":"oriental","addr:street":null,"addr:housenumber":null,"geometry":[3.0594211,50.6461735],"closest_node":639033705,"distance_noeud":17.5056240919},{"osmid":5343504208,"name":"Café des Nates","amenity":"restaurant","cuisine":null,"addr:street":null,"addr:housenumber":null,"geometry":[3.0514473,50.6321749],"closest_node":492204171,"distance_noeud":46.7944408467},{"osmid":5343504210,"name":"LUKS Kebab","amenity":"fast_food","cuisine":"kebab","addr:street":null,"addr:housenumber":null,"geometry":[3.0535421,50.6330549],"closest_node":506774194,"distance_noeud":29.3164141386},{"osmid":5343504216,"name":"Le Grand Angle","amenity":"restaurant","cuisine":"french","addr:street":null,"addr:housenumber":null,"geometry":[3.0571443,50.6345669],"closest_node":1589659457,"distance_noeud":40.4916829266},{"osmid":5343505324,"name":"Jefe Burger","amenity":"fast_food","cuisine":"burger","addr:street":null,"addr:housenumber":null,"geometry":[3.0598976,50.6355425],"closest_node":251053667,"distance_noeud":45.0069418874},{"osmid":5348005721,"name":"El Viva Fajitas","amenity":"fast_food","cuisine":"mexican","addr:street":null,"addr:housenumber":null,"geometry":[3.0662839,50.6362341],"closest_node":290265473,"distance_noeud":36.123584211},{"osmid":5348005762,"name":"Yakamoz","amenity":"fast_food","cuisine":"kebab","addr:street":null,"addr:housenumber":null,"geometry":[3.0685571,50.637037],"closest_node":320950880,"distance_noeud":44.1458936709},{"osmid":5361882735,"name":"Tok'ici","amenity":"restaurant","cuisine":null,"addr:street":"Rue des Bois Blancs","addr:housenumber":"173","geometry":[3.0271315,50.6317917],"closest_node":472379052,"distance_noeud":15.5922077653},{"osmid":5376240685,"name":"Le Timgad","amenity":"fast_food","cuisine":"kebab","addr:street":null,"addr:housenumber":null,"geometry":[3.0687156,50.6362539],"closest_node":3076442891,"distance_noeud":50.0358267398},{"osmid":5383580071,"name":"La Luck","amenity":"restaurant","cuisine":null,"addr:street":null,"addr:housenumber":null,"geometry":[3.0597817,50.6462176],"closest_node":260579119,"distance_noeud":36.4901166006},{"osmid":5383857938,"name":"Les Bistronautes","amenity":"restaurant","cuisine":"french","addr:street":null,"addr:housenumber":null,"geometry":[3.0614841,50.6372462],"closest_node":260459828,"distance_noeud":73.5687209754},{"osmid":5383857948,"name":"N'autre Monde","amenity":"restaurant","cuisine":null,"addr:street":null,"addr:housenumber":null,"geometry":[3.0621104,50.6379752],"closest_node":260579127,"distance_noeud":23.9826138625},{"osmid":5383857949,"name":"White lotus","amenity":"restaurant","cuisine":"thai","addr:street":null,"addr:housenumber":null,"geometry":[3.0622912,50.637958],"closest_node":260579127,"distance_noeud":35.8427641046},{"osmid":5383857953,"name":"La petit cour","amenity":"restaurant","cuisine":"regional","addr:street":null,"addr:housenumber":null,"geometry":[3.0624671,50.6383396],"closest_node":320950923,"distance_noeud":33.4349707008},{"osmid":5383857971,"name":"Lakson","amenity":"restaurant","cuisine":null,"addr:street":null,"addr:housenumber":null,"geometry":[3.0625858,50.6384257],"closest_node":320950923,"distance_noeud":17.4269118935},{"osmid":5405784947,"name":"Friterie","amenity":"fast_food","cuisine":null,"addr:street":null,"addr:housenumber":null,"geometry":[3.104354,50.6256983],"closest_node":392059621,"distance_noeud":84.6737965811},{"osmid":5405879884,"name":"Lwiza","amenity":"restaurant","cuisine":"kebab","addr:street":"Rue Pierre Legrand","addr:housenumber":"221","geometry":[3.0949429,50.6314766],"closest_node":408160658,"distance_noeud":17.4651622373},{"osmid":5405879887,"name":"La Petite Caille","amenity":"restaurant","cuisine":null,"addr:street":"Rue Pierre Legrand","addr:housenumber":"227","geometry":[3.0952891,50.6313485],"closest_node":408160658,"distance_noeud":30.4952711602},{"osmid":5407835062,"name":"Sushi Chiwa","amenity":"restaurant","cuisine":"sushi","addr:street":null,"addr:housenumber":null,"geometry":[3.0682899,50.6368892],"closest_node":320950880,"distance_noeud":56.8046498077},{"osmid":5407835065,"name":"Mixthé","amenity":"fast_food","cuisine":"bubble_tea;cake","addr:street":null,"addr:housenumber":null,"geometry":[3.0589008,50.6310573],"closest_node":198873215,"distance_noeud":13.583202775},{"osmid":5407835066,"name":"Mister Chicken","amenity":"fast_food","cuisine":"chicken","addr:street":null,"addr:housenumber":null,"geometry":[3.0586679,50.6309633],"closest_node":198873215,"distance_noeud":35.7722017683},{"osmid":5425635647,"name":"Black & White Burger","amenity":"fast_food","cuisine":"burger","addr:street":null,"addr:housenumber":null,"geometry":[3.0626931,50.6332446],"closest_node":294326325,"distance_noeud":122.3617079237},{"osmid":5425635662,"name":"Domino's","amenity":"fast_food","cuisine":"pizza","addr:street":null,"addr:housenumber":null,"geometry":[3.080796,50.6232677],"closest_node":1549456470,"distance_noeud":36.052782636},{"osmid":5443917724,"name":"Fresh Way","amenity":"fast_food","cuisine":null,"addr:street":null,"addr:housenumber":null,"geometry":[3.0611368,50.6323127],"closest_node":8568267671,"distance_noeud":30.5199590466},{"osmid":5453574226,"name":"Gomu","amenity":"fast_food","cuisine":"burger;bao","addr:street":null,"addr:housenumber":null,"geometry":[3.0657124,50.6369221],"closest_node":251050900,"distance_noeud":60.7708422081},{"osmid":5455331786,"name":"Le Maroc","amenity":"restaurant","cuisine":null,"addr:street":null,"addr:housenumber":null,"geometry":[3.0573709,50.6344223],"closest_node":1589659457,"distance_noeud":67.6933808363},{"osmid":5455331790,"name":"Pixies Bar&Burger","amenity":"restaurant","cuisine":"burger","addr:street":null,"addr:housenumber":null,"geometry":[3.0564494,50.6305838],"closest_node":1033781810,"distance_noeud":30.7503293683},{"osmid":5455331791,"name":"Pica Tapas","amenity":"restaurant","cuisine":"spanish","addr:street":null,"addr:housenumber":null,"geometry":[3.0559212,50.6307892],"closest_node":494986738,"distance_noeud":26.9303908234},{"osmid":5455331792,"name":"Chimi","amenity":"restaurant","cuisine":"asian","addr:street":null,"addr:housenumber":null,"geometry":[3.0529486,50.6286783],"closest_node":469309943,"distance_noeud":24.0164134375},{"osmid":5505563189,"name":"Poggio","amenity":"restaurant","cuisine":"corsican","addr:street":null,"addr:housenumber":null,"geometry":[3.0614787,50.6288844],"closest_node":506774232,"distance_noeud":87.0725486586},{"osmid":5538696780,"name":"kani kani","amenity":"fast_food","cuisine":"korean;thai","addr:street":null,"addr:housenumber":null,"geometry":[3.0601024,50.6358328],"closest_node":251053667,"distance_noeud":62.0213854457},{"osmid":5538696785,"name":"Saray Express","amenity":"fast_food","cuisine":"lebanese","addr:street":null,"addr:housenumber":null,"geometry":[3.0620815,50.6369623],"closest_node":260459828,"distance_noeud":27.0448018547},{"osmid":5538696787,"name":"O Thai","amenity":"restaurant","cuisine":"thai","addr:street":null,"addr:housenumber":null,"geometry":[3.0674424,50.6373824],"closest_node":262088681,"distance_noeud":28.1140578415},{"osmid":5555761904,"name":"M Thai","amenity":"restaurant","cuisine":"thai","addr:street":null,"addr:housenumber":null,"geometry":[3.0689985,50.6363894],"closest_node":3076442891,"distance_noeud":38.9967687014},{"osmid":5555761905,"name":"taobento","amenity":"fast_food","cuisine":"sushi;asian","addr:street":"Place de la Gare","addr:housenumber":"8","geometry":[3.0690391,50.6363529],"closest_node":4358710668,"distance_noeud":50.1818686212},{"osmid":5555761906,"name":"Gur Kebab","amenity":"fast_food","cuisine":"kebab","addr:street":null,"addr:housenumber":null,"geometry":[3.0690853,50.6363243],"closest_node":4358710668,"distance_noeud":48.2590956519},{"osmid":5555761907,"name":"Friterie Meunier","amenity":"fast_food","cuisine":"friture","addr:street":"Place de la Gare","addr:housenumber":"14","geometry":[3.0691338,50.63629],"closest_node":4358710668,"distance_noeud":47.3574860864},{"osmid":5577104565,"name":"Les Oiseaux","amenity":"restaurant","cuisine":null,"addr:street":null,"addr:housenumber":null,"geometry":[3.0601792,50.6305756],"closest_node":439806870,"distance_noeud":70.6660164387},{"osmid":5577104567,"name":"La Meïda","amenity":"restaurant","cuisine":null,"addr:street":null,"addr:housenumber":null,"geometry":[3.072736,50.6288593],"closest_node":1544209593,"distance_noeud":104.3125225362},{"osmid":5581233572,"name":"Annie's Kitchen","amenity":"restaurant","cuisine":null,"addr:street":null,"addr:housenumber":null,"geometry":[3.0526551,50.6287736],"closest_node":198873229,"distance_noeud":36.6277977776},{"osmid":5613160622,"name":"Napoli Gang","amenity":"fast_food","cuisine":"italian_pizza","addr:street":null,"addr:housenumber":null,"geometry":[3.0553369,50.6341936],"closest_node":8679777057,"distance_noeud":32.1184023822},{"osmid":5613162229,"name":"Ô Cercle","amenity":"restaurant","cuisine":null,"addr:street":null,"addr:housenumber":null,"geometry":[3.0546749,50.6340152],"closest_node":10248980317,"distance_noeud":42.5392485783},{"osmid":5613234021,"name":"J'Thai","amenity":"restaurant","cuisine":null,"addr:street":null,"addr:housenumber":null,"geometry":[3.042473,50.634182],"closest_node":506803421,"distance_noeud":31.874027109},{"osmid":5613984871,"name":"Oum Falafel","amenity":"restaurant","cuisine":"lebanese","addr:street":null,"addr:housenumber":null,"geometry":[3.0505355,50.6279179],"closest_node":468704354,"distance_noeud":19.5070968557},{"osmid":5618395557,"name":"Le Pubstore","amenity":"restaurant","cuisine":"french","addr:street":null,"addr:housenumber":null,"geometry":[3.0594791,50.6443868],"closest_node":639042047,"distance_noeud":10.356508121},{"osmid":5620628413,"name":"Le souk","amenity":"restaurant","cuisine":"moroccan","addr:street":null,"addr:housenumber":null,"geometry":[3.0569423,50.6293448],"closest_node":656595959,"distance_noeud":20.0877183636},{"osmid":5632810716,"name":"Texas Pizza","amenity":"fast_food","cuisine":"pizza","addr:street":null,"addr:housenumber":null,"geometry":[3.0177014,50.6415681],"closest_node":391074933,"distance_noeud":84.9338145924},{"osmid":5636158916,"name":"Station Pizza","amenity":"fast_food","cuisine":"pizza","addr:street":null,"addr:housenumber":null,"geometry":[3.0242602,50.6369552],"closest_node":342802336,"distance_noeud":48.5578796116},{"osmid":5643696500,"name":"Apéros Debout","amenity":"fast_food","cuisine":null,"addr:street":null,"addr:housenumber":null,"geometry":[3.0588983,50.6292181],"closest_node":235809784,"distance_noeud":23.4658737064},{"osmid":5645828673,"name":"General Tom Kha","amenity":"fast_food","cuisine":"asian","addr:street":null,"addr:housenumber":null,"geometry":[3.0701996,50.6353192],"closest_node":290265438,"distance_noeud":47.5086726553},{"osmid":5654778646,"name":"La Villa","amenity":"restaurant","cuisine":"french","addr:street":null,"addr:housenumber":null,"geometry":[3.0234074,50.6377566],"closest_node":342802333,"distance_noeud":68.7744938953},{"osmid":5661404238,"name":"La Duchesse","amenity":"restaurant","cuisine":null,"addr:street":null,"addr:housenumber":null,"geometry":[3.0124786,50.6451764],"closest_node":269948297,"distance_noeud":20.8395284026},{"osmid":5700475752,"name":"Mama Francesca","amenity":"restaurant","cuisine":"pizza","addr:street":null,"addr:housenumber":null,"geometry":[3.0187666,50.6403049],"closest_node":6985168751,"distance_noeud":24.8911536466},{"osmid":5700475757,"name":"Pitta Lomme","amenity":"fast_food","cuisine":"kebab","addr:street":null,"addr:housenumber":null,"geometry":[3.018531,50.6406722],"closest_node":391074933,"distance_noeud":70.3577503228},{"osmid":5709628391,"name":"Nomàs","amenity":"fast_food","cuisine":"mexican","addr:street":null,"addr:housenumber":null,"geometry":[3.0603589,50.6362366],"closest_node":251053667,"distance_noeud":104.7667482427},{"osmid":5709628392,"name":"Père & Fish Lille","amenity":"fast_food","cuisine":"burger;fish_and_chips","addr:street":null,"addr:housenumber":null,"geometry":[3.0604468,50.6362723],"closest_node":251053667,"distance_noeud":115.1502197138},{"osmid":5719702739,"name":"Chaud Time","amenity":"fast_food","cuisine":null,"addr:street":null,"addr:housenumber":null,"geometry":[3.0501231,50.6189193],"closest_node":251056689,"distance_noeud":38.512818483},{"osmid":5724126439,"name":"Wok to walk","amenity":"fast_food","cuisine":null,"addr:street":null,"addr:housenumber":null,"geometry":[3.0654779,50.6353784],"closest_node":9417521537,"distance_noeud":119.9134103395},{"osmid":5724126441,"name":"Il Ristorante","amenity":"restaurant","cuisine":"italian","addr:street":null,"addr:housenumber":null,"geometry":[3.0660425,50.6341424],"closest_node":1102467072,"distance_noeud":66.8500748255},{"osmid":5745648144,"name":"Taksim Kebab","amenity":"fast_food","cuisine":"kebab","addr:street":null,"addr:housenumber":null,"geometry":[3.0229518,50.638027],"closest_node":1612744960,"distance_noeud":77.0901035612},{"osmid":5752649281,"name":"Flandres Liban","amenity":"restaurant","cuisine":"lebanese","addr:street":null,"addr:housenumber":null,"geometry":[3.0545975,50.6237125],"closest_node":295718901,"distance_noeud":47.34243375},{"osmid":5761496453,"name":"Le Beffroi","amenity":"restaurant","cuisine":"burger","addr:street":null,"addr:housenumber":null,"geometry":[3.0641179,50.6375022],"closest_node":260463752,"distance_noeud":74.2795541164},{"osmid":5768108634,"name":"Madre","amenity":"restaurant","cuisine":null,"addr:street":null,"addr:housenumber":null,"geometry":[3.0580564,50.6387159],"closest_node":262088470,"distance_noeud":34.0808355775},{"osmid":5788114779,"name":"411 Avenue Burger","amenity":"fast_food","cuisine":"burger","addr:street":null,"addr:housenumber":null,"geometry":[3.0162318,50.642658],"closest_node":6985168777,"distance_noeud":184.031156237},{"osmid":5788114787,"name":"Le Chalet II","amenity":"restaurant","cuisine":null,"addr:street":null,"addr:housenumber":null,"geometry":[3.0090049,50.646536],"closest_node":6985169948,"distance_noeud":21.5931856497},{"osmid":5803644988,"name":"BurgerOnomy","amenity":"fast_food","cuisine":"burger","addr:street":null,"addr:housenumber":null,"geometry":[3.0473055,50.6302954],"closest_node":492204154,"distance_noeud":35.563865596},{"osmid":5803644997,"name":"Pancook","amenity":"restaurant","cuisine":null,"addr:street":"Rue Colbert","addr:housenumber":"125","geometry":[3.0436062,50.6317659],"closest_node":487062988,"distance_noeud":64.0324435337},{"osmid":5848952777,"name":"Le Présentoir","amenity":"restaurant","cuisine":"bistronomique","addr:street":null,"addr:housenumber":null,"geometry":[3.065153,50.6366277],"closest_node":320950909,"distance_noeud":45.7356281947},{"osmid":5853256606,"name":"Tacos Street","amenity":"fast_food","cuisine":"tacos","addr:street":null,"addr:housenumber":null,"geometry":[3.056747,50.6264141],"closest_node":198873253,"distance_noeud":35.9070455877},{"osmid":5894248705,"name":"Fabrik Burger","amenity":"restaurant","cuisine":"burger","addr:street":null,"addr:housenumber":null,"geometry":[3.0551816,50.6249193],"closest_node":8568267657,"distance_noeud":21.17118897},{"osmid":5894248708,"name":"L'Atmo Pizza","amenity":"restaurant","cuisine":"pizza","addr:street":null,"addr:housenumber":null,"geometry":[3.0547013,50.6239055],"closest_node":295718901,"distance_noeud":23.8798576594},{"osmid":5915592424,"name":"La Cabane Gourmande","amenity":"fast_food","cuisine":null,"addr:street":null,"addr:housenumber":null,"geometry":[3.0456297,50.6385948],"closest_node":10600934028,"distance_noeud":218.3799786126},{"osmid":5929260225,"name":"La Belleza Big Mamma","amenity":"restaurant","cuisine":"pizza;italian;italian_pizza","addr:street":null,"addr:housenumber":null,"geometry":[3.0587811,50.6389984],"closest_node":262088471,"distance_noeud":10.473909199},{"osmid":5942418306,"name":"Mezze & Co","amenity":"restaurant","cuisine":"lebanese","addr:street":null,"addr:housenumber":null,"geometry":[3.0530025,50.6289091],"closest_node":469309943,"distance_noeud":11.2521824694},{"osmid":5942418313,"name":"Au 111 del Solfe","amenity":"fast_food","cuisine":"pizza;pasta","addr:street":null,"addr:housenumber":null,"geometry":[3.0556362,50.6309394],"closest_node":494986738,"distance_noeud":19.7537755201},{"osmid":5942418318,"name":"Itsy Bitsy - Cuisine Végétale","amenity":"restaurant","cuisine":null,"addr:street":"Rue Jeanne Maillotte","addr:housenumber":"10","geometry":[3.0629672,50.6317733],"closest_node":251054515,"distance_noeud":22.9689127141},{"osmid":5942418319,"name":"Le lovibond","amenity":"restaurant","cuisine":null,"addr:street":null,"addr:housenumber":null,"geometry":[3.0637862,50.6308689],"closest_node":198873202,"distance_noeud":18.9425027377},{"osmid":5942418320,"name":"Yol","amenity":"restaurant","cuisine":"turkish","addr:street":null,"addr:housenumber":null,"geometry":[3.0644108,50.6315345],"closest_node":1024070467,"distance_noeud":12.8063149958},{"osmid":5942418323,"name":"Kisoro","amenity":"restaurant","cuisine":"sushi","addr:street":null,"addr:housenumber":null,"geometry":[3.0637297,50.6327493],"closest_node":406517670,"distance_noeud":11.460793008},{"osmid":5942418326,"name":"El Flaquito","amenity":"fast_food","cuisine":"mexican","addr:street":null,"addr:housenumber":null,"geometry":[3.0644145,50.6336218],"closest_node":294326325,"distance_noeud":77.2925380765},{"osmid":5942418334,"name":"Chick’n Beef","amenity":"fast_food","cuisine":"burger","addr:street":null,"addr:housenumber":null,"geometry":[3.0621214,50.6326396],"closest_node":251054512,"distance_noeud":85.6068116953},{"osmid":5942769312,"name":"SOlange","amenity":"restaurant","cuisine":"french","addr:street":null,"addr:housenumber":null,"geometry":[3.0376496,50.6234713],"closest_node":8567356615,"distance_noeud":30.6357142691},{"osmid":5956476493,"name":"Bio'Appétit","amenity":"fast_food","cuisine":null,"addr:street":null,"addr:housenumber":null,"geometry":[3.0682518,50.619984],"closest_node":489576865,"distance_noeud":48.4335451291},{"osmid":5957298150,"name":"Xki Food","amenity":"fast_food","cuisine":null,"addr:street":null,"addr:housenumber":null,"geometry":[3.0528726,50.6288611],"closest_node":469309943,"distance_noeud":23.3572675934},{"osmid":5964926382,"name":"SoGood Euravenir","amenity":"fast_food","cuisine":"sandwich","addr:street":null,"addr:housenumber":null,"geometry":[3.0771443,50.6401095],"closest_node":6286429552,"distance_noeud":25.8970375838},{"osmid":5964926384,"name":"Le Barbier qui fume","amenity":"restaurant","cuisine":null,"addr:street":null,"addr:housenumber":null,"geometry":[3.076969,50.6402152],"closest_node":6286429546,"distance_noeud":20.9308808755},{"osmid":5976503415,"name":"La Rotanda","amenity":"fast_food","cuisine":"mexican","addr:street":null,"addr:housenumber":null,"geometry":[3.0542321,50.6229686],"closest_node":7054812530,"distance_noeud":16.6613476062},{"osmid":5986743906,"name":"Lou","amenity":"fast_food","cuisine":"pizza;salad","addr:street":null,"addr:housenumber":null,"geometry":[3.0539896,50.6293085],"closest_node":469309938,"distance_noeud":12.8970121814},{"osmid":6032496250,"name":"Croque’s & Pies","amenity":"restaurant","cuisine":"sandwich","addr:street":null,"addr:housenumber":null,"geometry":[3.0647192,50.6394347],"closest_node":251053076,"distance_noeud":60.2099674959},{"osmid":6032496263,"name":"La Crêperie de la Grand Place","amenity":"restaurant","cuisine":null,"addr:street":null,"addr:housenumber":null,"geometry":[3.0632242,50.6376498],"closest_node":260579130,"distance_noeud":64.1414213583},{"osmid":6032496269,"name":"Club Marot","amenity":"restaurant","cuisine":"french","addr:street":null,"addr:housenumber":null,"geometry":[3.0611166,50.637463],"closest_node":529791724,"distance_noeud":83.1424823556},{"osmid":6032496271,"name":"Seasons Cafe","amenity":"restaurant","cuisine":"soup","addr:street":null,"addr:housenumber":null,"geometry":[3.0593229,50.6360975],"closest_node":386665351,"distance_noeud":17.0814915831},{"osmid":6032496272,"name":"Yori","amenity":"restaurant","cuisine":"korean","addr:street":null,"addr:housenumber":null,"geometry":[3.0592076,50.6359539],"closest_node":529679454,"distance_noeud":10.5465430745},{"osmid":6041484070,"name":"Hopen Source","amenity":"restaurant","cuisine":null,"addr:street":null,"addr:housenumber":null,"geometry":[3.0650769,50.6325074],"closest_node":1792997849,"distance_noeud":63.4546435665},{"osmid":6042843007,"name":"Le Comptoir Volant","amenity":"fast_food","cuisine":"burger","addr:street":null,"addr:housenumber":null,"geometry":[3.0645827,50.6398077],"closest_node":251053076,"distance_noeud":20.9680793966},{"osmid":6068177348,"name":"Ginko","amenity":"restaurant","cuisine":"fine_dining","addr:street":null,"addr:housenumber":null,"geometry":[3.0601383,50.6353273],"closest_node":251053667,"distance_noeud":80.4128549957},{"osmid":6088976278,"name":"Kebab House","amenity":"fast_food","cuisine":"kebab;sandwich","addr:street":null,"addr:housenumber":null,"geometry":[3.0683004,50.6240066],"closest_node":1700891645,"distance_noeud":18.3264892322},{"osmid":6093847353,"name":"Café Vedette","amenity":"restaurant","cuisine":"french;regional","addr:street":null,"addr:housenumber":null,"geometry":[3.062199,50.6414827],"closest_node":610539015,"distance_noeud":10.1494398808},{"osmid":6093847355,"name":"Estaminet","amenity":"restaurant","cuisine":"regional","addr:street":null,"addr:housenumber":null,"geometry":[3.0622339,50.6412852],"closest_node":610539015,"distance_noeud":12.447900851},{"osmid":6093871632,"name":"Le Versailles","amenity":"restaurant","cuisine":null,"addr:street":null,"addr:housenumber":null,"geometry":[3.0737934,50.6290331],"closest_node":1544209593,"distance_noeud":22.2436573271},{"osmid":6093871633,"name":"Le Porthos","amenity":"restaurant","cuisine":null,"addr:street":null,"addr:housenumber":null,"geometry":[3.0625059,50.6411097],"closest_node":610539015,"distance_noeud":46.2413143437},{"osmid":6093890609,"name":"La table du Clarance","amenity":"restaurant","cuisine":"french","addr:street":null,"addr:housenumber":null,"geometry":[3.0570541,50.6387555],"closest_node":262088464,"distance_noeud":52.8416291994},{"osmid":6109836516,"name":"Nann Street","amenity":"fast_food","cuisine":"burger","addr:street":null,"addr:housenumber":null,"geometry":[3.0481356,50.6144122],"closest_node":384926557,"distance_noeud":48.2715862579},{"osmid":6110928847,"name":"Tramontana Ristorante","amenity":"restaurant","cuisine":"italian;italian_pizza","addr:street":null,"addr:housenumber":null,"geometry":[3.0385349,50.6243163],"closest_node":492092314,"distance_noeud":52.6095824183},{"osmid":6119981568,"name":"Express Pizza","amenity":"fast_food","cuisine":null,"addr:street":null,"addr:housenumber":null,"geometry":[3.0638123,50.6185267],"closest_node":530710737,"distance_noeud":16.7250095761},{"osmid":6122249967,"name":"Café Peacock","amenity":"restaurant","cuisine":null,"addr:street":null,"addr:housenumber":null,"geometry":[3.0630819,50.6362119],"closest_node":1102248033,"distance_noeud":44.9020686046},{"osmid":6122249974,"name":"Bellini","amenity":"fast_food","cuisine":"italian;pizza","addr:street":null,"addr:housenumber":null,"geometry":[3.0674622,50.6370659],"closest_node":251050905,"distance_noeud":22.3985567439},{"osmid":6130500998,"name":"Tel Pizza","amenity":"fast_food","cuisine":null,"addr:street":null,"addr:housenumber":null,"geometry":[3.0280672,50.6176548],"closest_node":1001410763,"distance_noeud":48.8466256672},{"osmid":6133393108,"name":"Le Président","amenity":"restaurant","cuisine":null,"addr:street":null,"addr:housenumber":null,"geometry":[3.0629345,50.6368503],"closest_node":260579130,"distance_noeud":36.2462929934},{"osmid":6140886610,"name":"Le Marché Flottant","amenity":"restaurant","cuisine":"thai","addr:street":null,"addr:housenumber":null,"geometry":[3.0585589,50.6311426],"closest_node":198873215,"distance_noeud":38.7845702912},{"osmid":6158333253,"name":"Habesha","amenity":"restaurant","cuisine":"abyssinienne","addr:street":null,"addr:housenumber":null,"geometry":[3.0693884,50.6377805],"closest_node":320950920,"distance_noeud":24.2028818761},{"osmid":6159414365,"name":"Bleu Canard","amenity":"restaurant","cuisine":"bistronomique","addr:street":null,"addr:housenumber":null,"geometry":[3.0659298,50.6363302],"closest_node":290265473,"distance_noeud":17.9475882424},{"osmid":6159414367,"name":"Tout chaud","amenity":"fast_food","cuisine":null,"addr:street":null,"addr:housenumber":null,"geometry":[3.0652221,50.6354713],"closest_node":9417521537,"distance_noeud":91.066780111},{"osmid":6159414371,"name":"Fooday","amenity":"fast_food","cuisine":null,"addr:street":null,"addr:housenumber":null,"geometry":[3.0445125,50.6309081],"closest_node":485133387,"distance_noeud":39.0430777953},{"osmid":6159414372,"name":"Food & Cook","amenity":"fast_food","cuisine":null,"addr:street":null,"addr:housenumber":null,"geometry":[3.0449677,50.6304982],"closest_node":485133391,"distance_noeud":24.297672874},{"osmid":6260343274,"name":"Ô Kebab","amenity":"fast_food","cuisine":"burger","addr:street":null,"addr:housenumber":null,"geometry":[3.0594095,50.6303595],"closest_node":198873215,"distance_noeud":106.6942663853},{"osmid":6263863981,"name":"Chicon pressé","amenity":"restaurant","cuisine":null,"addr:street":null,"addr:housenumber":null,"geometry":[3.0696111,50.6378416],"closest_node":320950920,"distance_noeud":11.0558589892},{"osmid":6263863982,"name":"Le Nil","amenity":"restaurant","cuisine":"egyptian","addr:street":null,"addr:housenumber":null,"geometry":[3.0694153,50.6376778],"closest_node":320950920,"distance_noeud":22.0566056641},{"osmid":6271668578,"name":"Le Dôme 33","amenity":"restaurant","cuisine":"french","addr:street":null,"addr:housenumber":null,"geometry":[3.0694952,50.6348621],"closest_node":504792413,"distance_noeud":70.3683253959},{"osmid":6278076597,"name":"Les Sales Gosses","amenity":"restaurant","cuisine":null,"addr:street":null,"addr:housenumber":null,"geometry":[3.0849268,50.6419279],"closest_node":530260378,"distance_noeud":17.9788355131},{"osmid":6296077350,"name":"Cafétéria Cdg59","amenity":"fast_food","cuisine":null,"addr:street":null,"addr:housenumber":null,"geometry":[3.1050897,50.6162442],"closest_node":2868039048,"distance_noeud":190.5608916699},{"osmid":6311667528,"name":"Pizza Delices Burger","amenity":"fast_food","cuisine":"pizza","addr:street":null,"addr:housenumber":null,"geometry":[2.987121,50.6456156],"closest_node":8660494522,"distance_noeud":15.9282374731},{"osmid":6311668074,"name":"Pizzeria Nono","amenity":"fast_food","cuisine":"pizza","addr:street":null,"addr:housenumber":null,"geometry":[2.9872743,50.6457943],"closest_node":8660494522,"distance_noeud":10.6341132132},{"osmid":6325881982,"name":"Bernard et Léon","amenity":"restaurant","cuisine":null,"addr:street":null,"addr:housenumber":null,"geometry":[3.064804,50.6381951],"closest_node":320963939,"distance_noeud":37.6683289436},{"osmid":6329760222,"name":"Mama Kitchen Caffè","amenity":"restaurant","cuisine":"italian","addr:street":null,"addr:housenumber":null,"geometry":[3.0744637,50.6382185],"closest_node":406386503,"distance_noeud":226.9161905994},{"osmid":6329760223,"name":"HD Diner","amenity":"restaurant","cuisine":"burger","addr:street":null,"addr:housenumber":null,"geometry":[3.0747337,50.6381549],"closest_node":406386503,"distance_noeud":203.3418640489},{"osmid":6329760224,"name":"BeefHouse","amenity":"restaurant","cuisine":"steak_house","addr:street":null,"addr:housenumber":null,"geometry":[3.0749317,50.6381082],"closest_node":406386503,"distance_noeud":187.3703344459},{"osmid":6329760225,"name":"Poulaillon","amenity":"fast_food","cuisine":"sandwich","addr:street":null,"addr:housenumber":null,"geometry":[3.0747445,50.6382279],"closest_node":406386503,"distance_noeud":198.4513450925},{"osmid":6331894399,"name":"Pizzeria Juliet et Roméo","amenity":"restaurant","cuisine":"italian;italian_pizza;pizza","addr:street":null,"addr:housenumber":null,"geometry":[3.044866,50.6253589],"closest_node":7160628846,"distance_noeud":19.2372935645},{"osmid":6335433747,"name":"YAMSTOR.","amenity":"restaurant","cuisine":null,"addr:street":null,"addr:housenumber":null,"geometry":[2.9883329,50.6456249],"closest_node":8660494427,"distance_noeud":67.7641090478},{"osmid":6335434110,"name":"Subway","amenity":"fast_food","cuisine":"sandwich","addr:street":null,"addr:housenumber":null,"geometry":[2.9821342,50.6516738],"closest_node":8660494761,"distance_noeud":159.7541997801},{"osmid":6335434113,"name":"Sushitime","amenity":"restaurant","cuisine":null,"addr:street":null,"addr:housenumber":null,"geometry":[2.9758478,50.6506315],"closest_node":955230201,"distance_noeud":74.3067696745},{"osmid":6335434122,"name":"Sushi Boutik","amenity":"restaurant","cuisine":null,"addr:street":null,"addr:housenumber":null,"geometry":[2.9826469,50.6520383],"closest_node":663248989,"distance_noeud":176.775757657},{"osmid":6338486525,"name":"Prima Fila","amenity":"restaurant","cuisine":"italian","addr:street":null,"addr:housenumber":null,"geometry":[3.0211279,50.6299322],"closest_node":343115325,"distance_noeud":128.3748804478},{"osmid":6389628510,"name":"Bombora","amenity":"restaurant","cuisine":"poke","addr:street":"Avenue Marie-Louïse Delwaulle","addr:housenumber":null,"geometry":[3.0191598,50.6330077],"closest_node":1161480697,"distance_noeud":45.6519674412},{"osmid":6426715017,"name":"Pureté","amenity":"restaurant","cuisine":"fine_dining","addr:street":null,"addr:housenumber":null,"geometry":[3.0618353,50.641528],"closest_node":618213795,"distance_noeud":18.8891771937},{"osmid":6426715018,"name":"Rouge Barre","amenity":"restaurant","cuisine":null,"addr:street":null,"addr:housenumber":null,"geometry":[3.0594052,50.6443664],"closest_node":639042047,"distance_noeud":9.2683188258},{"osmid":6427720566,"name":"Switch","amenity":"restaurant","cuisine":"pizza","addr:street":null,"addr:housenumber":null,"geometry":[3.0427018,50.6326285],"closest_node":485133383,"distance_noeud":17.1429724086},{"osmid":6427720571,"name":"Pad Thai & Co","amenity":"fast_food","cuisine":"thai","addr:street":null,"addr:housenumber":null,"geometry":[3.0411033,50.6334244],"closest_node":485133379,"distance_noeud":49.1003649968},{"osmid":6456290808,"name":"Station Burger","amenity":"fast_food","cuisine":"burger","addr:street":null,"addr:housenumber":null,"geometry":[3.0242192,50.636983],"closest_node":342802336,"distance_noeud":50.6696524221},{"osmid":6469968189,"name":"Friterie du marché","amenity":"fast_food","cuisine":"friture","addr:street":null,"addr:housenumber":null,"geometry":[3.0502034,50.6273267],"closest_node":439772968,"distance_noeud":31.1278809985},{"osmid":6485471687,"name":"Petit Beret","amenity":"restaurant","cuisine":"french","addr:street":null,"addr:housenumber":null,"geometry":[3.0653435,50.6386177],"closest_node":1299481329,"distance_noeud":61.7136596391},{"osmid":6511782890,"name":"Cul de poule","amenity":"restaurant","cuisine":"bagel","addr:street":null,"addr:housenumber":null,"geometry":[3.0728484,50.6288804],"closest_node":1544209593,"distance_noeud":91.8886623598},{"osmid":6512125024,"name":"Istambul Capitol","amenity":"fast_food","cuisine":"kebab;burger","addr:street":null,"addr:housenumber":null,"geometry":[2.9986326,50.6467512],"closest_node":269947909,"distance_noeud":17.2209831916},{"osmid":6512125032,"name":"Pastamia & Co","amenity":"fast_food","cuisine":null,"addr:street":null,"addr:housenumber":null,"geometry":[3.0000788,50.6468756],"closest_node":269948249,"distance_noeud":33.2490055018},{"osmid":6525658393,"name":"Le Biplet","amenity":"restaurant","cuisine":null,"addr:street":null,"addr:housenumber":null,"geometry":[3.0201789,50.6392417],"closest_node":6985168760,"distance_noeud":11.3692970339},{"osmid":6532278473,"name":"Cordoba","amenity":"restaurant","cuisine":null,"addr:street":null,"addr:housenumber":null,"geometry":[3.0511101,50.6188928],"closest_node":530710673,"distance_noeud":55.1673500047},{"osmid":6532285269,"name":"L'orpailleur","amenity":"restaurant","cuisine":null,"addr:street":null,"addr:housenumber":null,"geometry":[3.0507003,50.6194472],"closest_node":530710673,"distance_noeud":39.9209936432},{"osmid":6536701946,"name":"Molto Pizze","amenity":"fast_food","cuisine":"pizza","addr:street":null,"addr:housenumber":null,"geometry":[3.0493964,50.6266872],"closest_node":984839468,"distance_noeud":59.7156151149},{"osmid":6536701953,"name":"Tokyo Express","amenity":"fast_food","cuisine":"asian","addr:street":null,"addr:housenumber":null,"geometry":[3.043376,50.6319868],"closest_node":485133383,"distance_noeud":90.8855650995},{"osmid":6537384392,"name":"L'Etoile de Rabat","amenity":"fast_food","cuisine":null,"addr:street":null,"addr:housenumber":null,"geometry":[3.0302119,50.6344211],"closest_node":471757038,"distance_noeud":28.6644095838},{"osmid":6545230757,"name":"Elephant Thaï","amenity":"restaurant","cuisine":null,"addr:street":null,"addr:housenumber":null,"geometry":[3.0675946,50.637191],"closest_node":320950893,"distance_noeud":30.8170896567},{"osmid":6551591876,"name":"Pitaya","amenity":"fast_food","cuisine":"thai","addr:street":null,"addr:housenumber":null,"geometry":[3.06257,50.6331007],"closest_node":506774263,"distance_noeud":120.3444507023},{"osmid":6551591877,"name":"Friterie Meunier - Béthune","amenity":"fast_food","cuisine":"friture","addr:street":null,"addr:housenumber":null,"geometry":[3.0623869,50.6328092],"closest_node":251054512,"distance_noeud":113.057703418},{"osmid":6552759099,"name":"ZN Pizza","amenity":"fast_food","cuisine":"pizza","addr:street":null,"addr:housenumber":null,"geometry":[3.0479041,50.6203609],"closest_node":1635636473,"distance_noeud":21.3722996045},{"osmid":6552977447,"name":"Friterie Meunier","amenity":"fast_food","cuisine":"friture","addr:street":null,"addr:housenumber":null,"geometry":[3.0632645,50.6375447],"closest_node":260579130,"distance_noeud":57.9519767122},{"osmid":6554702104,"name":"L'Annexe","amenity":"restaurant","cuisine":null,"addr:street":null,"addr:housenumber":null,"geometry":[3.0853143,50.6547652],"closest_node":675370023,"distance_noeud":221.0137954114},{"osmid":6571108765,"name":"Brutus","amenity":"restaurant","cuisine":"crepe","addr:street":null,"addr:housenumber":null,"geometry":[3.0594171,50.6387818],"closest_node":251053672,"distance_noeud":17.3187890169},{"osmid":6581148866,"name":"Les Délices De l'Inde","amenity":"restaurant","cuisine":"indian","addr:street":null,"addr:housenumber":null,"geometry":[3.0692587,50.6354253],"closest_node":290265444,"distance_noeud":10.6953829739},{"osmid":6581962394,"name":"Cozy Grill","amenity":"restaurant","cuisine":"burger;steak_house","addr:street":null,"addr:housenumber":null,"geometry":[3.0628836,50.613507],"closest_node":6268919520,"distance_noeud":49.4159358564},{"osmid":6593040186,"name":"Fast Pizza","amenity":"fast_food","cuisine":"pizza","addr:street":null,"addr:housenumber":null,"geometry":[3.0590002,50.6073373],"closest_node":533986987,"distance_noeud":18.871479253},{"osmid":6637258002,"name":"Janet by Homer","amenity":"fast_food","cuisine":"sandwich","addr:street":null,"addr:housenumber":null,"geometry":[3.0626698,50.633212],"closest_node":294326325,"distance_noeud":125.1441623732},{"osmid":6653423797,"name":"Pizza Capri","amenity":"fast_food","cuisine":"pizza","addr:street":null,"addr:housenumber":null,"geometry":[3.0628329,50.6331153],"closest_node":294326325,"distance_noeud":108.5962986702},{"osmid":6806465022,"name":"Dog Sandwich","amenity":"fast_food","cuisine":"sandwich","addr:street":null,"addr:housenumber":null,"geometry":[3.0481332,50.6335846],"closest_node":508063533,"distance_noeud":20.1455964129},{"osmid":6821185889,"name":"Michel","amenity":"restaurant","cuisine":"lebanese","addr:street":null,"addr:housenumber":null,"geometry":[3.0682207,50.6329388],"closest_node":8666073721,"distance_noeud":56.0057804664},{"osmid":6840119262,"name":"Il Bastione","amenity":"restaurant","cuisine":"italian","addr:street":null,"addr:housenumber":null,"geometry":[3.0517302,50.6370937],"closest_node":1770465614,"distance_noeud":21.709563308},{"osmid":6892270503,"name":"Bouillant","amenity":"restaurant","cuisine":null,"addr:street":null,"addr:housenumber":null,"geometry":[3.0483995,50.6269507],"closest_node":439772972,"distance_noeud":15.5028570927},{"osmid":6899632394,"name":"Jane","amenity":"restaurant","cuisine":"burger","addr:street":null,"addr:housenumber":null,"geometry":[3.0674532,50.6396441],"closest_node":1299481274,"distance_noeud":37.6564895196},{"osmid":6905063158,"name":"Douceurs de Phuket","amenity":"restaurant","cuisine":"thai","addr:street":null,"addr:housenumber":null,"geometry":[3.0496874,50.6266654],"closest_node":984839468,"distance_noeud":27.5846756573},{"osmid":6915068921,"name":"Al'Carbone","amenity":"restaurant","cuisine":"regional","addr:street":"Rue des Martyrs de la Résistance","addr:housenumber":"90","geometry":[3.0101615,50.6334012],"closest_node":473829052,"distance_noeud":16.7121370765},{"osmid":6915134072,"name":"Au P'tit Délice","amenity":"fast_food","cuisine":null,"addr:street":"Rue Victor Hugo","addr:housenumber":"13","geometry":[3.007075,50.6322392],"closest_node":474774048,"distance_noeud":31.52490693},{"osmid":6924159733,"name":"Dreams Donuts","amenity":"fast_food","cuisine":"donut","addr:street":null,"addr:housenumber":null,"geometry":[3.0519254,50.6282551],"closest_node":439772964,"distance_noeud":25.4687379228},{"osmid":6976838747,"name":"Celebrazioni","amenity":"restaurant","cuisine":"pizza","addr:street":"Rue Anne Delavaux","addr:housenumber":"121","geometry":[2.9952686,50.641895],"closest_node":753862554,"distance_noeud":19.9110135135},{"osmid":6983633933,"name":"Lazy Susy","amenity":"restaurant","cuisine":"burger","addr:street":null,"addr:housenumber":null,"geometry":[3.0620611,50.6388432],"closest_node":320950924,"distance_noeud":7.1614690773},{"osmid":6993856362,"name":"Twister","amenity":"restaurant","cuisine":"burger","addr:street":"Rue Pierre Legrand","addr:housenumber":"182B","geometry":[3.0913943,50.6326074],"closest_node":403114909,"distance_noeud":39.1673158967},{"osmid":7011014687,"name":"La Grange","amenity":"restaurant","cuisine":"french","addr:street":null,"addr:housenumber":null,"geometry":[2.9966602,50.6429203],"closest_node":8657283349,"distance_noeud":54.5267539948},{"osmid":7044899432,"name":"L'argana","amenity":"restaurant","cuisine":"grill","addr:street":null,"addr:housenumber":null,"geometry":[3.1028174,50.6292328],"closest_node":412123657,"distance_noeud":28.062692884},{"osmid":7044899433,"name":"Tacos Maison","amenity":"restaurant","cuisine":"tacos","addr:street":null,"addr:housenumber":null,"geometry":[3.1024151,50.6293145],"closest_node":412123657,"distance_noeud":25.4396571879},{"osmid":7070334518,"name":"Frit'Rit","amenity":"restaurant","cuisine":"friture","addr:street":null,"addr:housenumber":null,"geometry":[2.9808968,50.6514649],"closest_node":663310487,"distance_noeud":81.9580645933},{"osmid":7073122189,"name":"Champthé","amenity":"restaurant","cuisine":"noodle","addr:street":null,"addr:housenumber":null,"geometry":[3.0873231,50.6321256],"closest_node":401255888,"distance_noeud":53.2208386601},{"osmid":7123131536,"name":"Aux Moules de Lille","amenity":"restaurant","cuisine":"regional;french","addr:street":null,"addr:housenumber":null,"geometry":[3.063278,50.6360284],"closest_node":1102248033,"distance_noeud":56.4068394301},{"osmid":7123136896,"name":"L’Avant Scène","amenity":"restaurant","cuisine":"french","addr:street":null,"addr:housenumber":null,"geometry":[3.0607436,50.6282995],"closest_node":506774232,"distance_noeud":59.5572940085},{"osmid":7123137441,"name":"Le Compostelle","amenity":"restaurant","cuisine":null,"addr:street":null,"addr:housenumber":null,"geometry":[3.0617403,50.6373683],"closest_node":260579127,"distance_noeud":55.1982822689},{"osmid":7129378979,"name":"Jai Ho","amenity":"restaurant","cuisine":"indian","addr:street":null,"addr:housenumber":null,"geometry":[3.0704671,50.6351074],"closest_node":251997374,"distance_noeud":54.6129516092},{"osmid":7174535763,"name":"Palais du Dragon","amenity":"restaurant","cuisine":"chinese","addr:street":null,"addr:housenumber":null,"geometry":[3.0710804,50.6355055],"closest_node":767069585,"distance_noeud":18.1803985284},{"osmid":7199946898,"name":"Masala St.","amenity":"fast_food","cuisine":"naans","addr:street":null,"addr:housenumber":null,"geometry":[3.0557096,50.6309136],"closest_node":494986738,"distance_noeud":16.6724991109},{"osmid":7199946902,"name":"O'Massena Food","amenity":"fast_food","cuisine":"burger","addr:street":null,"addr:housenumber":null,"geometry":[3.0548599,50.6308352],"closest_node":534075207,"distance_noeud":32.6090989012},{"osmid":7216635200,"name":"Le Braisé","amenity":"fast_food","cuisine":"burger","addr:street":null,"addr:housenumber":null,"geometry":[3.0727155,50.6210977],"closest_node":267375333,"distance_noeud":20.4618737669},{"osmid":7216635201,"name":"Ito Ramen","amenity":"restaurant","cuisine":"ramen","addr:street":null,"addr:housenumber":null,"geometry":[3.0523326,50.6323887],"closest_node":225057604,"distance_noeud":32.113624733},{"osmid":7230131507,"name":"Chez Molla","amenity":"restaurant","cuisine":"pizza;turkish","addr:street":"Rue Rabelais","addr:housenumber":"35","geometry":[3.0860217,50.6365729],"closest_node":406322823,"distance_noeud":43.2034673322},{"osmid":7230131510,"name":"XTra Burger","amenity":"fast_food","cuisine":"burger","addr:street":null,"addr:housenumber":null,"geometry":[3.0872968,50.6370588],"closest_node":292488511,"distance_noeud":18.4478665836},{"osmid":7279652790,"name":"Le Broc Vieux-Lille","amenity":"restaurant","cuisine":"french","addr:street":null,"addr:housenumber":null,"geometry":[3.0654864,50.6413104],"closest_node":978036759,"distance_noeud":18.1439961057},{"osmid":7279652791,"name":"Le Broc Lille-Centre","amenity":"restaurant","cuisine":"french","addr:street":null,"addr:housenumber":null,"geometry":[3.0626373,50.6326382],"closest_node":406517666,"distance_noeud":53.6660180697},{"osmid":7343399820,"name":"Origano la pizza","amenity":"restaurant","cuisine":"italian_pizza","addr:street":null,"addr:housenumber":null,"geometry":[3.0591467,50.6288008],"closest_node":235809784,"distance_noeud":30.6764536241},{"osmid":7353668125,"name":"Le Chti Long","amenity":"restaurant","cuisine":"asian","addr:street":null,"addr:housenumber":null,"geometry":[3.064034,50.6316218],"closest_node":3660944338,"distance_noeud":28.3949223809},{"osmid":7353668126,"name":"Little Italy","amenity":"restaurant","cuisine":"italian_pizza","addr:street":null,"addr:housenumber":null,"geometry":[3.064555,50.631432],"closest_node":251054519,"distance_noeud":19.6286336285},{"osmid":7416446581,"name":"Brins d'épices","amenity":"fast_food","cuisine":"international","addr:street":null,"addr:housenumber":null,"geometry":[3.0680883,50.6343629],"closest_node":1628579789,"distance_noeud":33.6766877786},{"osmid":7416484996,"name":"Délice du Molinel","amenity":"fast_food","cuisine":"asian","addr:street":null,"addr:housenumber":null,"geometry":[3.0681698,50.6343806],"closest_node":1628579789,"distance_noeud":42.9001903828},{"osmid":7416536016,"name":"Maboule","amenity":"restaurant","cuisine":null,"addr:street":null,"addr:housenumber":null,"geometry":[3.06817,50.6334068],"closest_node":8666073721,"distance_noeud":17.0587719413},{"osmid":7416672417,"name":"Ankara","amenity":"restaurant","cuisine":"turkish","addr:street":null,"addr:housenumber":null,"geometry":[3.0701378,50.6352885],"closest_node":290265438,"distance_noeud":40.3830120373},{"osmid":7418955855,"name":"We Are Ara","amenity":"restaurant","cuisine":"coffee_shop;latin_american","addr:street":null,"addr:housenumber":null,"geometry":[3.0649651,50.636765],"closest_node":6360570284,"distance_noeud":27.0675766563},{"osmid":7418955856,"name":"Thaï Land Square","amenity":"restaurant","cuisine":"thai","addr:street":null,"addr:housenumber":null,"geometry":[3.0650697,50.6366834],"closest_node":6360570284,"distance_noeud":35.9477443456},{"osmid":7419198914,"name":"Hippopotamus","amenity":"restaurant","cuisine":"steak_house","addr:street":null,"addr:housenumber":null,"geometry":[3.0652078,50.6369547],"closest_node":6360570284,"distance_noeud":21.6338090343},{"osmid":7419583300,"name":"Le Palazzo","amenity":"restaurant","cuisine":"italian","addr:street":null,"addr:housenumber":null,"geometry":[3.0678251,50.6337456],"closest_node":8666073755,"distance_noeud":26.586927605},{"osmid":7442520035,"name":"Planet Sushi","amenity":"fast_food","cuisine":"asian","addr:street":null,"addr:housenumber":null,"geometry":[3.065193,50.6410043],"closest_node":978036754,"distance_noeud":22.6035600888},{"osmid":7442520036,"name":"Sushi Shop","amenity":"fast_food","cuisine":"sushi","addr:street":null,"addr:housenumber":null,"geometry":[3.0652311,50.6410496],"closest_node":978036754,"distance_noeud":28.0209211531},{"osmid":7442763318,"name":"Spok","amenity":"restaurant","cuisine":null,"addr:street":null,"addr:housenumber":null,"geometry":[3.065642,50.6405642],"closest_node":613547834,"distance_noeud":30.8586812187},{"osmid":7444484996,"name":"Le Cerisier en Ville","amenity":"restaurant","cuisine":"fine_dining","addr:street":null,"addr:housenumber":null,"geometry":[3.0643367,50.6420151],"closest_node":406517619,"distance_noeud":13.6780457364},{"osmid":7444484997,"name":"La Brasserie du Cerisier","amenity":"restaurant","cuisine":"bistronomique","addr:street":null,"addr:housenumber":null,"geometry":[3.0642844,50.6420568],"closest_node":406517619,"distance_noeud":17.3074007648},{"osmid":7444484998,"name":"Smokey Banh Mi","amenity":"fast_food","cuisine":"vietnamese","addr:street":null,"addr:housenumber":null,"geometry":[3.0645164,50.6418586],"closest_node":406517619,"distance_noeud":25.4895356355},{"osmid":7444485004,"name":"Silex","amenity":"restaurant","cuisine":null,"addr:street":null,"addr:housenumber":null,"geometry":[3.0657798,50.641694],"closest_node":613547845,"distance_noeud":10.2984683219},{"osmid":7444485005,"name":"La Broche","amenity":"fast_food","cuisine":"kebab","addr:street":null,"addr:housenumber":null,"geometry":[3.0656443,50.641788],"closest_node":613547845,"distance_noeud":9.6842812851},{"osmid":7444485006,"name":"La Fleur de Lille","amenity":"restaurant","cuisine":"french","addr:street":null,"addr:housenumber":null,"geometry":[3.0656765,50.6418331],"closest_node":613547845,"distance_noeud":8.9935574427},{"osmid":7444485007,"name":"Meet People","amenity":"restaurant","cuisine":"thai","addr:street":null,"addr:housenumber":null,"geometry":[3.065714,50.641879],"closest_node":613547845,"distance_noeud":11.9674550588},{"osmid":7444485011,"name":"La Connivence","amenity":"restaurant","cuisine":"regional","addr:street":null,"addr:housenumber":null,"geometry":[3.0659796,50.6419445],"closest_node":362339913,"distance_noeud":24.1763128814},{"osmid":7444485012,"name":"Estaminet Rijsel","amenity":"restaurant","cuisine":"regional","addr:street":null,"addr:housenumber":null,"geometry":[3.0658763,50.6420738],"closest_node":362339913,"distance_noeud":19.626284355},{"osmid":7446873363,"name":"Be Burger Lille","amenity":"restaurant","cuisine":null,"addr:street":"Rue de Gand","addr:housenumber":"39","geometry":[3.0663613,50.6425498],"closest_node":613547840,"distance_noeud":28.032997493},{"osmid":7446873365,"name":"Estaminet du Welsh","amenity":"restaurant","cuisine":"regional","addr:street":null,"addr:housenumber":null,"geometry":[3.0665115,50.6426893],"closest_node":362339918,"distance_noeud":46.4166421128},{"osmid":7446873366,"name":"Chez Raoul","amenity":"restaurant","cuisine":"regional","addr:street":null,"addr:housenumber":null,"geometry":[3.0667153,50.6426076],"closest_node":362339918,"distance_noeud":34.4353620365},{"osmid":7446873367,"name":"Umami","amenity":"restaurant","cuisine":"japanese","addr:street":null,"addr:housenumber":null,"geometry":[3.0665785,50.6427326],"closest_node":362339918,"distance_noeud":37.7066302563},{"osmid":7448518931,"name":"Estaminet Chez la Vieille","amenity":"restaurant","cuisine":"regional","addr:street":null,"addr:housenumber":null,"geometry":[3.0668967,50.6427391],"closest_node":362339918,"distance_noeud":13.5871692832},{"osmid":7448518932,"name":"La Vieille France","amenity":"restaurant","cuisine":"regional","addr:street":null,"addr:housenumber":null,"geometry":[3.0667304,50.6428522],"closest_node":362339918,"distance_noeud":18.1187313173},{"osmid":7448518934,"name":"Aoyama","amenity":"restaurant","cuisine":"japanese","addr:street":null,"addr:housenumber":null,"geometry":[3.0671971,50.6429772],"closest_node":1634463179,"distance_noeud":18.330235336},{"osmid":7448518937,"name":"Le Gan'ge","amenity":"restaurant","cuisine":"indian","addr:street":null,"addr:housenumber":null,"geometry":[3.0676296,50.6432957],"closest_node":1634463179,"distance_noeud":46.5476650848},{"osmid":7448518938,"name":"Chez Ronny","amenity":"restaurant","cuisine":"regional","addr:street":null,"addr:housenumber":null,"geometry":[3.0677033,50.6433735],"closest_node":1634463179,"distance_noeud":57.5831896293},{"osmid":7452579394,"name":"Pause Sandwiche","amenity":"fast_food","cuisine":"sandwich","addr:street":null,"addr:housenumber":null,"geometry":[3.0211405,50.6344704],"closest_node":2750950751,"distance_noeud":23.0120212933},{"osmid":7457900800,"name":"P'tite Poutine","amenity":"fast_food","cuisine":"canadian","addr:street":null,"addr:housenumber":null,"geometry":[3.0605267,50.6386571],"closest_node":438673359,"distance_noeud":76.2177868803},{"osmid":7467898591,"name":"Le Bistrot Thaï","amenity":"restaurant","cuisine":"thai","addr:street":null,"addr:housenumber":null,"geometry":[3.0591467,50.6383528],"closest_node":251053675,"distance_noeud":44.7223746953},{"osmid":7467898593,"name":"Gotham Bar Restaurant","amenity":"restaurant","cuisine":null,"addr:street":null,"addr:housenumber":null,"geometry":[3.0590752,50.6382643],"closest_node":251053675,"distance_noeud":32.7657830377},{"osmid":7467898594,"name":"Le 28","amenity":"restaurant","cuisine":null,"addr:street":null,"addr:housenumber":null,"geometry":[3.0588637,50.6380147],"closest_node":251053675,"distance_noeud":14.3507218024},{"osmid":7467898596,"name":"Disco Volante","amenity":"restaurant","cuisine":"french","addr:street":null,"addr:housenumber":null,"geometry":[3.0587517,50.6378903],"closest_node":251053675,"distance_noeud":28.1894166965},{"osmid":7507475195,"name":"Méert","amenity":"restaurant","cuisine":"Gastronomique","addr:street":null,"addr:housenumber":null,"geometry":[3.0618096,50.6376893],"closest_node":260579127,"distance_noeud":25.4970914412},{"osmid":7507963856,"name":"Dumplings and Co","amenity":"fast_food","cuisine":"asian","addr:street":null,"addr:housenumber":null,"geometry":[3.0678381,50.6366784],"closest_node":251050905,"distance_noeud":47.7052506665},{"osmid":7507963862,"name":"Nachos","amenity":"fast_food","cuisine":"mexican","addr:street":null,"addr:housenumber":null,"geometry":[3.068473,50.6366048],"closest_node":320950880,"distance_noeud":34.1229966061},{"osmid":7532319042,"name":"L'Assiette Mijotée","amenity":"restaurant","cuisine":null,"addr:street":null,"addr:housenumber":null,"geometry":[3.0583444,50.6243006],"closest_node":133264720,"distance_noeud":27.1616189852},{"osmid":7593584851,"name":"Le Douze","amenity":"restaurant","cuisine":"african","addr:street":null,"addr:housenumber":null,"geometry":[3.0585913,50.6320019],"closest_node":471611519,"distance_noeud":64.0150967203},{"osmid":7603734154,"name":"La Crêperie du Sébasto","amenity":"restaurant","cuisine":"crepe","addr:street":null,"addr:housenumber":null,"geometry":[3.0576346,50.6298811],"closest_node":494563683,"distance_noeud":15.882930067},{"osmid":7614742840,"name":"Le charbon ardent","amenity":"restaurant","cuisine":null,"addr:street":null,"addr:housenumber":null,"geometry":[3.0556235,50.6289887],"closest_node":469141722,"distance_noeud":65.9786648243},{"osmid":7617604866,"name":"Pokawa","amenity":"restaurant","cuisine":"hawaiian","addr:street":null,"addr:housenumber":null,"geometry":[3.0626094,50.6369045],"closest_node":260579130,"distance_noeud":43.6096351868},{"osmid":7618566524,"name":"Balme","amenity":"restaurant","cuisine":null,"addr:street":null,"addr:housenumber":null,"geometry":[3.0637958,50.6407866],"closest_node":406517599,"distance_noeud":83.5491366605},{"osmid":7620261165,"name":"BChef","amenity":"fast_food","cuisine":"burger","addr:street":null,"addr:housenumber":null,"geometry":[3.0660964,50.6349412],"closest_node":1102467072,"distance_noeud":88.6150021419},{"osmid":7625813501,"name":"Taster","amenity":"fast_food","cuisine":null,"addr:street":null,"addr:housenumber":null,"geometry":[3.0644049,50.6333589],"closest_node":294326330,"distance_noeud":49.6362226257},{"osmid":7804550264,"name":"Estaminet Gantois","amenity":"restaurant","cuisine":"regional","addr:street":null,"addr:housenumber":null,"geometry":[3.0682932,50.6310767],"closest_node":288395751,"distance_noeud":29.6878311673},{"osmid":7806362886,"name":"La Galerie","amenity":"restaurant","cuisine":null,"addr:street":null,"addr:housenumber":null,"geometry":[3.061651,50.6409634],"closest_node":610539015,"distance_noeud":76.9727432459},{"osmid":7820142490,"name":"Berceau d'Afrique","amenity":"restaurant","cuisine":"african","addr:street":null,"addr:housenumber":null,"geometry":[3.0730201,50.6203789],"closest_node":517340659,"distance_noeud":22.7946823915},{"osmid":7820142492,"name":"La Casa des tacos","amenity":"fast_food","cuisine":"tacos","addr:street":null,"addr:housenumber":null,"geometry":[3.0718945,50.6220206],"closest_node":489576873,"distance_noeud":23.7952645709},{"osmid":7820142496,"name":"Dunky Star Pizza","amenity":"fast_food","cuisine":"pizza","addr:street":null,"addr:housenumber":null,"geometry":[3.068603,50.6240866],"closest_node":1700891638,"distance_noeud":11.0336205747},{"osmid":7822987109,"name":"Burger Hunter","amenity":"fast_food","cuisine":"burger","addr:street":null,"addr:housenumber":null,"geometry":[3.0709478,50.6186167],"closest_node":362401590,"distance_noeud":76.7364015527},{"osmid":7864519937,"name":"Saveurs du nord","amenity":"restaurant","cuisine":"african","addr:street":null,"addr:housenumber":null,"geometry":[3.054211,50.6227687],"closest_node":440740811,"distance_noeud":32.5009432272},{"osmid":7881897331,"name":"Délices Univers","amenity":"restaurant","cuisine":"african","addr:street":null,"addr:housenumber":null,"geometry":[3.061087,50.620745],"closest_node":517340690,"distance_noeud":29.8881649289},{"osmid":7881897335,"name":"Mumtaz Mahal","amenity":"restaurant","cuisine":"indian","addr:street":null,"addr:housenumber":null,"geometry":[3.0572472,50.6270329],"closest_node":469309923,"distance_noeud":26.4305777616},{"osmid":7885073437,"name":"La Mie Câline","amenity":"fast_food","cuisine":null,"addr:street":null,"addr:housenumber":null,"geometry":[3.056681,50.6303801],"closest_node":439772980,"distance_noeud":14.3939340255},{"osmid":7893472517,"name":"Café Lovster","amenity":"restaurant","cuisine":null,"addr:street":null,"addr:housenumber":null,"geometry":[3.0647075,50.6378923],"closest_node":320963939,"distance_noeud":55.2317265344},{"osmid":7903185584,"name":"À la Brasserie","amenity":"restaurant","cuisine":null,"addr:street":null,"addr:housenumber":null,"geometry":[3.0429459,50.6235942],"closest_node":1635701799,"distance_noeud":35.6740094886},{"osmid":7959162190,"name":"Le Plaza Restaurant","amenity":"restaurant","cuisine":null,"addr:street":null,"addr:housenumber":null,"geometry":[3.0758676,50.6398224],"closest_node":6286429547,"distance_noeud":24.4926608917},{"osmid":7999480857,"name":"Falafel Alep","amenity":"fast_food","cuisine":"lebanese","addr:street":null,"addr:housenumber":null,"geometry":[3.0544837,50.6301202],"closest_node":469309960,"distance_noeud":15.1178490409},{"osmid":8007833524,"name":"Ciao Ragazzi","amenity":"restaurant","cuisine":"italian_pizza","addr:street":null,"addr:housenumber":null,"geometry":[3.0403385,50.6267061],"closest_node":1635759522,"distance_noeud":37.3850689854},{"osmid":8007833549,"name":"Gueuleton Lille","amenity":"restaurant","cuisine":"steak_house","addr:street":null,"addr:housenumber":null,"geometry":[3.0427117,50.62931],"closest_node":3239504421,"distance_noeud":29.0412978255},{"osmid":8007833562,"name":"Pizza Rella","amenity":"fast_food","cuisine":"pizza","addr:street":null,"addr:housenumber":null,"geometry":[3.0455511,50.6256412],"closest_node":439772978,"distance_noeud":17.6141006988},{"osmid":8009215118,"name":"Resto Alpha","amenity":"fast_food","cuisine":"pizza;sandwich","addr:street":null,"addr:housenumber":null,"geometry":[3.0419154,50.6333775],"closest_node":506803419,"distance_noeud":12.7993152783},{"osmid":8015857591,"name":"Street Food","amenity":"fast_food","cuisine":"kebab","addr:street":null,"addr:housenumber":null,"geometry":[3.0626015,50.6440366],"closest_node":260579124,"distance_noeud":24.8536492607},{"osmid":8015857592,"name":"Sandwicherie du Pont Neuf","amenity":"fast_food","cuisine":null,"addr:street":"Rue du Pont Neuf","addr:housenumber":"17","geometry":[3.0624759,50.6441514],"closest_node":260579124,"distance_noeud":17.735077721},{"osmid":8015860199,"name":"Aux Artistes","amenity":"restaurant","cuisine":null,"addr:street":null,"addr:housenumber":null,"geometry":[3.0613474,50.6418737],"closest_node":7792931338,"distance_noeud":9.282659815},{"osmid":8019505334,"name":"Mon père","amenity":"restaurant","cuisine":null,"addr:street":null,"addr:housenumber":null,"geometry":[3.0645197,50.633494],"closest_node":294326330,"distance_noeud":53.590834647},{"osmid":8090914352,"name":"Xiong Mao Eat","amenity":"restaurant","cuisine":"asian","addr:street":null,"addr:housenumber":null,"geometry":[3.0641909,50.6371705],"closest_node":6360571385,"distance_noeud":87.3503869938},{"osmid":8093368830,"name":"Il Piada","amenity":"fast_food","cuisine":"pizza","addr:street":null,"addr:housenumber":null,"geometry":[3.0626585,50.6440652],"closest_node":362339757,"distance_noeud":22.556410436},{"osmid":8121423688,"name":"Nagoyra Roll","amenity":"restaurant","cuisine":"japanese","addr:street":null,"addr:housenumber":null,"geometry":[3.0303486,50.6342578],"closest_node":472373637,"distance_noeud":23.7383638378},{"osmid":8154163658,"name":"Bec à sucre","amenity":"restaurant","cuisine":null,"addr:street":null,"addr:housenumber":null,"geometry":[3.0657206,50.6405983],"closest_node":613547834,"distance_noeud":23.3394031631},{"osmid":8173953521,"name":"Friterie Concorde","amenity":"fast_food","cuisine":null,"addr:street":null,"addr:housenumber":null,"geometry":[3.04302,50.6189974],"closest_node":6286235207,"distance_noeud":22.895732843},{"osmid":8301224645,"name":"Le barboteur","amenity":"restaurant","cuisine":null,"addr:street":null,"addr:housenumber":null,"geometry":[3.0215288,50.6293421],"closest_node":475264667,"distance_noeud":60.9188698731},{"osmid":8301224646,"name":"Les Sales Mômes","amenity":"restaurant","cuisine":null,"addr:street":"Quai de l'Ouest","addr:housenumber":"91","geometry":[3.0216357,50.629196],"closest_node":475264667,"distance_noeud":42.8243894363},{"osmid":8313114655,"name":"Fresh Burritos Lille Bethune","amenity":"fast_food","cuisine":"burritos","addr:street":null,"addr:housenumber":null,"geometry":[3.0631158,50.6334307],"closest_node":294326325,"distance_noeud":77.0382805514},{"osmid":8341581280,"name":"Unik Kebab Lille Centre","amenity":"fast_food","cuisine":"kebab","addr:street":null,"addr:housenumber":null,"geometry":[3.0616295,50.6364908],"closest_node":260459828,"distance_noeud":45.8216528828},{"osmid":8418444926,"name":"Daehan","amenity":"restaurant","cuisine":"korean","addr:street":null,"addr:housenumber":null,"geometry":[3.0614815,50.6301424],"closest_node":506774251,"distance_noeud":57.5774178607},{"osmid":8425684273,"name":"La Récré","amenity":"restaurant","cuisine":null,"addr:street":null,"addr:housenumber":null,"geometry":[3.0444618,50.6309596],"closest_node":485133387,"distance_noeud":46.7926460793},{"osmid":8450790151,"name":"Snack Mounir","amenity":"fast_food","cuisine":"kebab","addr:street":null,"addr:housenumber":null,"geometry":[3.0535645,50.6224963],"closest_node":198873263,"distance_noeud":17.7169987109},{"osmid":8450790152,"name":"Snack Tétouan","amenity":"fast_food","cuisine":"kebab","addr:street":null,"addr:housenumber":null,"geometry":[3.0535947,50.6225383],"closest_node":198873263,"distance_noeud":14.2728051969},{"osmid":8450790154,"name":"KOF","amenity":"restaurant","cuisine":null,"addr:street":null,"addr:housenumber":null,"geometry":[3.0536601,50.6226125],"closest_node":198873263,"distance_noeud":14.2988706476},{"osmid":8464276960,"name":"Junk","amenity":"fast_food","cuisine":"burger","addr:street":null,"addr:housenumber":null,"geometry":[3.0604346,50.6384412],"closest_node":438673359,"distance_noeud":67.6207867514},{"osmid":8476093981,"name":"Pizzeria Reggio","amenity":"fast_food","cuisine":"pizza","addr:street":null,"addr:housenumber":null,"geometry":[3.0464025,50.6303077],"closest_node":492204157,"distance_noeud":38.3164260741},{"osmid":8480374326,"name":"Friterie le Ch'ti creux","amenity":"fast_food","cuisine":"burger","addr:street":null,"addr:housenumber":null,"geometry":[2.9762809,50.6586174],"closest_node":1179619515,"distance_noeud":241.8530070824},{"osmid":8520445948,"name":"Germaine","amenity":"restaurant","cuisine":null,"addr:street":null,"addr:housenumber":null,"geometry":[3.0344626,50.637222],"closest_node":1776210163,"distance_noeud":35.3411490191},{"osmid":8613544789,"name":"Un Coin de paradis","amenity":"restaurant","cuisine":"regional","addr:street":null,"addr:housenumber":null,"geometry":[3.0747255,50.6331964],"closest_node":767304469,"distance_noeud":20.6759731882},{"osmid":8625166922,"name":"Snack Le 215","amenity":"fast_food","cuisine":"kebab","addr:street":null,"addr:housenumber":null,"geometry":[3.0521224,50.6207056],"closest_node":4158254716,"distance_noeud":24.2893291406},{"osmid":8730527398,"name":"Lety Délices","amenity":"fast_food","cuisine":"sandwich","addr:street":null,"addr:housenumber":null,"geometry":[3.0807058,50.6230241],"closest_node":4766974438,"distance_noeud":41.3834596094},{"osmid":8730527400,"name":"Thai Street Food by Tony","amenity":"fast_food","cuisine":"thai","addr:street":null,"addr:housenumber":null,"geometry":[3.0790923,50.6237948],"closest_node":4401347180,"distance_noeud":41.8136401184},{"osmid":8781776318,"name":"Côté Sushi","amenity":"restaurant","cuisine":"japanese;peruvian;sushi","addr:street":null,"addr:housenumber":null,"geometry":[3.0625105,50.6330522],"closest_node":251054512,"distance_noeud":129.7523006802},{"osmid":8813490022,"name":"Happy Fox","amenity":"restaurant","cuisine":"pizza","addr:street":null,"addr:housenumber":null,"geometry":[3.0870042,50.6423293],"closest_node":8526333923,"distance_noeud":20.9542886},{"osmid":8818589498,"name":"Le Saigon","amenity":"restaurant","cuisine":"vietnamese","addr:street":null,"addr:housenumber":null,"geometry":[3.0752087,50.6119788],"closest_node":438673220,"distance_noeud":23.8558959854},{"osmid":8818589499,"name":"Kap Tacos","amenity":"fast_food","cuisine":null,"addr:street":null,"addr:housenumber":null,"geometry":[3.0748875,50.6119899],"closest_node":438673220,"distance_noeud":20.202668236},{"osmid":8818589500,"name":"L'Estaminet du Pont","amenity":"restaurant","cuisine":null,"addr:street":null,"addr:housenumber":null,"geometry":[3.0744727,50.6120478],"closest_node":438673248,"distance_noeud":17.9477230976},{"osmid":8839018589,"name":"Angle 95","amenity":"restaurant","cuisine":null,"addr:street":null,"addr:housenumber":null,"geometry":[3.0564899,50.6452806],"closest_node":260579118,"distance_noeud":12.7175519078},{"osmid":8865816420,"name":"Le cornichon bleu","amenity":"restaurant","cuisine":null,"addr:street":null,"addr:housenumber":null,"geometry":[3.0820429,50.640749],"closest_node":1183372554,"distance_noeud":21.5557542592},{"osmid":8866332218,"name":"Angkor","amenity":"restaurant","cuisine":null,"addr:street":null,"addr:housenumber":null,"geometry":[3.085151,50.6419949],"closest_node":530260378,"distance_noeud":42.6836674503},{"osmid":8871443317,"name":"Les Carpates","amenity":"restaurant","cuisine":null,"addr:street":null,"addr:housenumber":null,"geometry":[3.070078,50.6352701],"closest_node":290265438,"distance_noeud":33.6960345555},{"osmid":8871538617,"name":"Bao Canteen Lille","amenity":"restaurant","cuisine":"taiwanese","addr:street":null,"addr:housenumber":null,"geometry":[3.0655986,50.6369434],"closest_node":251050900,"distance_noeud":48.4183652146},{"osmid":8871570418,"name":"El Manar","amenity":"restaurant","cuisine":null,"addr:street":null,"addr:housenumber":null,"geometry":[3.0687706,50.6363422],"closest_node":3076442891,"distance_noeud":39.2533649205},{"osmid":8871570419,"name":"Falafel","amenity":"fast_food","cuisine":"kebab","addr:street":null,"addr:housenumber":null,"geometry":[3.0685421,50.6364554],"closest_node":320950880,"distance_noeud":36.7433461159},{"osmid":8871577618,"name":"Afri Call Food","amenity":"fast_food","cuisine":"african","addr:street":null,"addr:housenumber":null,"geometry":[3.068495,50.6364146],"closest_node":320950880,"distance_noeud":43.6129735135},{"osmid":8871596717,"name":"Chick N Beef","amenity":"fast_food","cuisine":"burger","addr:street":null,"addr:housenumber":null,"geometry":[3.0681558,50.6363472],"closest_node":290265456,"distance_noeud":51.7328468884},{"osmid":8901996755,"name":"Best Tacos","amenity":"fast_food","cuisine":"tacos","addr:street":null,"addr:housenumber":null,"geometry":[3.0750414,50.6131415],"closest_node":438672727,"distance_noeud":19.8810170481},{"osmid":8901996757,"name":"Food Factory","amenity":"fast_food","cuisine":null,"addr:street":null,"addr:housenumber":null,"geometry":[3.0750552,50.612953],"closest_node":438672727,"distance_noeud":31.3039323959},{"osmid":8953238826,"name":"Mood","amenity":"restaurant","cuisine":null,"addr:street":null,"addr:housenumber":null,"geometry":[3.0439223,50.6244053],"closest_node":504902202,"distance_noeud":61.9042310143},{"osmid":8960893896,"name":"Gabbro Cuisine & Vins","amenity":"restaurant","cuisine":null,"addr:street":"Rue Saint-André","addr:housenumber":null,"geometry":[3.0578357,50.6443356],"closest_node":639042049,"distance_noeud":39.2681727457},{"osmid":8973547971,"name":"Autour de vous","amenity":"restaurant","cuisine":null,"addr:street":null,"addr:housenumber":null,"geometry":[3.0581733,50.6401381],"closest_node":251053668,"distance_noeud":34.9263749224},{"osmid":8984024517,"name":"Le Petrouchka - Chti Resto","amenity":"restaurant","cuisine":null,"addr:street":null,"addr:housenumber":null,"geometry":[3.0570408,50.6409967],"closest_node":251053668,"distance_noeud":135.6206000045},{"osmid":8987567599,"name":"Dwich Yourself","amenity":"fast_food","cuisine":null,"addr:street":"Rue des Jardins","addr:housenumber":"34","geometry":[3.0674232,50.6406854],"closest_node":164480275,"distance_noeud":15.0032135015},{"osmid":8987567601,"name":"Le Chamarel","amenity":"restaurant","cuisine":null,"addr:street":null,"addr:housenumber":null,"geometry":[3.0677555,50.6396568],"closest_node":164480279,"distance_noeud":24.5625556125},{"osmid":8989274101,"name":"Le Bettigny","amenity":"restaurant","cuisine":null,"addr:street":null,"addr:housenumber":null,"geometry":[3.0635727,50.6427074],"closest_node":1184702238,"distance_noeud":10.0457706751},{"osmid":8994135754,"name":"Phetchabun","amenity":"restaurant","cuisine":"thai","addr:street":null,"addr:housenumber":null,"geometry":[3.0668184,50.6380854],"closest_node":320950907,"distance_noeud":64.9947664863},{"osmid":9001441423,"name":"Barrière Lille","amenity":"restaurant","cuisine":null,"addr:street":null,"addr:housenumber":null,"geometry":[3.0772599,50.6367635],"closest_node":3077077628,"distance_noeud":81.2739776592},{"osmid":9004135286,"name":"La clé de sol","amenity":"restaurant","cuisine":null,"addr:street":null,"addr:housenumber":null,"geometry":[3.0727557,50.6345087],"closest_node":6525168938,"distance_noeud":182.1003663607},{"osmid":9006193030,"name":"Sister's","amenity":"restaurant","cuisine":"pizza","addr:street":null,"addr:housenumber":null,"geometry":[3.0552185,50.6333912],"closest_node":506774239,"distance_noeud":41.8048037961},{"osmid":9023003637,"name":"La Table d'Édouard","amenity":"restaurant","cuisine":null,"addr:street":null,"addr:housenumber":null,"geometry":[3.0563522,50.634977],"closest_node":1589659457,"distance_noeud":64.9530693579},{"osmid":9026871901,"name":"Baggio Pizza","amenity":"restaurant","cuisine":"pizza","addr:street":"Rue de Thumesnil","addr:housenumber":"41","geometry":[3.0669796,50.6179502],"closest_node":1705440129,"distance_noeud":18.3780571256},{"osmid":9026871903,"name":"Unik","amenity":"fast_food","cuisine":"kebab","addr:street":null,"addr:housenumber":null,"geometry":[3.0671954,50.619689],"closest_node":489576845,"distance_noeud":21.3074687072},{"osmid":9028296735,"name":"L'Espadopn","amenity":"restaurant","cuisine":null,"addr:street":null,"addr:housenumber":null,"geometry":[3.0512245,50.619995],"closest_node":530710691,"distance_noeud":32.3952893329},{"osmid":9029129933,"name":"Le Rendez-vous du Marché","amenity":"restaurant","cuisine":null,"addr:street":null,"addr:housenumber":null,"geometry":[2.9714276,50.6355632],"closest_node":761355180,"distance_noeud":425.7564904508},{"osmid":9038206461,"name":"La Sandwicherie Libanaise","amenity":"fast_food","cuisine":"lebanese","addr:street":null,"addr:housenumber":null,"geometry":[3.0453182,50.6360209],"closest_node":6315125559,"distance_noeud":18.5690324147},{"osmid":9043833897,"name":"Les Francs Burgers","amenity":"restaurant","cuisine":"burger","addr:street":null,"addr:housenumber":null,"geometry":[3.0702933,50.6392446],"closest_node":6298113671,"distance_noeud":23.7472328788},{"osmid":9043833912,"name":"Le Palestro","amenity":"restaurant","cuisine":null,"addr:street":null,"addr:housenumber":null,"geometry":[3.0698112,50.6380475],"closest_node":320950920,"distance_noeud":40.9351826566},{"osmid":9043833913,"name":"Nū Lille","amenity":"restaurant","cuisine":null,"addr:street":null,"addr:housenumber":null,"geometry":[3.072245,50.6382816],"closest_node":849010057,"distance_noeud":123.9739483896},{"osmid":9043836655,"name":"Bi Bim Bap","amenity":"restaurant","cuisine":"thai","addr:street":null,"addr:housenumber":null,"geometry":[3.0683834,50.6371099],"closest_node":320950893,"distance_noeud":60.1144168861},{"osmid":9045129698,"name":"Le Tizi-ouzien. Club 104","amenity":"restaurant","cuisine":null,"addr:street":null,"addr:housenumber":null,"geometry":[3.0444443,50.6226082],"closest_node":1635666776,"distance_noeud":24.6014854236},{"osmid":9045494580,"name":"Le Beau café","amenity":"restaurant","cuisine":null,"addr:street":null,"addr:housenumber":null,"geometry":[3.0626554,50.6302935],"closest_node":1773321434,"distance_noeud":120.4229674076},{"osmid":9046147388,"name":"Lou","amenity":"fast_food","cuisine":"italian_pizza;salad","addr:street":null,"addr:housenumber":null,"geometry":[3.0610837,50.6365405],"closest_node":260459828,"distance_noeud":97.8712631177},{"osmid":9046147391,"name":"Mambo Miam Miam","amenity":"restaurant","cuisine":null,"addr:street":null,"addr:housenumber":null,"geometry":[3.0614303,50.6337264],"closest_node":251054506,"distance_noeud":18.2768899079},{"osmid":9050061551,"name":"Le Braque","amenity":"restaurant","cuisine":null,"addr:street":null,"addr:housenumber":null,"geometry":[3.0626959,50.6410405],"closest_node":618213585,"distance_noeud":53.2081974899},{"osmid":9060613703,"name":"Progetto Napoletano","amenity":"fast_food","cuisine":"italian_pizza","addr:street":null,"addr:housenumber":null,"geometry":[3.0664184,50.637409],"closest_node":262088685,"distance_noeud":99.7351088133},{"osmid":9061585702,"name":"Le Narjis","amenity":"restaurant","cuisine":null,"addr:street":null,"addr:housenumber":null,"geometry":[3.0661639,50.6178444],"closest_node":1705440129,"distance_noeud":76.9794666733},{"osmid":9080906036,"name":"Shake'n Out","amenity":"fast_food","cuisine":"burger","addr:street":null,"addr:housenumber":null,"geometry":[3.0644337,50.636689],"closest_node":6360570284,"distance_noeud":73.4395740392},{"osmid":9118090709,"name":"Le Big Ben","amenity":"restaurant","cuisine":null,"addr:street":null,"addr:housenumber":null,"geometry":[3.0237682,50.6178433],"closest_node":1471212237,"distance_noeud":37.3197453983},{"osmid":9122769070,"name":"Chalet","amenity":"restaurant","cuisine":null,"addr:street":null,"addr:housenumber":null,"geometry":[3.0228353,50.6201228],"closest_node":319074560,"distance_noeud":21.3356583683},{"osmid":9136359798,"name":"Salsa Posada","amenity":"restaurant","cuisine":"tex-mex","addr:street":null,"addr:housenumber":null,"geometry":[3.0593888,50.6432018],"closest_node":260579123,"distance_noeud":56.8168567649},{"osmid":9136359801,"name":"Les Tontons Afro","amenity":"restaurant","cuisine":"african","addr:street":null,"addr:housenumber":null,"geometry":[3.0625033,50.6412964],"closest_node":610539015,"distance_noeud":35.3513538024},{"osmid":9138046672,"name":"Les Saveurs d'Asie - Lomme","amenity":"restaurant","cuisine":"asian","addr:street":null,"addr:housenumber":null,"geometry":[3.0224243,50.6382901],"closest_node":1612744960,"distance_noeud":108.6856107956},{"osmid":9138046674,"name":"Roule Ma Poule","amenity":"restaurant","cuisine":null,"addr:street":null,"addr:housenumber":null,"geometry":[3.0262315,50.6359971],"closest_node":341713080,"distance_noeud":71.5459443214},{"osmid":9144091158,"name":"Burger Street","amenity":"fast_food","cuisine":"burger","addr:street":null,"addr:housenumber":null,"geometry":[3.0470803,50.6132724],"closest_node":1442749640,"distance_noeud":32.1307351597},{"osmid":9144685907,"name":"Beef","amenity":"restaurant","cuisine":"steak_house","addr:street":null,"addr:housenumber":null,"geometry":[3.0616578,50.6370949],"closest_node":260459828,"distance_noeud":48.2222676177},{"osmid":9144685908,"name":"Lille Opéra Brasserie","amenity":"restaurant","cuisine":"french","addr:street":null,"addr:housenumber":null,"geometry":[3.0625024,50.6386691],"closest_node":320950923,"distance_noeud":32.5091768646},{"osmid":9147737575,"name":"Panorama","amenity":"fast_food","cuisine":"sandwich;burger","addr:street":null,"addr:housenumber":null,"geometry":[3.0251199,50.617357],"closest_node":1001410782,"distance_noeud":44.9436909565},{"osmid":9155912005,"name":"Mardasteph Food","amenity":"restaurant","cuisine":"african","addr:street":null,"addr:housenumber":null,"geometry":[3.0516925,50.6257563],"closest_node":469141720,"distance_noeud":16.4090720381},{"osmid":9158415704,"name":"El Riadh","amenity":"fast_food","cuisine":"kebab","addr:street":null,"addr:housenumber":null,"geometry":[3.0554039,50.6324479],"closest_node":506774244,"distance_noeud":33.1827892776},{"osmid":9159416248,"name":"Café - Brasserie Le Delory","amenity":"restaurant","cuisine":null,"addr:street":null,"addr:housenumber":null,"geometry":[3.0693516,50.6335077],"closest_node":504792410,"distance_noeud":39.932321736},{"osmid":9160545170,"name":"49R","amenity":"restaurant","cuisine":null,"addr:street":null,"addr:housenumber":null,"geometry":[3.0573017,50.6403932],"closest_node":251053668,"distance_noeud":70.4637532681},{"osmid":9160569880,"name":"Ma reine","amenity":"restaurant","cuisine":null,"addr:street":null,"addr:housenumber":null,"geometry":[3.0674771,50.6395882],"closest_node":164480279,"distance_noeud":53.0472234782},{"osmid":9163304908,"name":"Choroni","amenity":"restaurant","cuisine":"latin_american","addr:street":null,"addr:housenumber":null,"geometry":[3.057963,50.6468758],"closest_node":252265364,"distance_noeud":68.3878939943},{"osmid":9163304910,"name":"La Dinette","amenity":"restaurant","cuisine":"burger","addr:street":null,"addr:housenumber":null,"geometry":[3.0561018,50.6458086],"closest_node":260579118,"distance_noeud":68.6896887562},{"osmid":9208100582,"name":"Marta","amenity":"restaurant","cuisine":"pizza;italian","addr:street":null,"addr:housenumber":null,"geometry":[3.0226271,50.634267],"closest_node":2750950751,"distance_noeud":143.5394223003},{"osmid":9214321577,"name":"Kairos","amenity":"restaurant","cuisine":null,"addr:street":null,"addr:housenumber":null,"geometry":[3.1135279,50.6255068],"closest_node":6525182593,"distance_noeud":15.0302322562},{"osmid":9229747015,"name":"Chez Tizote","amenity":"restaurant","cuisine":"french;regional","addr:street":null,"addr:housenumber":null,"geometry":[3.0237147,50.637631],"closest_node":342802333,"distance_noeud":90.7234402463},{"osmid":9234035313,"name":"La Pazienza","amenity":"fast_food","cuisine":"italian_pizza","addr:street":null,"addr:housenumber":null,"geometry":[3.0684997,50.6292405],"closest_node":315098507,"distance_noeud":44.5228350386},{"osmid":9234035314,"name":"Come Prima","amenity":"restaurant","cuisine":"pizza;italian","addr:street":null,"addr:housenumber":null,"geometry":[3.0654707,50.6294814],"closest_node":495771429,"distance_noeud":30.7879000814},{"osmid":9249238122,"name":"Chez Brigitte","amenity":"restaurant","cuisine":"french","addr:street":null,"addr:housenumber":null,"geometry":[3.058463,50.6383654],"closest_node":262088470,"distance_noeud":55.6290133239},{"osmid":9249238123,"name":"Les Fishtons","amenity":"fast_food","cuisine":"fish_and_chips","addr:street":null,"addr:housenumber":null,"geometry":[3.0584125,50.6378442],"closest_node":251053675,"distance_noeud":65.599929285},{"osmid":9249238124,"name":"Bart","amenity":"fast_food","cuisine":"sandwich","addr:street":null,"addr:housenumber":null,"geometry":[3.0582715,50.6386904],"closest_node":262088470,"distance_noeud":18.9468338372},{"osmid":9249238128,"name":"Kapris Pepper","amenity":"fast_food","cuisine":"burger","addr:street":null,"addr:housenumber":null,"geometry":[3.0603832,50.6386423],"closest_node":438673359,"distance_noeud":60.2648865736},{"osmid":9249238129,"name":"Davonn","amenity":"restaurant","cuisine":"thai","addr:street":null,"addr:housenumber":null,"geometry":[3.0604533,50.6386493],"closest_node":438673359,"distance_noeud":68.0553170385},{"osmid":9270326617,"name":"IT - Italian Trattoria","amenity":"restaurant","cuisine":null,"addr:street":null,"addr:housenumber":null,"geometry":[3.0693246,50.6369014],"closest_node":4358710668,"distance_noeud":32.5957868843},{"osmid":9294632453,"name":"Paradise Sushi","amenity":"restaurant","cuisine":"sushi","addr:street":null,"addr:housenumber":null,"geometry":[3.0572694,50.6346404],"closest_node":1589659457,"distance_noeud":54.8044451865},{"osmid":9294632454,"name":"L'endroit","amenity":"restaurant","cuisine":"french","addr:street":null,"addr:housenumber":null,"geometry":[3.0572271,50.6351062],"closest_node":260469546,"distance_noeud":50.8254712875},{"osmid":9301445109,"name":"Grand Scène","amenity":"food_court","cuisine":null,"addr:street":null,"addr:housenumber":null,"geometry":[3.064136,50.6345268],"closest_node":1102467072,"distance_noeud":151.433848914},{"osmid":9301445110,"name":"Kitchen Market","amenity":"food_court","cuisine":null,"addr:street":null,"addr:housenumber":null,"geometry":[3.066389,50.634798],"closest_node":290265467,"distance_noeud":88.5874845292},{"osmid":9319545921,"name":"Sans Chichi","amenity":"restaurant","cuisine":null,"addr:street":null,"addr:housenumber":null,"geometry":[3.0654263,50.6387178],"closest_node":1299481329,"distance_noeud":48.3567199034},{"osmid":9319545923,"name":"Basilic & Co","amenity":"restaurant","cuisine":"pizza","addr:street":null,"addr:housenumber":null,"geometry":[3.0595391,50.6358906],"closest_node":251053667,"distance_noeud":15.7144155947},{"osmid":9332852614,"name":"Bella Italia","amenity":"restaurant","cuisine":"italian","addr:street":null,"addr:housenumber":null,"geometry":[3.062622,50.6345333],"closest_node":1023776264,"distance_noeud":105.2995762415},{"osmid":9332852615,"name":"La Fossetta","amenity":"restaurant","cuisine":"italian;pizza","addr:street":null,"addr:housenumber":null,"geometry":[3.0629812,50.6346159],"closest_node":1102248066,"distance_noeud":115.3729911956},{"osmid":9332852616,"name":"O'Tacos","amenity":"fast_food","cuisine":"french_tacos","addr:street":null,"addr:housenumber":null,"geometry":[3.0624658,50.6325134],"closest_node":406517666,"distance_noeud":40.2478428326},{"osmid":9336960218,"name":"La Patate qui Fume","amenity":"restaurant","cuisine":"burger","addr:street":"Rue de Turenne","addr:housenumber":"18","geometry":[3.036319,50.6292322],"closest_node":485133343,"distance_noeud":15.2972818598},{"osmid":9377178017,"name":"Babe","amenity":"restaurant","cuisine":"french","addr:street":null,"addr:housenumber":null,"geometry":[3.0611535,50.6343841],"closest_node":8983324940,"distance_noeud":38.1554410636},{"osmid":9391713297,"name":"Naam","amenity":"fast_food","cuisine":"thai","addr:street":null,"addr:housenumber":null,"geometry":[3.067939,50.6436055],"closest_node":1634463179,"distance_noeud":93.2113107862},{"osmid":9405062817,"name":"Au 30 meal","amenity":"restaurant","cuisine":null,"addr:street":"Rue Paul Duez","addr:housenumber":"30","geometry":[3.0748716,50.6329688],"closest_node":767304469,"distance_noeud":40.6694636803},{"osmid":9415569465,"name":"L'Enjoy","amenity":"restaurant","cuisine":"burger","addr:street":null,"addr:housenumber":null,"geometry":[3.0682003,50.6331429],"closest_node":8666073721,"distance_noeud":35.0716347082},{"osmid":9425271249,"name":"Le Classico Burger","amenity":"fast_food","cuisine":"burger","addr:street":null,"addr:housenumber":null,"geometry":[3.0865401,50.6196799],"closest_node":1007200334,"distance_noeud":11.9046530751},{"osmid":9472516392,"name":"Aux Indes","amenity":"restaurant","cuisine":"indian","addr:street":null,"addr:housenumber":null,"geometry":[3.0585568,50.6376047],"closest_node":1796170325,"distance_noeud":24.8618870225},{"osmid":9472599614,"name":"Tigermilk","amenity":"restaurant","cuisine":"mexican","addr:street":"Place Louise de Bettignies","addr:housenumber":"4","geometry":[3.0646241,50.6404783],"closest_node":406517599,"distance_noeud":14.5614819123},{"osmid":9495073818,"name":"Shahi Palais","amenity":"restaurant","cuisine":"indian","addr:street":null,"addr:housenumber":null,"geometry":[3.0640721,50.6337949],"closest_node":294326325,"distance_noeud":63.4615878214},{"osmid":9507450380,"name":"Le Saj","amenity":"fast_food","cuisine":"lebanese","addr:street":null,"addr:housenumber":null,"geometry":[3.0495791,50.6266735],"closest_node":984839468,"distance_noeud":39.5161301439},{"osmid":9514738891,"name":"Bioburger","amenity":"fast_food","cuisine":"burger","addr:street":null,"addr:housenumber":null,"geometry":[3.0625879,50.6325902],"closest_node":406517666,"distance_noeud":47.693027358},{"osmid":9548356275,"name":"Le Berliner","amenity":"restaurant","cuisine":null,"addr:street":null,"addr:housenumber":null,"geometry":[3.0583666,50.6395685],"closest_node":438673393,"distance_noeud":19.460667063},{"osmid":9616194038,"name":"Millésime","amenity":"restaurant","cuisine":"french","addr:street":null,"addr:housenumber":null,"geometry":[3.0575704,50.6445103],"closest_node":639042049,"distance_noeud":11.6936001753},{"osmid":9616194039,"name":"54 THAI","amenity":"restaurant","cuisine":"thai","addr:street":"Rue Saint-André","addr:housenumber":"54","geometry":[3.0579995,50.6444273],"closest_node":639042049,"distance_noeud":47.5638113544},{"osmid":9624842597,"name":"Pizza mamina","amenity":"fast_food","cuisine":"pizza","addr:street":null,"addr:housenumber":null,"geometry":[3.0475018,50.6129521],"closest_node":1442749624,"distance_noeud":30.3955367196},{"osmid":9624842602,"name":"Street Panini","amenity":"fast_food","cuisine":null,"addr:street":null,"addr:housenumber":null,"geometry":[3.041573,50.6271653],"closest_node":1638013968,"distance_noeud":65.7504322423},{"osmid":9675632251,"name":"Alien","amenity":"restaurant","cuisine":"asian","addr:street":null,"addr:housenumber":null,"geometry":[3.0213757,50.6295609],"closest_node":475264667,"distance_noeud":89.0257718056},{"osmid":9683425651,"name":"Kook'n Pizza","amenity":"fast_food","cuisine":"pizza","addr:street":null,"addr:housenumber":null,"geometry":[3.0437353,50.6293127],"closest_node":1638086129,"distance_noeud":37.6076665167},{"osmid":9683425652,"name":"D'wich Home","amenity":"fast_food","cuisine":"sandwich","addr:street":null,"addr:housenumber":null,"geometry":[3.0440553,50.631343],"closest_node":487062988,"distance_noeud":13.2170955691},{"osmid":9683425653,"name":"121 Food street","amenity":"fast_food","cuisine":"burger;sandwich;tacos;pizza","addr:street":null,"addr:housenumber":null,"geometry":[3.0437168,50.6316521],"closest_node":487062988,"distance_noeud":46.6894225365},{"osmid":9708892963,"name":"La Houblonnière","amenity":"restaurant","cuisine":"regional;french","addr:street":null,"addr:housenumber":null,"geometry":[3.0636556,50.6373265],"closest_node":260579130,"distance_noeud":85.6968680281},{"osmid":9711117146,"name":"La Team Croquette","amenity":"fast_food","cuisine":"regional","addr:street":null,"addr:housenumber":null,"geometry":[3.0641908,50.6316169],"closest_node":3660944338,"distance_noeud":13.4459661188},{"osmid":9726321837,"name":"Mozza Pizza","amenity":"fast_food","cuisine":"pizza","addr:street":null,"addr:housenumber":null,"geometry":[3.0634812,50.6226733],"closest_node":1647146953,"distance_noeud":27.7364765155},{"osmid":9735574244,"name":"Picco Bello","amenity":"fast_food","cuisine":"pizza","addr:street":null,"addr:housenumber":null,"geometry":[3.0179542,50.6413701],"closest_node":391074933,"distance_noeud":59.6902290313},{"osmid":9813270676,"name":"Lucky Panda","amenity":"restaurant","cuisine":"vietnamese","addr:street":null,"addr:housenumber":null,"geometry":[3.0577896,50.6395896],"closest_node":262088456,"distance_noeud":39.3217666769},{"osmid":9914682165,"name":"KFC","amenity":"fast_food","cuisine":"chicken","addr:street":null,"addr:housenumber":null,"geometry":[3.0641273,50.6348562],"closest_node":1102467072,"distance_noeud":159.7749295608},{"osmid":9914682166,"name":"Jaipur","amenity":"restaurant","cuisine":"indian","addr:street":null,"addr:housenumber":null,"geometry":[3.0682376,50.6327148],"closest_node":243072205,"distance_noeud":77.6128804214},{"osmid":9945316208,"name":"The Kays Cellar","amenity":"restaurant","cuisine":null,"addr:street":null,"addr:housenumber":null,"geometry":[3.0547903,50.6303184],"closest_node":1677443271,"distance_noeud":20.4956208702},{"osmid":9946833067,"name":"Le Spécial","amenity":"fast_food","cuisine":"burger;sandwich;tacos;pizza","addr:street":null,"addr:housenumber":null,"geometry":[3.0742766,50.6170351],"closest_node":1941286505,"distance_noeud":33.8618636988},{"osmid":9964058003,"name":"Lebon-bon","amenity":"restaurant","cuisine":"regional","addr:street":null,"addr:housenumber":null,"geometry":[3.0621879,50.6276296],"closest_node":8570203903,"distance_noeud":44.5313336947},{"osmid":9964058004,"name":"Le bon bistrot","amenity":"restaurant","cuisine":"french","addr:street":null,"addr:housenumber":null,"geometry":[3.0615606,50.6282895],"closest_node":506774232,"distance_noeud":37.9384620444},{"osmid":9972501060,"name":"O'Poulet Grillé","amenity":"fast_food","cuisine":"chicken","addr:street":null,"addr:housenumber":null,"geometry":[3.0914621,50.6225541],"closest_node":6316294800,"distance_noeud":27.817009836},{"osmid":9972501063,"name":"French Papa Burger","amenity":"fast_food","cuisine":"burger","addr:street":null,"addr:housenumber":null,"geometry":[3.0915133,50.6227023],"closest_node":1643007799,"distance_noeud":35.9893111789},{"osmid":9979496885,"name":"Le Petit Prince","amenity":"restaurant","cuisine":"pizza","addr:street":null,"addr:housenumber":null,"geometry":[3.0580907,50.6399507],"closest_node":262088456,"distance_noeud":20.1729880066},{"osmid":9982949123,"name":"Gros camion","amenity":"restaurant","cuisine":"burger","addr:street":null,"addr:housenumber":null,"geometry":[3.0211892,50.6297903],"closest_node":343115325,"distance_noeud":138.7134714879},{"osmid":9983956177,"name":"Le Passage Rihour","amenity":"restaurant","cuisine":null,"addr:street":null,"addr:housenumber":null,"geometry":[3.0630318,50.6361865],"closest_node":1102248033,"distance_noeud":38.8903621987},{"osmid":9983956178,"name":"Le Barbier qui fume Rihour","amenity":"restaurant","cuisine":null,"addr:street":null,"addr:housenumber":null,"geometry":[3.0629594,50.6361474],"closest_node":1102248033,"distance_noeud":30.1539963745},{"osmid":9985932832,"name":"Made in France","amenity":"fast_food","cuisine":"sandwich;salad","addr:street":null,"addr:housenumber":null,"geometry":[3.0628981,50.635041],"closest_node":1102248066,"distance_noeud":84.4587839334},{"osmid":10028391262,"name":"Friterie Mestré","amenity":"fast_food","cuisine":"friture","addr:street":null,"addr:housenumber":null,"geometry":[3.050656,50.6277074],"closest_node":468704354,"distance_noeud":14.458139855},{"osmid":10028391266,"name":"Rodizio Brazil","amenity":"restaurant","cuisine":"brazilian","addr:street":null,"addr:housenumber":null,"geometry":[3.0659477,50.6342338],"closest_node":1102467072,"distance_noeud":53.1433276526},{"osmid":10028391267,"name":"Jour","amenity":"restaurant","cuisine":null,"addr:street":null,"addr:housenumber":null,"geometry":[3.0721739,50.6382231],"closest_node":849010057,"distance_noeud":113.818330144},{"osmid":10028391268,"name":"La Table Afghane","amenity":"restaurant","cuisine":"afghan","addr:street":null,"addr:housenumber":null,"geometry":[3.069134,50.6200709],"closest_node":489576862,"distance_noeud":38.3384131381},{"osmid":10028391269,"name":"1000 Pâtes","amenity":"fast_food","cuisine":"pasta","addr:street":null,"addr:housenumber":null,"geometry":[3.0694886,50.6202744],"closest_node":489576862,"distance_noeud":19.4458532163},{"osmid":10028391270,"name":"Burgan Tacos","amenity":"fast_food","cuisine":"tacos","addr:street":null,"addr:housenumber":null,"geometry":[3.067678,50.6198149],"closest_node":2127564742,"distance_noeud":19.1426302247},{"osmid":10036408028,"name":"La Pampa","amenity":"restaurant","cuisine":"argentinian;empanada","addr:street":null,"addr:housenumber":null,"geometry":[3.0574376,50.6467212],"closest_node":252265364,"distance_noeud":12.3974770994},{"osmid":10036408029,"name":"Pizz & Past","amenity":"fast_food","cuisine":"pizza","addr:street":null,"addr:housenumber":null,"geometry":[3.0576295,50.6467886],"closest_node":252265364,"distance_noeud":30.8636214363},{"osmid":10108629051,"name":"Woko Cantine Viet","amenity":"fast_food","cuisine":null,"addr:street":null,"addr:housenumber":null,"geometry":[3.0750095,50.6380926],"closest_node":406386503,"distance_noeud":181.2949766672},{"osmid":10108644974,"name":"Fresh Burritos","amenity":"fast_food","cuisine":null,"addr:street":null,"addr:housenumber":null,"geometry":[3.0751137,50.638061],"closest_node":406386503,"distance_noeud":174.2660590126},{"osmid":10112868989,"name":"Sushi Shop","amenity":"fast_food","cuisine":"sushi","addr:street":null,"addr:housenumber":null,"geometry":[3.0626755,50.6326685],"closest_node":406517666,"distance_noeud":57.8127138871},{"osmid":10112876227,"name":"KFC","amenity":"fast_food","cuisine":"chicken","addr:street":null,"addr:housenumber":null,"geometry":[3.0697877,50.6358622],"closest_node":198873099,"distance_noeud":62.0126570337},{"osmid":10112876228,"name":"Kyoto","amenity":"restaurant","cuisine":"japanese;sushi","addr:street":null,"addr:housenumber":null,"geometry":[3.0699373,50.6357853],"closest_node":198873099,"distance_noeud":43.6749064539},{"osmid":10130417959,"name":"La Cloche","amenity":"restaurant","cuisine":null,"addr:street":null,"addr:housenumber":null,"geometry":[3.0642467,50.6373585],"closest_node":6360571385,"distance_noeud":86.7771467171},{"osmid":10135421380,"name":"Chez Guido","amenity":"restaurant","cuisine":"italian","addr:street":null,"addr:housenumber":null,"geometry":[3.0661631,50.6421632],"closest_node":362339913,"distance_noeud":14.3252940422},{"osmid":10154338668,"name":"Le Bon Jeune","amenity":"fast_food","cuisine":"burger;hot_dog","addr:street":null,"addr:housenumber":null,"geometry":[3.0572074,50.6273829],"closest_node":469309945,"distance_noeud":55.1787967243},{"osmid":10154338669,"name":"Arancinis Lovers","amenity":"restaurant","cuisine":"sicilian","addr:street":"Rue Saint-André","addr:housenumber":null,"geometry":[3.0576859,50.6444315],"closest_node":639042049,"distance_noeud":21.3572587168},{"osmid":10177976915,"name":"Le Faubourg des délices","amenity":"fast_food","cuisine":"sandwich;dessert;pasta","addr:street":"Rue des Jardins Caulier","addr:housenumber":"48","geometry":[3.0813171,50.6402678],"closest_node":530260364,"distance_noeud":13.3507664666},{"osmid":10243448546,"name":"Poppie's Pizza","amenity":"restaurant","cuisine":"pizza","addr:street":null,"addr:housenumber":null,"geometry":[3.0623702,50.613667],"closest_node":6268919519,"distance_noeud":32.4741127293},{"osmid":10251682753,"name":"Archimède","amenity":"restaurant","cuisine":"french","addr:street":null,"addr:housenumber":null,"geometry":[3.052569,50.6392697],"closest_node":305919042,"distance_noeud":87.269104603},{"osmid":10261380151,"name":"La Cantine Urbaine","amenity":"restaurant","cuisine":null,"addr:street":null,"addr:housenumber":null,"geometry":[3.0540583,50.634664],"closest_node":508063541,"distance_noeud":58.0805924183},{"osmid":10273012867,"name":"RU Châtillon","amenity":"restaurant","cuisine":null,"addr:street":null,"addr:housenumber":null,"geometry":[3.0627623,50.6297113],"closest_node":1783585139,"distance_noeud":95.4282262588},{"osmid":10275122889,"name":"Salad & Co","amenity":"restaurant","cuisine":"salad","addr:street":"Rue Nationale","addr:housenumber":"7","geometry":[3.0625027,50.6368635],"closest_node":260459828,"distance_noeud":63.2191218488},{"osmid":10291406251,"name":"Le Carthage","amenity":"fast_food","cuisine":"oriental","addr:street":null,"addr:housenumber":null,"geometry":[3.0483015,50.625051],"closest_node":469141732,"distance_noeud":5.2485727532},{"osmid":10291449542,"name":"Clubtrotter","amenity":"restaurant","cuisine":"international","addr:street":null,"addr:housenumber":null,"geometry":[3.0541389,50.6406189],"closest_node":1302567584,"distance_noeud":79.1134156801},{"osmid":10292905429,"name":"Le petit Thaï","amenity":"fast_food","cuisine":null,"addr:street":null,"addr:housenumber":null,"geometry":[3.002961,50.6473405],"closest_node":8660494312,"distance_noeud":17.7328050224},{"osmid":10304880186,"name":"441 Food Lille","amenity":"fast_food","cuisine":null,"addr:street":null,"addr:housenumber":null,"geometry":[3.0451615,50.6252053],"closest_node":7160628846,"distance_noeud":20.7826912974},{"osmid":10304880187,"name":"O Berliner","amenity":"fast_food","cuisine":"kebab","addr:street":null,"addr:housenumber":null,"geometry":[3.0442387,50.6246009],"closest_node":504902202,"distance_noeud":22.4231116486},{"osmid":10565004723,"name":"Berliner das Original","amenity":"fast_food","cuisine":"kebab","addr:street":null,"addr:housenumber":null,"geometry":[3.0637706,50.6372143],"closest_node":260579130,"distance_noeud":96.8252675076},{"osmid":10565017540,"name":"Ghosn","amenity":"restaurant","cuisine":"french","addr:street":null,"addr:housenumber":null,"geometry":[3.0566598,50.6348153],"closest_node":1589659457,"distance_noeud":29.7781489915},{"osmid":10570245447,"name":"Thai Land Square","amenity":"fast_food","cuisine":"thai","addr:street":null,"addr:housenumber":null,"geometry":[3.0506109,50.6192509],"closest_node":530710673,"distance_noeud":18.3473370123},{"osmid":10583773424,"name":"Paloma","amenity":"restaurant","cuisine":"breakfast;burger","addr:street":null,"addr:housenumber":null,"geometry":[3.0633366,50.6360647],"closest_node":1102248033,"distance_noeud":63.5120211279},{"osmid":10600934027,"name":"La Guinguette de la Marine","amenity":"restaurant","cuisine":"regional","addr:street":null,"addr:housenumber":null,"geometry":[3.0467985,50.6368109],"closest_node":10600934028,"distance_noeud":68.127541204},{"osmid":10601616266,"name":"Le 17.45 Lille","amenity":"restaurant","cuisine":null,"addr:street":null,"addr:housenumber":null,"geometry":[3.0566592,50.6451838],"closest_node":260579118,"distance_noeud":24.9285771378},{"osmid":10601616269,"name":"Épicé","amenity":"restaurant","cuisine":null,"addr:street":null,"addr:housenumber":null,"geometry":[3.0570444,50.6451187],"closest_node":260579118,"distance_noeud":62.016413381},{"osmid":10604059574,"name":"Estaminet des Trolls et Petits Lutins","amenity":"restaurant","cuisine":"regional","addr:street":null,"addr:housenumber":null,"geometry":[3.0662817,50.6260208],"closest_node":251049357,"distance_noeud":23.4910852578},{"osmid":10604059576,"name":"Kousbi","amenity":"fast_food","cuisine":"falafel;lebanese","addr:street":null,"addr:housenumber":null,"geometry":[3.0566468,50.6261005],"closest_node":8568267661,"distance_noeud":11.4905396506},{"osmid":10620348700,"name":"Cosy Lunch","amenity":"restaurant","cuisine":null,"addr:street":null,"addr:housenumber":null,"geometry":[3.0509101,50.6339247],"closest_node":508063758,"distance_noeud":20.3843170348},{"osmid":10697160447,"name":"El Riadh","amenity":"restaurant","cuisine":null,"addr:street":null,"addr:housenumber":null,"geometry":[3.0680353,50.637179],"closest_node":320950893,"distance_noeud":21.3763295216},{"osmid":10697160450,"name":"Osaka","amenity":"restaurant","cuisine":"japanese","addr:street":null,"addr:housenumber":null,"geometry":[3.0688313,50.6370503],"closest_node":320950880,"distance_noeud":39.6987941467},{"osmid":10697160451,"name":"La Pyramide","amenity":"fast_food","cuisine":"kebab","addr:street":null,"addr:housenumber":null,"geometry":[3.0688312,50.6369433],"closest_node":320950880,"distance_noeud":28.077581352},{"osmid":10716098531,"name":"Le Tendre","amenity":"fast_food","cuisine":"chicken","addr:street":"Rue Saint-André","addr:housenumber":null,"geometry":[3.0578345,50.644543],"closest_node":639042049,"distance_noeud":25.8972739786},{"osmid":10734692923,"name":"Petit Jaja","amenity":"restaurant","cuisine":null,"addr:street":null,"addr:housenumber":null,"geometry":[3.0584773,50.6438459],"closest_node":149375060,"distance_noeud":12.2903334437},{"osmid":10765931355,"name":"Pulpe","amenity":"restaurant","cuisine":"french","addr:street":null,"addr:housenumber":null,"geometry":[3.0594512,50.6431669],"closest_node":260579123,"distance_noeud":48.9163694963},{"osmid":10773195283,"name":"Sezame","amenity":"fast_food","cuisine":"kebab","addr:street":null,"addr:housenumber":null,"geometry":[3.0931461,50.6319841],"closest_node":403807760,"distance_noeud":37.4257360435},{"osmid":10773195284,"name":"Chamas Tacos Lille Fives","amenity":"fast_food","cuisine":"tacos","addr:street":null,"addr:housenumber":null,"geometry":[3.093375,50.6318872],"closest_node":403807761,"distance_noeud":40.2222898879},{"osmid":10773316466,"name":"Nefs Berliner Kebab","amenity":"fast_food","cuisine":"kebab","addr:street":null,"addr:housenumber":null,"geometry":[3.0548503,50.6326861],"closest_node":506774239,"distance_noeud":46.5631715203},{"osmid":10778318652,"name":"Café de Paris – Chez Boubiers 1930","amenity":"restaurant","cuisine":"french","addr:street":null,"addr:housenumber":null,"geometry":[3.0650336,50.638283],"closest_node":320963939,"distance_noeud":19.7450621107},{"osmid":10797382773,"name":"Wagon","amenity":"restaurant","cuisine":null,"addr:street":"Place de la Gare","addr:housenumber":"32","geometry":[3.0696493,50.6359608],"closest_node":290265444,"distance_noeud":63.289629163},{"osmid":10810917906,"name":"Dowl","amenity":"fast_food","cuisine":"hot_dog","addr:street":null,"addr:housenumber":null,"geometry":[3.0211386,50.6309856],"closest_node":1161480682,"distance_noeud":29.318727271},{"osmid":10814169751,"name":"Mama Africa","amenity":"restaurant","cuisine":"african","addr:street":null,"addr:housenumber":null,"geometry":[3.0639045,50.6201032],"closest_node":295718912,"distance_noeud":15.1282171499},{"osmid":10819209660,"name":"Onloa Poke","amenity":"fast_food","cuisine":"poke","addr:street":null,"addr:housenumber":null,"geometry":[3.0797249,50.6231891],"closest_node":4401347165,"distance_noeud":37.1705925411},{"osmid":10823955149,"name":"PNY","amenity":"fast_food","cuisine":"burger","addr:street":null,"addr:housenumber":null,"geometry":[3.0654331,50.641553],"closest_node":613547844,"distance_noeud":9.5067025086},{"osmid":10837173155,"name":"Ô Welsh","amenity":"restaurant","cuisine":"regional","addr:street":null,"addr:housenumber":null,"geometry":[3.0623145,50.6137994],"closest_node":6268919519,"distance_noeud":27.7505802397},{"osmid":10902347205,"name":"Snack Marbrerie","amenity":"fast_food","cuisine":null,"addr:street":null,"addr:housenumber":null,"geometry":[3.097984,50.630244],"closest_node":411272625,"distance_noeud":14.3362926349},{"osmid":10911171126,"name":"Laiali Alsham","amenity":"fast_food","cuisine":"kebab","addr:street":null,"addr:housenumber":null,"geometry":[3.0539523,50.6227204],"closest_node":1679975416,"distance_noeud":23.086001341},{"osmid":10911171127,"name":"La Palmeraie","amenity":"fast_food","cuisine":"burger","addr:street":null,"addr:housenumber":null,"geometry":[3.0542132,50.6228354],"closest_node":440740811,"distance_noeud":29.3485319748},{"osmid":10917865141,"name":"Juno","amenity":"restaurant","cuisine":null,"addr:street":null,"addr:housenumber":null,"geometry":[3.0562412,50.6454773],"closest_node":260579118,"distance_noeud":35.6802623856},{"osmid":10917865143,"name":"Bistrot Régent","amenity":"restaurant","cuisine":"french","addr:street":null,"addr:housenumber":null,"geometry":[3.0720363,50.6381536],"closest_node":849010057,"distance_noeud":96.8997647755},{"osmid":10943723402,"name":"La Halle Gourmande","amenity":"restaurant","cuisine":null,"addr:street":null,"addr:housenumber":null,"geometry":[3.0939937,50.6280531],"closest_node":392059610,"distance_noeud":193.3224687398},{"osmid":10970714294,"name":"Five Pizza","amenity":"fast_food","cuisine":"pizza","addr:street":null,"addr:housenumber":null,"geometry":[3.0600508,50.6361051],"closest_node":251053667,"distance_noeud":68.2362711675},{"osmid":11002119405,"name":"Au 1er Mai","amenity":"restaurant","cuisine":"french","addr:street":"Quai de l'Ouest","addr:housenumber":"82","geometry":[3.0211552,50.6298433],"closest_node":343115325,"distance_noeud":133.5008013179},{"osmid":11015676080,"name":"My Resto Pizza","amenity":"restaurant","cuisine":"pizza","addr:street":"Rue des Postes","addr:housenumber":"67","geometry":[3.0561748,50.6257336],"closest_node":198873257,"distance_noeud":24.561287704},{"osmid":11085316239,"name":"L'Assiette du Boucher","amenity":"restaurant","cuisine":"steak_house","addr:street":null,"addr:housenumber":null,"geometry":[3.050938,50.6192113],"closest_node":530710673,"distance_noeud":34.24619767},{"osmid":11085316240,"name":"Tacos Shake","amenity":"fast_food","cuisine":"tacos","addr:street":null,"addr:housenumber":null,"geometry":[3.0513368,50.6197302],"closest_node":530710691,"distance_noeud":20.1627592737},{"osmid":11101710302,"name":"Kabul restaurant","amenity":"fast_food","cuisine":"afghan","addr:street":null,"addr:housenumber":null,"geometry":[3.0893152,50.631952],"closest_node":267375481,"distance_noeud":20.9510659016},{"osmid":11126834565,"name":"Mezzo di Pasta","amenity":"fast_food","cuisine":"pasta","addr:street":null,"addr:housenumber":null,"geometry":[3.064004,50.6376009],"closest_node":260463752,"distance_noeud":58.8619892219},{"osmid":11158709460,"name":"Yop City","amenity":"restaurant","cuisine":"african","addr:street":null,"addr:housenumber":null,"geometry":[3.0650887,50.632334],"closest_node":198873189,"distance_noeud":71.0788446335},{"osmid":11173807802,"name":"Amalyne","amenity":"fast_food","cuisine":"lebanese","addr:street":null,"addr:housenumber":null,"geometry":[3.0447973,50.6293455],"closest_node":1638086129,"distance_noeud":87.1939939982},{"osmid":11217722575,"name":"Indian Garden","amenity":"restaurant","cuisine":"indian","addr:street":null,"addr:housenumber":null,"geometry":[3.0426881,50.6236727],"closest_node":1635701799,"distance_noeud":53.6155428913},{"osmid":11217722576,"name":"Brasserie Dufour","amenity":"restaurant","cuisine":"french","addr:street":null,"addr:housenumber":null,"geometry":[3.0676445,50.6429961],"closest_node":1634463179,"distance_noeud":47.338266227},{"osmid":11233583273,"name":"Nems by Eli","amenity":"restaurant","cuisine":"vietnamese","addr:street":null,"addr:housenumber":null,"geometry":[3.0420457,50.6332424],"closest_node":506803419,"distance_noeud":17.2100130261},{"osmid":11266440839,"name":"El Bellagio","amenity":"restaurant","cuisine":null,"addr:street":null,"addr:housenumber":null,"geometry":[3.0588881,50.6312804],"closest_node":198873215,"distance_noeud":11.4455462721},{"osmid":11266440840,"name":"Costaud","amenity":"restaurant","cuisine":"sandwich","addr:street":null,"addr:housenumber":null,"geometry":[3.0635599,50.6326631],"closest_node":7301806336,"distance_noeud":11.7195568927},{"osmid":11331222492,"name":"Gambatté","amenity":"fast_food","cuisine":"japanese;ramen","addr:street":null,"addr:housenumber":null,"geometry":[3.0491534,50.6266953],"closest_node":984864783,"distance_noeud":47.1807159035},{"osmid":11365976326,"name":"La Buissonière","amenity":"restaurant","cuisine":null,"addr:street":null,"addr:housenumber":null,"geometry":[3.0133051,50.6352704],"closest_node":1043823320,"distance_noeud":18.4353850325},{"osmid":11383427952,"name":"Touloulou","amenity":"restaurant","cuisine":"creole","addr:street":null,"addr:housenumber":null,"geometry":[3.0591511,50.6433807],"closest_node":260579123,"distance_noeud":89.3869077579},{"osmid":11383427954,"name":"Morel & Fils - Au Moulin d'Or","amenity":"restaurant","cuisine":null,"addr:street":null,"addr:housenumber":null,"geometry":[3.0639409,50.6376779],"closest_node":260463752,"distance_noeud":48.331230019},{"osmid":11550413653,"name":"Kainf","amenity":"fast_food","cuisine":"african","addr:street":null,"addr:housenumber":null,"geometry":[3.0460391,50.6245046],"closest_node":469309973,"distance_noeud":10.4914279286},{"osmid":11576923370,"name":"Mezzo Di Pasta","amenity":"fast_food","cuisine":null,"addr:street":null,"addr:housenumber":null,"geometry":[3.075041,50.6375134],"closest_node":3077077628,"distance_noeud":262.373738841},{"osmid":11578234596,"name":"Pokawa","amenity":"fast_food","cuisine":"poke","addr:street":null,"addr:housenumber":null,"geometry":[3.074539,50.6380838],"closest_node":406386503,"distance_noeud":226.0219994675},{"osmid":11681002264,"name":"Ice'Crêp","amenity":"restaurant","cuisine":"crepe","addr:street":"Ruelle Saint-Sauveur","addr:housenumber":null,"geometry":[3.1089759,50.6268928],"closest_node":8607697533,"distance_noeud":30.976867509},{"osmid":11681030857,"name":"Cappuccino","amenity":"restaurant","cuisine":null,"addr:street":"Rue Roger Salengro","addr:housenumber":null,"geometry":[3.1074515,50.6278646],"closest_node":7737418739,"distance_noeud":27.5291426045},{"osmid":11724479485,"name":"Naan Tacos","amenity":"fast_food","cuisine":"tacos","addr:street":null,"addr:housenumber":null,"geometry":[3.0611069,50.6226668],"closest_node":440740820,"distance_noeud":24.2445441873},{"osmid":11787104951,"name":"L'aubergeoise","amenity":"restaurant","cuisine":null,"addr:street":null,"addr:housenumber":null,"geometry":[3.0809314,50.624132],"closest_node":1436583672,"distance_noeud":47.9858281359},{"osmid":11824644899,"name":"Friterie À la ville de Lille","amenity":"fast_food","cuisine":"friture","addr:street":null,"addr:housenumber":null,"geometry":[3.0359133,50.6138507],"closest_node":6279121457,"distance_noeud":36.8484588196},{"osmid":11851461084,"name":"Koko & Riko","amenity":"restaurant","cuisine":null,"addr:street":null,"addr:housenumber":null,"geometry":[3.0614854,50.6139728],"closest_node":1574175853,"distance_noeud":17.6670513873},{"osmid":11945211973,"name":"Jumbo","amenity":"restaurant","cuisine":"sandwich;mediterranean","addr:street":null,"addr:housenumber":null,"geometry":[3.0643228,50.6229567],"closest_node":1647146960,"distance_noeud":19.713918383},{"osmid":11960966437,"name":"Brother & Sister","amenity":"restaurant","cuisine":"french","addr:street":null,"addr:housenumber":null,"geometry":[3.0608848,50.6421754],"closest_node":7792931338,"distance_noeud":56.7123952263},{"osmid":11960966439,"name":"100% Crousti","amenity":"fast_food","cuisine":"grill","addr:street":null,"addr:housenumber":null,"geometry":[3.0492515,50.6254478],"closest_node":469141742,"distance_noeud":27.3016753982},{"osmid":11992003124,"name":"Mesa","amenity":"restaurant","cuisine":null,"addr:street":null,"addr:housenumber":null,"geometry":[3.0804174,50.6349832],"closest_node":1302128722,"distance_noeud":94.0562736767},{"osmid":11992003125,"name":"Squadra","amenity":"restaurant","cuisine":"italian;italian_pizza","addr:street":null,"addr:housenumber":null,"geometry":[3.0802143,50.6347642],"closest_node":1302128722,"distance_noeud":68.8194133583},{"osmid":12043505524,"name":"Den Artiest","amenity":"restaurant","cuisine":null,"addr:street":null,"addr:housenumber":null,"geometry":[3.0628222,50.6360734],"closest_node":1102248033,"distance_noeud":14.8912498134},{"osmid":12043505525,"name":"Brasserie de la Paix","amenity":"restaurant","cuisine":"french;fish;seafood","addr:street":null,"addr:housenumber":null,"geometry":[3.0634149,50.6357545],"closest_node":1102248033,"distance_noeud":74.0361587779},{"osmid":12069524015,"name":"Laurette","amenity":"restaurant","cuisine":null,"addr:street":null,"addr:housenumber":null,"geometry":[3.0750284,50.629204],"closest_node":497394920,"distance_noeud":34.5517868909},{"osmid":12069524019,"name":"JOST","amenity":"food_court","cuisine":null,"addr:street":null,"addr:housenumber":null,"geometry":[3.051799,50.6287738],"closest_node":439772964,"distance_noeud":49.6496539189},{"osmid":12093501395,"name":"Coup de main","amenity":"restaurant","cuisine":null,"addr:street":null,"addr:housenumber":null,"geometry":[3.0557108,50.6460924],"closest_node":639787669,"distance_noeud":25.8245370169},{"osmid":12182090613,"name":"Brasserie André","amenity":"restaurant","cuisine":"french","addr:street":null,"addr:housenumber":null,"geometry":[3.0629731,50.6332742],"closest_node":294326325,"distance_noeud":91.305602031},{"osmid":12183955569,"name":"Le Bangkok","amenity":"restaurant","cuisine":"thai","addr:street":null,"addr:housenumber":null,"geometry":[3.0603055,50.6374633],"closest_node":529791724,"distance_noeud":17.422083884},{"osmid":12194426522,"name":"Salad&Co","amenity":"restaurant","cuisine":"salad","addr:street":null,"addr:housenumber":null,"geometry":[3.0838109,50.6185649],"closest_node":1007200315,"distance_noeud":193.9923070547},{"osmid":12312480004,"name":"Sikaru","amenity":"restaurant","cuisine":null,"addr:street":"Boulevard Jean-Baptiste Lebas","addr:housenumber":"34","geometry":[3.068208,50.6265807],"closest_node":133278923,"distance_noeud":49.8225397076},{"osmid":39288816,"name":"Le Switch","amenity":"restaurant","cuisine":null,"addr:street":null,"addr:housenumber":null,"geometry":[3.0198406,50.6341257],"closest_node":343113935,"distance_noeud":135.0887812958},{"osmid":39437193,"name":"Les Toquées","amenity":"restaurant","cuisine":null,"addr:street":null,"addr:housenumber":null,"geometry":[3.0346398,50.6382217],"closest_node":472383257,"distance_noeud":43.5954832684},{"osmid":39437914,"name":"La Baguette du Bois","amenity":"fast_food","cuisine":"sandwich","addr:street":null,"addr:housenumber":null,"geometry":[3.0299279,50.6344683],"closest_node":471757038,"distance_noeud":44.2495006528},{"osmid":40267927,"name":"Le Bouddhabar'bu","amenity":"restaurant","cuisine":"thai","addr:street":null,"addr:housenumber":null,"geometry":[3.0405977,50.6343955],"closest_node":2973207618,"distance_noeud":24.420067835},{"osmid":40875591,"name":"Gusto Mio","amenity":"restaurant","cuisine":"italian","addr:street":null,"addr:housenumber":null,"geometry":[3.0644747,50.631528],"closest_node":1024070467,"distance_noeud":14.4144748493},{"osmid":40875629,"name":"Akira","amenity":"restaurant","cuisine":"japanese","addr:street":null,"addr:housenumber":null,"geometry":[3.0635349,50.6324826],"closest_node":7301806336,"distance_noeud":10.2404666955},{"osmid":40992551,"name":"Moshi Moshi","amenity":"fast_food","cuisine":"japanese","addr:street":null,"addr:housenumber":null,"geometry":[3.0639202,50.6324949],"closest_node":1792997850,"distance_noeud":21.9345064469},{"osmid":41184578,"name":"Les chaussons de mamie","amenity":"restaurant","cuisine":"regional","addr:street":null,"addr:housenumber":null,"geometry":[3.0743787,50.6301151],"closest_node":4452512248,"distance_noeud":57.1131047072},{"osmid":41290682,"name":"Allo Couscous","amenity":"restaurant","cuisine":"couscous","addr:street":"Boulevard Montebello","addr:housenumber":"19","geometry":[3.0418245,50.6252552],"closest_node":1635710129,"distance_noeud":28.3181217879},{"osmid":41504432,"name":"Restaurant universitaire Vauban - All Resto","amenity":"restaurant","cuisine":"cantine_scolaire","addr:street":null,"addr:housenumber":null,"geometry":[3.0476309,50.6331493],"closest_node":508056193,"distance_noeud":18.1148713629},{"osmid":42054338,"name":"Les saveurs de l'Inde","amenity":"restaurant","cuisine":null,"addr:street":null,"addr:housenumber":null,"geometry":[3.0596885,50.6289913],"closest_node":235809784,"distance_noeud":77.7216931552},{"osmid":42325110,"name":"Los 3 compadres","amenity":"restaurant","cuisine":"mexican","addr:street":null,"addr:housenumber":null,"geometry":[3.0610687,50.6259625],"closest_node":352836899,"distance_noeud":26.5493296277},{"osmid":42326605,"name":"Le Napoli","amenity":"restaurant","cuisine":"pasta;barbecue","addr:street":null,"addr:housenumber":null,"geometry":[3.0609411,50.6243881],"closest_node":251048925,"distance_noeud":38.4412093261},{"osmid":42417523,"name":"Domino's","amenity":"fast_food","cuisine":"pizza","addr:street":null,"addr:housenumber":null,"geometry":[3.0571582,50.6350381],"closest_node":260469546,"distance_noeud":56.2801512294},{"osmid":42425280,"name":"Le Saray","amenity":"restaurant","cuisine":"lebanese","addr:street":null,"addr:housenumber":null,"geometry":[3.0582897,50.6361277],"closest_node":290265517,"distance_noeud":42.1651433339},{"osmid":42435247,"name":"Le Fossile","amenity":"restaurant","cuisine":"steak_house","addr:street":null,"addr:housenumber":null,"geometry":[3.0597672,50.6364498],"closest_node":386665351,"distance_noeud":75.817644749},{"osmid":42478977,"name":"Big Fernand","amenity":"fast_food","cuisine":"burger","addr:street":"Rue Esquermoise","addr:housenumber":"107","geometry":[3.0586279,50.6386439],"closest_node":262088471,"distance_noeud":32.7528026605},{"osmid":42507255,"name":"Le Flam's","amenity":"restaurant","cuisine":"flammekueche","addr:street":null,"addr:housenumber":null,"geometry":[3.0615431,50.6371491],"closest_node":260459828,"distance_noeud":61.2926359053},{"osmid":42507271,"name":"Omnia","amenity":"restaurant","cuisine":"regional","addr:street":null,"addr:housenumber":null,"geometry":[3.0624488,50.6374141],"closest_node":260579130,"distance_noeud":56.178190066},{"osmid":42509988,"name":"Au goût du jour","amenity":"restaurant","cuisine":"french","addr:street":null,"addr:housenumber":null,"geometry":[3.0575174,50.6389515],"closest_node":262088464,"distance_noeud":26.1071147955},{"osmid":42510122,"name":"Il Piccolino","amenity":"restaurant","cuisine":"italian","addr:street":null,"addr:housenumber":null,"geometry":[3.0553536,50.6405956],"closest_node":262088461,"distance_noeud":98.9801003727},{"osmid":42533726,"name":"McDonald's","amenity":"fast_food","cuisine":"burger","addr:street":null,"addr:housenumber":null,"geometry":[3.0621753,50.6326394],"closest_node":406517666,"distance_noeud":67.641163722},{"osmid":42533732,"name":"Le Paon d'Or","amenity":"restaurant","cuisine":"french","addr:street":null,"addr:housenumber":null,"geometry":[3.0624294,50.6328546],"closest_node":251054512,"distance_noeud":117.902326872},{"osmid":42774178,"name":"Aux Pains Dorés","amenity":"fast_food","cuisine":"sandwich","addr:street":null,"addr:housenumber":null,"geometry":[3.0585887,50.6313165],"closest_node":198873215,"distance_noeud":38.4301339669},{"osmid":42775986,"name":"Taberna Latina","amenity":"restaurant","cuisine":"caribbean","addr:street":null,"addr:housenumber":null,"geometry":[3.0601021,50.6308291],"closest_node":439806870,"distance_noeud":60.450395053},{"osmid":43132443,"name":"Krama","amenity":"restaurant","cuisine":"cambodian","addr:street":null,"addr:housenumber":null,"geometry":[3.0642545,50.6227991],"closest_node":440740823,"distance_noeud":14.4656913339},{"osmid":45826543,"name":"La Chicorée","amenity":"restaurant","cuisine":"regional","addr:street":null,"addr:housenumber":null,"geometry":[3.0633338,50.6358476],"closest_node":1102248033,"distance_noeud":62.8706256207},{"osmid":45827055,"name":"Chez Armand","amenity":"restaurant","cuisine":"italian","addr:street":null,"addr:housenumber":null,"geometry":[3.0632769,50.6347421],"closest_node":1102248066,"distance_noeud":135.7135057055},{"osmid":45827936,"name":"Aromebase","amenity":"restaurant","cuisine":"gastronomique;french","addr:street":null,"addr:housenumber":null,"geometry":[3.0633839,50.6348985],"closest_node":1102248066,"distance_noeud":140.4599404183},{"osmid":45828279,"name":"GUR","amenity":"fast_food","cuisine":"kebab","addr:street":null,"addr:housenumber":null,"geometry":[3.062661,50.6324804],"closest_node":406517666,"distance_noeud":37.2385023244},{"osmid":45895565,"name":"McDonald's","amenity":"fast_food","cuisine":"burger","addr:street":null,"addr:housenumber":null,"geometry":[3.0629527,50.6368843],"closest_node":260579130,"distance_noeud":32.8211759307},{"osmid":45898609,"name":"Piccolo Mondo","amenity":"restaurant","cuisine":"italian","addr:street":null,"addr:housenumber":null,"geometry":[3.0632966,50.6345365],"closest_node":1102248066,"distance_noeud":148.8224220527},{"osmid":45898795,"name":"Raptor Shack","amenity":"restaurant","cuisine":"burger","addr:street":null,"addr:housenumber":null,"geometry":[3.0642027,50.6336252],"closest_node":294326325,"distance_noeud":57.9685686131},{"osmid":45899847,"name":"Lacquemant de Lille","amenity":"fast_food","cuisine":"donut;waffle","addr:street":null,"addr:housenumber":null,"geometry":[3.0639822,50.6342989],"closest_node":1102467072,"distance_noeud":168.308352881},{"osmid":45911888,"name":"Coq Hardi","amenity":"restaurant","cuisine":"regional","addr:street":null,"addr:housenumber":null,"geometry":[3.0635819,50.6373651],"closest_node":260579130,"distance_noeud":78.7714636445},{"osmid":48633928,"name":"Le Tropic 97","amenity":"restaurant","cuisine":null,"addr:street":null,"addr:housenumber":null,"geometry":[3.0590157,50.6397192],"closest_node":438673395,"distance_noeud":61.7832554047},{"osmid":49917122,"name":"Cucina Popolare","amenity":"fast_food","cuisine":"italian","addr:street":"Rue des Tours","addr:housenumber":"2","geometry":[3.0659615,50.6406627],"closest_node":613547834,"distance_noeud":16.0913261504},{"osmid":51774494,"name":"Les Convives","amenity":"restaurant","cuisine":null,"addr:street":null,"addr:housenumber":null,"geometry":[3.0590667,50.6436255],"closest_node":149375060,"distance_noeud":70.5530143629},{"osmid":52027242,"name":"La Criée","amenity":"restaurant","cuisine":"seafood","addr:street":null,"addr:housenumber":null,"geometry":[2.9823253,50.6508247],"closest_node":8660494809,"distance_noeud":79.4322112874},{"osmid":52027263,"name":"Italian Trattoria","amenity":"restaurant","cuisine":"italian","addr:street":null,"addr:housenumber":null,"geometry":[2.983863,50.6512382],"closest_node":663248906,"distance_noeud":33.3235093828},{"osmid":52032564,"name":"Les 3 brasseurs - Lomme","amenity":"restaurant","cuisine":null,"addr:street":null,"addr:housenumber":null,"geometry":[2.9857381,50.6517279],"closest_node":8660494676,"distance_noeud":110.1159009878},{"osmid":52060449,"name":"Campanile","amenity":"restaurant","cuisine":"french","addr:street":"Rue du Chateau","addr:housenumber":null,"geometry":[2.9835949,50.6534249],"closest_node":3459558859,"distance_noeud":294.4633559073},{"osmid":56196673,"name":"Subway","amenity":"fast_food","cuisine":"sandwich","addr:street":null,"addr:housenumber":null,"geometry":[3.0624134,50.6325099],"closest_node":406517666,"distance_noeud":41.6855418612},{"osmid":59197319,"name":"Pizza Time","amenity":"fast_food","cuisine":"pizza","addr:street":null,"addr:housenumber":null,"geometry":[3.0571601,50.6269699],"closest_node":469309923,"distance_noeud":15.4348913171},{"osmid":59197359,"name":"L'Adress","amenity":"restaurant","cuisine":null,"addr:street":null,"addr:housenumber":null,"geometry":[3.0572972,50.6268979],"closest_node":469309923,"distance_noeud":31.1661498786},{"osmid":59287295,"name":"Chez Bacchus","amenity":"restaurant","cuisine":"lebanese","addr:street":null,"addr:housenumber":null,"geometry":[3.0545774,50.6243509],"closest_node":295718901,"distance_noeud":30.5227593881},{"osmid":59849726,"name":"Tacos 101","amenity":"fast_food","cuisine":null,"addr:street":null,"addr:housenumber":null,"geometry":[3.0518797,50.6232931],"closest_node":8567348823,"distance_noeud":16.2837589136},{"osmid":60050245,"name":"Nakhil","amenity":"fast_food","cuisine":null,"addr:street":null,"addr:housenumber":null,"geometry":[3.0503385,50.6243319],"closest_node":492204180,"distance_noeud":41.6658871597},{"osmid":60050251,"name":"Le Mekong","amenity":"restaurant","cuisine":"vietnamese;thai","addr:street":null,"addr:housenumber":null,"geometry":[3.0502592,50.6244491],"closest_node":492204180,"distance_noeud":31.507569539},{"osmid":63618744,"name":"Truva Kebab","amenity":"fast_food","cuisine":"kebab","addr:street":null,"addr:housenumber":null,"geometry":[3.0596,50.6430847],"closest_node":260579123,"distance_noeud":30.1541824985},{"osmid":65465192,"name":"Ché Mia","amenity":"fast_food","cuisine":"sandwich","addr:street":null,"addr:housenumber":null,"geometry":[3.0623247,50.6227386],"closest_node":440740821,"distance_noeud":40.2484455056},{"osmid":65487128,"name":"Pizza Delizio","amenity":"restaurant","cuisine":"pizza","addr:street":null,"addr:housenumber":null,"geometry":[3.0718805,50.6224278],"closest_node":267375334,"distance_noeud":18.7471887525},{"osmid":65487277,"name":"CROUS","amenity":"restaurant","cuisine":null,"addr:street":null,"addr:housenumber":null,"geometry":[3.0732998,50.6239565],"closest_node":517340661,"distance_noeud":70.8192595743},{"osmid":71580748,"name":"Le Lyautey","amenity":"restaurant","cuisine":"regional","addr:street":null,"addr:housenumber":null,"geometry":[3.0665113,50.6226937],"closest_node":440740827,"distance_noeud":14.6866558993},{"osmid":77380327,"name":"McDonald's","amenity":"fast_food","cuisine":"burger","addr:street":"Rue Léon Blum","addr:housenumber":"5","geometry":[3.0344041,50.618787],"closest_node":491545391,"distance_noeud":50.5662791126},{"osmid":77494927,"name":"Bodrum","amenity":"fast_food","cuisine":"kebab","addr:street":null,"addr:housenumber":null,"geometry":[3.0715094,50.6183798],"closest_node":362401590,"distance_noeud":11.5655481959},{"osmid":77495097,"name":"Food Street","amenity":"fast_food","cuisine":null,"addr:street":null,"addr:housenumber":null,"geometry":[3.0726389,50.6188637],"closest_node":412788577,"distance_noeud":76.9922331462},{"osmid":77496316,"name":"Le Moulin d'Or","amenity":"fast_food","cuisine":null,"addr:street":null,"addr:housenumber":null,"geometry":[3.0720192,50.6185269],"closest_node":362401590,"distance_noeud":47.1306865229},{"osmid":77496333,"name":"Eat well","amenity":"fast_food","cuisine":null,"addr:street":null,"addr:housenumber":null,"geometry":[3.0715746,50.6182178],"closest_node":251056176,"distance_noeud":17.4134748603},{"osmid":77496724,"name":"Bodrum","amenity":"fast_food","cuisine":"kebab","addr:street":null,"addr:housenumber":null,"geometry":[3.071562,50.6182637],"closest_node":362401590,"distance_noeud":17.0227691875},{"osmid":84396700,"name":"Nador","amenity":"fast_food","cuisine":null,"addr:street":null,"addr:housenumber":null,"geometry":[3.0513015,50.6194152],"closest_node":530710691,"distance_noeud":36.7161235091},{"osmid":84396860,"name":"Chicken Street","amenity":"restaurant","cuisine":null,"addr:street":null,"addr:housenumber":null,"geometry":[3.0515301,50.6200133],"closest_node":530710691,"distance_noeud":53.291801415},{"osmid":84396920,"name":"La Madrague","amenity":"fast_food","cuisine":null,"addr:street":null,"addr:housenumber":null,"geometry":[3.0518675,50.6208318],"closest_node":4158254714,"distance_noeud":18.8220857726},{"osmid":84399115,"name":"L'ambassadeur","amenity":"restaurant","cuisine":null,"addr:street":null,"addr:housenumber":null,"geometry":[3.0509929,50.6198403],"closest_node":530710691,"distance_noeud":22.9548109343},{"osmid":84399764,"name":"Pizza Pasta","amenity":"fast_food","cuisine":"pizza;pasta","addr:street":null,"addr:housenumber":null,"geometry":[3.0523075,50.6209706],"closest_node":530710692,"distance_noeud":42.4478293982},{"osmid":84401505,"name":"Tsing Tao","amenity":"restaurant","cuisine":"thai;vietnamese","addr:street":null,"addr:housenumber":null,"geometry":[3.0495253,50.6247683],"closest_node":492204180,"distance_noeud":95.1994284632},{"osmid":84401552,"name":"Agadir Snack","amenity":"fast_food","cuisine":"kebab","addr:street":null,"addr:housenumber":null,"geometry":[3.0522072,50.6208477],"closest_node":4158254716,"distance_noeud":39.7153489296},{"osmid":84402200,"name":"Sindbad","amenity":"restaurant","cuisine":null,"addr:street":null,"addr:housenumber":null,"geometry":[3.0497993,50.6244575],"closest_node":492204180,"distance_noeud":70.2012127496},{"osmid":84402214,"name":"Alhambra","amenity":"restaurant","cuisine":null,"addr:street":null,"addr:housenumber":null,"geometry":[3.0530545,50.6219016],"closest_node":530710692,"distance_noeud":92.1731869088},{"osmid":84403902,"name":"Diwan","amenity":"restaurant","cuisine":null,"addr:street":null,"addr:housenumber":null,"geometry":[3.0516248,50.6207775],"closest_node":4158254714,"distance_noeud":13.0718332945},{"osmid":84404038,"name":"L'Alcazar","amenity":"restaurant","cuisine":null,"addr:street":null,"addr:housenumber":null,"geometry":[3.0520471,50.6211266],"closest_node":530710692,"distance_noeud":50.4272307169},{"osmid":84404439,"name":"Chick'n Beef","amenity":"fast_food","cuisine":"burger","addr:street":null,"addr:housenumber":null,"geometry":[3.0522072,50.6208477],"closest_node":4158254716,"distance_noeud":39.7153489296},{"osmid":84447863,"name":"Bacio Divino","amenity":"restaurant","cuisine":null,"addr:street":null,"addr:housenumber":null,"geometry":[3.0559498,50.6455847],"closest_node":260579118,"distance_noeud":70.0263054921},{"osmid":84449472,"name":"Le Scoop du Vieux Lille","amenity":"restaurant","cuisine":"french","addr:street":null,"addr:housenumber":null,"geometry":[3.0577811,50.6447092],"closest_node":639042049,"distance_noeud":22.0496704173},{"osmid":84449573,"name":"Quai 38","amenity":"restaurant","cuisine":"fish","addr:street":null,"addr:housenumber":null,"geometry":[3.0578943,50.6466924],"closest_node":252265364,"distance_noeud":61.1396350598},{"osmid":84924273,"name":"Snack House","amenity":"fast_food","cuisine":null,"addr:street":null,"addr:housenumber":null,"geometry":[3.0868982,50.6373816],"closest_node":301250344,"distance_noeud":30.4442123083},{"osmid":84927474,"name":"La Piadina","amenity":"restaurant","cuisine":"pasta;pizza","addr:street":null,"addr:housenumber":null,"geometry":[3.0858508,50.6451779],"closest_node":387217947,"distance_noeud":16.1754632579},{"osmid":84928852,"name":"La dioza","amenity":"restaurant","cuisine":"pizza","addr:street":null,"addr:housenumber":null,"geometry":[3.0849584,50.6371824],"closest_node":250896531,"distance_noeud":30.7654277282},{"osmid":84930349,"name":"Restaurant le Faubourg","amenity":"restaurant","cuisine":"french","addr:street":null,"addr:housenumber":null,"geometry":[3.0817654,50.6405158],"closest_node":6484023920,"distance_noeud":39.4147863759},{"osmid":84936763,"name":"L'Antalya","amenity":"fast_food","cuisine":"kebab","addr:street":null,"addr:housenumber":null,"geometry":[3.0866472,50.6419578],"closest_node":8526333924,"distance_noeud":24.3317871821},{"osmid":84938728,"name":"Caliente","amenity":"restaurant","cuisine":"pizza","addr:street":null,"addr:housenumber":null,"geometry":[3.0811508,50.6402927],"closest_node":530260364,"distance_noeud":11.1738765012},{"osmid":84941875,"name":"Haway","amenity":"restaurant","cuisine":"chinese","addr:street":null,"addr:housenumber":null,"geometry":[3.0852215,50.6421079],"closest_node":6484023915,"distance_noeud":43.4762233746},{"osmid":84942295,"name":"Friterie des Lilas","amenity":"fast_food","cuisine":"friture","addr:street":null,"addr:housenumber":null,"geometry":[3.086757,50.6390834],"closest_node":490094240,"distance_noeud":13.9678982424},{"osmid":85084486,"name":"Pizzeria 129","amenity":"fast_food","cuisine":"pizza","addr:street":null,"addr:housenumber":null,"geometry":[3.0900966,50.6334337],"closest_node":250894268,"distance_noeud":30.3106234526},{"osmid":85087028,"name":"Almeyo","amenity":"restaurant","cuisine":"french;lebanese","addr:street":null,"addr:housenumber":null,"geometry":[3.0883162,50.6325097],"closest_node":4894431354,"distance_noeud":29.7390461393},{"osmid":85087135,"name":"Réfectoire","amenity":"restaurant","cuisine":null,"addr:street":null,"addr:housenumber":null,"geometry":[3.1164168,50.6352144],"closest_node":8603647241,"distance_noeud":110.5679853588},{"osmid":85087646,"name":"El kantaoui","amenity":"restaurant","cuisine":"arab","addr:street":null,"addr:housenumber":null,"geometry":[3.105364,50.6284671],"closest_node":392059597,"distance_noeud":9.897294978},{"osmid":85090111,"name":"Don Pino Pizza","amenity":"restaurant","cuisine":"italian","addr:street":null,"addr:housenumber":null,"geometry":[3.1121914,50.6260747],"closest_node":391337324,"distance_noeud":19.9070689086},{"osmid":85100322,"name":"La bicheTrot","amenity":"restaurant","cuisine":"asian;french","addr:street":"Rue Chanzy - Rue Mattéotti","addr:housenumber":"181","geometry":[3.0980695,50.6247624],"closest_node":330653330,"distance_noeud":24.077629506},{"osmid":85102160,"name":"Friterie du Splendid","amenity":"fast_food","cuisine":"friture","addr:street":null,"addr:housenumber":null,"geometry":[3.0912241,50.6230159],"closest_node":1643007803,"distance_noeud":29.7254466118},{"osmid":85102275,"name":"A Legna","amenity":"restaurant","cuisine":"italian","addr:street":null,"addr:housenumber":null,"geometry":[3.0906801,50.6331843],"closest_node":403800276,"distance_noeud":24.2309633254},{"osmid":108107122,"name":"McDonald's","amenity":"fast_food","cuisine":"burger","addr:street":null,"addr:housenumber":null,"geometry":[2.9842478,50.6509635],"closest_node":663248906,"distance_noeud":53.318697298},{"osmid":108108088,"name":"Le Gourmet d'Asie","amenity":"restaurant","cuisine":"asian","addr:street":null,"addr:housenumber":null,"geometry":[2.970084,50.6386],"closest_node":761355180,"distance_noeud":145.1046575582},{"osmid":108109548,"name":"Subway","amenity":"fast_food","cuisine":"sandwich","addr:street":null,"addr:housenumber":null,"geometry":[2.982918,50.650977],"closest_node":8660494761,"distance_noeud":43.5773057592},{"osmid":108183039,"name":"Au 49","amenity":"restaurant","cuisine":"friture","addr:street":"Avenue de la République","addr:housenumber":"49bis","geometry":[3.014816,50.639683],"closest_node":3280177546,"distance_noeud":14.3639881115},{"osmid":108183301,"name":"Buffalo Grill","amenity":"restaurant","cuisine":"steak_house","addr:street":null,"addr:housenumber":null,"geometry":[2.9847946,50.6510818],"closest_node":663248975,"distance_noeud":52.737845454},{"osmid":108186893,"name":"El Rancho","amenity":"restaurant","cuisine":"mexican","addr:street":null,"addr:housenumber":null,"geometry":[2.985456,50.651529],"closest_node":8660494676,"distance_noeud":77.0116051184},{"osmid":108187155,"name":"Delices Wok","amenity":"restaurant","cuisine":"asian","addr:street":"Rue Lavoisier","addr:housenumber":"449","geometry":[3.009352,50.644393],"closest_node":6331220854,"distance_noeud":125.2613554011},{"osmid":108192107,"name":"Hippopotamus","amenity":"restaurant","cuisine":"steak_house","addr:street":null,"addr:housenumber":null,"geometry":[2.983013,50.651432],"closest_node":663248906,"distance_noeud":98.7185069872},{"osmid":108761626,"name":"Restaurant Campanile Lille Sud - CHR","amenity":"restaurant","cuisine":"french","addr:street":null,"addr:housenumber":null,"geometry":[3.037127,50.6155912],"closest_node":1445551741,"distance_noeud":57.7187653525},{"osmid":108761957,"name":"Saïgon 2","amenity":"restaurant","cuisine":"vietnamese;thai","addr:street":null,"addr:housenumber":null,"geometry":[3.0620867,50.6139084],"closest_node":6268919519,"distance_noeud":50.4151995863},{"osmid":108764486,"name":"Domino's","amenity":"fast_food","cuisine":"pizza","addr:street":null,"addr:housenumber":null,"geometry":[3.0745242,50.613543],"closest_node":1563387554,"distance_noeud":29.3529328853},{"osmid":165527428,"name":"Friterie - Snack","amenity":"fast_food","cuisine":"sandwich","addr:street":null,"addr:housenumber":null,"geometry":[3.0432061,50.6073779],"closest_node":384920628,"distance_noeud":27.8672704822},{"osmid":272180798,"name":"RU Lille-Moulins","amenity":"restaurant","cuisine":null,"addr:street":null,"addr:housenumber":null,"geometry":[3.0672609,50.6192388],"closest_node":489576845,"distance_noeud":39.7821811661},{"osmid":287945929,"name":"Salad&Co","amenity":"restaurant","cuisine":"salad;french;buffet;grill","addr:street":"Rue du Château d'Isenghien","addr:housenumber":"14 ter","geometry":[2.9849427,50.6538166],"closest_node":8660494676,"distance_noeud":253.5193387249},{"osmid":287945930,"name":"Ristorante Del Arte","amenity":"restaurant","cuisine":"italian","addr:street":"Rue du Château d'Isenghien","addr:housenumber":"14 Quater","geometry":[2.9843692,50.6536633],"closest_node":8660494676,"distance_noeud":239.5914574235},{"osmid":833216799,"name":"La Fringale","amenity":"fast_food","cuisine":"friture","addr:street":null,"addr:housenumber":null,"geometry":[3.0330031,50.6192201],"closest_node":1244703493,"distance_noeud":38.4871958325},{"osmid":833216801,"name":"Au petit Festin","amenity":"fast_food","cuisine":"friture","addr:street":null,"addr:housenumber":null,"geometry":[3.084541,50.6374933],"closest_node":313223261,"distance_noeud":19.7953430063},{"osmid":981603556,"name":"Friterie À la ville de Lille","amenity":"fast_food","cuisine":"regional","addr:street":null,"addr:housenumber":null,"geometry":[3.035945,50.6137724],"closest_node":3730375866,"distance_noeud":26.2548465553},{"osmid":1119884826,"name":"La Cabane","amenity":"fast_food","cuisine":null,"addr:street":null,"addr:housenumber":null,"geometry":[3.0488415,50.6381521],"closest_node":149374929,"distance_noeud":320.212137752},{"osmid":1166326541,"name":"McDonald's","amenity":"fast_food","cuisine":"burger","addr:street":null,"addr:housenumber":null,"geometry":[3.0702416,50.63587],"closest_node":198873099,"distance_noeud":22.6484420161},{"osmid":1166326557,"name":"Subway","amenity":"fast_food","cuisine":"sandwich","addr:street":"Place des Buisses","addr:housenumber":null,"geometry":[3.0713747,50.6367905],"closest_node":11606987264,"distance_noeud":84.3423981774},{"osmid":1166326559,"name":"Chopsticks & Co","amenity":"restaurant","cuisine":"asian","addr:street":null,"addr:housenumber":null,"geometry":[3.071264,50.6366124],"closest_node":11606987264,"distance_noeud":103.5574954788},{"osmid":1311272552,"name":"Popeyes","amenity":"fast_food","cuisine":"chicken","addr:street":null,"addr:housenumber":null,"geometry":[2.9829051,50.6500461],"closest_node":663310520,"distance_noeud":60.707263861},{"osmid":11371800,"name":"Ô Delice","amenity":"fast_food","cuisine":"falafel;kebab","addr:street":null,"addr:housenumber":null,"geometry":[3.0412974,50.633532],"closest_node":485133379,"distance_noeud":24.6700044622}]